{"type":"FeatureCollection","metadata":{"generatedBy":"scripts/build-demo-isochrones.mjs","generatedAt":"2026-08-07","disclaimer":"Données synthétiques — démonstration technique, temps de parcours inventés."},"features":[{"type":"Feature","properties":{"duration":60,"from":"Québec"},"geometry":{"type":"Polygon","coordinates":[[[-70.5779,46.8139],[-70.581,46.8564],[-70.5901,46.8986],[-70.6051,46.9399],[-70.6259,46.98],[-70.6523,47.0185],[-70.6841,47.0551],[-70.721,47.0893],[-70.7625,47.1209],[-70.8083,47.1495],[-70.858,47.1748],[-70.911,47.1967],[-70.9669,47.215],[-71.0251,47.2293],[-71.0851,47.2397],[-71.1462,47.2459],[-71.208,47.248],[-71.2698,47.2459],[-71.3309,47.2397],[-71.3909,47.2293],[-71.4491,47.215],[-71.505,47.1967],[-71.558,47.1748],[-71.6077,47.1495],[-71.6535,47.1209],[-71.695,47.0893],[-71.7319,47.0551],[-71.7637,47.0185],[-71.7901,46.98],[-71.8109,46.9399],[-71.8259,46.8986],[-71.835,46.8564],[-71.8381,46.8139],[-71.835,46.7714],[-71.8259,46.7292],[-71.8109,46.6879],[-71.7901,46.6478],[-71.7637,46.6093],[-71.7319,46.5727],[-71.695,46.5385],[-71.6535,46.5069],[-71.6077,46.4783],[-71.558,46.453],[-71.505,46.4311],[-71.4491,46.4128],[-71.3909,46.3985],[-71.3309,46.3881],[-71.2698,46.3819],[-71.208,46.3798],[-71.1462,46.3819],[-71.0851,46.3881],[-71.0251,46.3985],[-70.9669,46.4128],[-70.911,46.4311],[-70.858,46.453],[-70.8083,46.4783],[-70.7625,46.5069],[-70.721,46.5385],[-70.6841,46.5727],[-70.6523,46.6093],[-70.6259,46.6478],[-70.6051,46.6879],[-70.5901,46.7292],[-70.581,46.7714],[-70.5779,46.8139]]]}},{"type":"Feature","properties":{"duration":60,"from":"Lévis"},"geometry":{"type":"Polygon","coordinates":[[[-70.6709,46.8033],[-70.6733,46.8373],[-70.6805,46.8711],[-70.6926,46.9041],[-70.7092,46.9362],[-70.7304,46.967],[-70.7558,46.9962],[-70.7852,47.0236],[-70.8185,47.0489],[-70.8551,47.0718],[-70.8948,47.0921],[-70.9372,47.1096],[-70.9819,47.1241],[-71.0285,47.1356],[-71.0765,47.1439],[-71.1254,47.1489],[-71.1748,47.1506],[-71.2242,47.1489],[-71.2731,47.1439],[-71.3211,47.1356],[-71.3677,47.1241],[-71.4124,47.1096],[-71.4548,47.0921],[-71.4945,47.0718],[-71.5311,47.0489],[-71.5644,47.0236],[-71.5938,46.9962],[-71.6192,46.967],[-71.6404,46.9362],[-71.657,46.9041],[-71.6691,46.8711],[-71.6763,46.8373],[-71.6787,46.8033],[-71.6763,46.7693],[-71.6691,46.7355],[-71.657,46.7025],[-71.6404,46.6704],[-71.6192,46.6396],[-71.5938,46.6104],[-71.5644,46.583],[-71.5311,46.5577],[-71.4945,46.5348],[-71.4548,46.5145],[-71.4124,46.497],[-71.3677,46.4825],[-71.3211,46.471],[-71.2731,46.4627],[-71.2242,46.4577],[-71.1748,46.456],[-71.1254,46.4577],[-71.0765,46.4627],[-71.0285,46.471],[-70.9819,46.4825],[-70.9372,46.497],[-70.8948,46.5145],[-70.8551,46.5348],[-70.8185,46.5577],[-70.7852,46.583],[-70.7558,46.6104],[-70.7304,46.6396],[-70.7092,46.6704],[-70.6926,46.7025],[-70.6805,46.7355],[-70.6733,46.7693],[-70.6709,46.8033]]]}},{"type":"Feature","properties":{"duration":60,"from":"Shannon"},"geometry":{"type":"Polygon","coordinates":[[[-71.0964,46.889],[-71.0984,46.9174],[-71.1045,46.9455],[-71.1145,46.973],[-71.1284,46.9997],[-71.146,47.0254],[-71.1673,47.0498],[-71.1919,47.0726],[-71.2196,47.0936],[-71.2502,47.1127],[-71.2833,47.1296],[-71.3187,47.1442],[-71.356,47.1564],[-71.3949,47.1659],[-71.4349,47.1728],[-71.4758,47.177],[-71.517,47.1784],[-71.5582,47.177],[-71.5991,47.1728],[-71.6391,47.1659],[-71.678,47.1564],[-71.7153,47.1442],[-71.7507,47.1296],[-71.7838,47.1127],[-71.8144,47.0936],[-71.8421,47.0726],[-71.8667,47.0498],[-71.888,47.0254],[-71.9056,46.9997],[-71.9195,46.973],[-71.9295,46.9455],[-71.9356,46.9174],[-71.9376,46.889],[-71.9356,46.8606],[-71.9295,46.8325],[-71.9195,46.805],[-71.9056,46.7783],[-71.888,46.7526],[-71.8667,46.7282],[-71.8421,46.7054],[-71.8144,46.6844],[-71.7838,46.6653],[-71.7507,46.6484],[-71.7153,46.6338],[-71.678,46.6216],[-71.6391,46.6121],[-71.5991,46.6052],[-71.5582,46.601],[-71.517,46.5996],[-71.4758,46.601],[-71.4349,46.6052],[-71.3949,46.6121],[-71.356,46.6216],[-71.3187,46.6338],[-71.2833,46.6484],[-71.2502,46.6653],[-71.2196,46.6844],[-71.1919,46.7054],[-71.1673,46.7282],[-71.146,46.7526],[-71.1284,46.7783],[-71.1145,46.805],[-71.1045,46.8325],[-71.0984,46.8606],[-71.0964,46.889]]]}},{"type":"Feature","properties":{"duration":60,"from":"Sainte-Anne-de-Beaupré"},"geometry":{"type":"Polygon","coordinates":[[[-70.561,47.022],[-70.5628,47.0468],[-70.5681,47.0714],[-70.5769,47.0955],[-70.5891,47.1189],[-70.6046,47.1414],[-70.6232,47.1627],[-70.6448,47.1826],[-70.6691,47.2011],[-70.6959,47.2177],[-70.725,47.2325],[-70.7561,47.2453],[-70.7888,47.2559],[-70.8229,47.2643],[-70.858,47.2704],[-70.8938,47.274],[-70.93,47.2752],[-70.9662,47.274],[-71.002,47.2704],[-71.0371,47.2643],[-71.0712,47.2559],[-71.1039,47.2453],[-71.135,47.2325],[-71.1641,47.2177],[-71.1909,47.2011],[-71.2152,47.1826],[-71.2368,47.1627],[-71.2554,47.1414],[-71.2709,47.1189],[-71.2831,47.0955],[-71.2919,47.0714],[-71.2972,47.0468],[-71.299,47.022],[-71.2972,46.9972],[-71.2919,46.9726],[-71.2831,46.9485],[-71.2709,46.9251],[-71.2554,46.9026],[-71.2368,46.8813],[-71.2152,46.8614],[-71.1909,46.8429],[-71.1641,46.8263],[-71.135,46.8115],[-71.1039,46.7987],[-71.0712,46.7881],[-71.0371,46.7797],[-71.002,46.7736],[-70.9662,46.77],[-70.93,46.7688],[-70.8938,46.77],[-70.858,46.7736],[-70.8229,46.7797],[-70.7888,46.7881],[-70.7561,46.7987],[-70.725,46.8115],[-70.6959,46.8263],[-70.6691,46.8429],[-70.6448,46.8614],[-70.6232,46.8813],[-70.6046,46.9026],[-70.5891,46.9251],[-70.5769,46.9485],[-70.5681,46.9726],[-70.5628,46.9972],[-70.561,47.022]]]}},{"type":"Feature","properties":{"duration":60,"from":"Donnacona"},"geometry":{"type":"Polygon","coordinates":[[[-71.4128,46.678],[-71.4143,46.6993],[-71.4188,46.7203],[-71.4263,46.741],[-71.4367,46.7611],[-71.4499,46.7803],[-71.4657,46.7986],[-71.4841,46.8157],[-71.5048,46.8315],[-71.5277,46.8458],[-71.5524,46.8585],[-71.5789,46.8694],[-71.6067,46.8785],[-71.6358,46.8857],[-71.6657,46.8909],[-71.6962,46.894],[-71.727,46.895],[-71.7578,46.894],[-71.7883,46.8909],[-71.8182,46.8857],[-71.8473,46.8785],[-71.8751,46.8694],[-71.9016,46.8585],[-71.9263,46.8458],[-71.9492,46.8315],[-71.9699,46.8157],[-71.9883,46.7986],[-72.0041,46.7803],[-72.0173,46.7611],[-72.0277,46.741],[-72.0352,46.7203],[-72.0397,46.6993],[-72.0412,46.678],[-72.0397,46.6567],[-72.0352,46.6357],[-72.0277,46.615],[-72.0173,46.5949],[-72.0041,46.5757],[-71.9883,46.5574],[-71.9699,46.5403],[-71.9492,46.5245],[-71.9263,46.5102],[-71.9016,46.4975],[-71.8751,46.4866],[-71.8473,46.4775],[-71.8182,46.4703],[-71.7883,46.4651],[-71.7578,46.462],[-71.727,46.461],[-71.6962,46.462],[-71.6657,46.4651],[-71.6358,46.4703],[-71.6067,46.4775],[-71.5789,46.4866],[-71.5524,46.4975],[-71.5277,46.5102],[-71.5048,46.5245],[-71.4841,46.5403],[-71.4657,46.5574],[-71.4499,46.5757],[-71.4367,46.5949],[-71.4263,46.615],[-71.4188,46.6357],[-71.4143,46.6567],[-71.4128,46.678]]]}},{"type":"Feature","properties":{"duration":60,"from":"Saint-Raymond"},"geometry":{"type":"Polygon","coordinates":[[[-71.6316,46.901],[-71.6327,46.9152],[-71.6357,46.9292],[-71.6407,46.943],[-71.6477,46.9564],[-71.6565,46.9692],[-71.6671,46.9814],[-71.6794,46.9928],[-71.6933,47.0033],[-71.7085,47.0129],[-71.7251,47.0213],[-71.7428,47.0286],[-71.7615,47.0347],[-71.7809,47.0395],[-71.801,47.0429],[-71.8214,47.045],[-71.842,47.0457],[-71.8626,47.045],[-71.883,47.0429],[-71.9031,47.0395],[-71.9225,47.0347],[-71.9412,47.0286],[-71.9589,47.0213],[-71.9755,47.0129],[-71.9907,47.0033],[-72.0046,46.9928],[-72.0169,46.9814],[-72.0275,46.9692],[-72.0363,46.9564],[-72.0433,46.943],[-72.0483,46.9292],[-72.0513,46.9152],[-72.0524,46.901],[-72.0513,46.8868],[-72.0483,46.8728],[-72.0433,46.859],[-72.0363,46.8456],[-72.0275,46.8328],[-72.0169,46.8206],[-72.0046,46.8092],[-71.9907,46.7987],[-71.9755,46.7891],[-71.9589,46.7807],[-71.9412,46.7734],[-71.9225,46.7673],[-71.9031,46.7625],[-71.883,46.7591],[-71.8626,46.757],[-71.842,46.7563],[-71.8214,46.757],[-71.801,46.7591],[-71.7809,46.7625],[-71.7615,46.7673],[-71.7428,46.7734],[-71.7251,46.7807],[-71.7085,46.7891],[-71.6933,46.7987],[-71.6794,46.8092],[-71.6671,46.8206],[-71.6565,46.8328],[-71.6477,46.8456],[-71.6407,46.859],[-71.6357,46.8728],[-71.6327,46.8868],[-71.6316,46.901]]]}},{"type":"Feature","properties":{"duration":60,"from":"Montmagny"},"geometry":{"type":"Polygon","coordinates":[[[-70.396,46.98],[-70.3968,46.9906],[-70.399,47.0012],[-70.4028,47.0115],[-70.408,47.0215],[-70.4147,47.0312],[-70.4226,47.0403],[-70.4319,47.0488],[-70.4423,47.0567],[-70.4538,47.0639],[-70.4662,47.0702],[-70.4795,47.0757],[-70.4935,47.0803],[-70.5081,47.0839],[-70.5232,47.0864],[-70.5385,47.088],[-70.554,47.0885],[-70.5695,47.088],[-70.5848,47.0864],[-70.5999,47.0839],[-70.6145,47.0803],[-70.6285,47.0757],[-70.6418,47.0702],[-70.6542,47.0639],[-70.6657,47.0567],[-70.6761,47.0488],[-70.6854,47.0403],[-70.6933,47.0312],[-70.7,47.0215],[-70.7052,47.0115],[-70.709,47.0012],[-70.7112,46.9906],[-70.712,46.98],[-70.7112,46.9694],[-70.709,46.9588],[-70.7052,46.9485],[-70.7,46.9385],[-70.6933,46.9288],[-70.6854,46.9197],[-70.6761,46.9112],[-70.6657,46.9033],[-70.6542,46.8961],[-70.6418,46.8898],[-70.6285,46.8843],[-70.6145,46.8797],[-70.5999,46.8761],[-70.5848,46.8736],[-70.5695,46.872],[-70.554,46.8715],[-70.5385,46.872],[-70.5232,46.8736],[-70.5081,46.8761],[-70.4935,46.8797],[-70.4795,46.8843],[-70.4662,46.8898],[-70.4538,46.8961],[-70.4423,46.9033],[-70.4319,46.9112],[-70.4226,46.9197],[-70.4147,46.9288],[-70.408,46.9385],[-70.4028,46.9485],[-70.399,46.9588],[-70.3968,46.9694],[-70.396,46.98]]]}},{"type":"Feature","properties":{"duration":45,"from":"Québec"},"geometry":{"type":"Polygon","coordinates":[[[-70.7355,46.8139],[-70.7377,46.8458],[-70.7445,46.8774],[-70.7558,46.9084],[-70.7714,46.9385],[-70.7913,46.9674],[-70.8151,46.9948],[-70.8427,47.0204],[-70.8739,47.0441],[-70.9082,47.0656],[-70.9455,47.0846],[-70.9852,47.101],[-71.0272,47.1147],[-71.0708,47.1255],[-71.1158,47.1332],[-71.1617,47.1379],[-71.208,47.1395],[-71.2543,47.1379],[-71.3002,47.1332],[-71.3452,47.1255],[-71.3888,47.1147],[-71.4308,47.101],[-71.4705,47.0846],[-71.5078,47.0656],[-71.5421,47.0441],[-71.5733,47.0204],[-71.6009,46.9948],[-71.6247,46.9674],[-71.6446,46.9385],[-71.6602,46.9084],[-71.6715,46.8774],[-71.6783,46.8458],[-71.6805,46.8139],[-71.6783,46.782],[-71.6715,46.7504],[-71.6602,46.7194],[-71.6446,46.6893],[-71.6247,46.6604],[-71.6009,46.633],[-71.5733,46.6074],[-71.5421,46.5837],[-71.5078,46.5622],[-71.4705,46.5432],[-71.4308,46.5268],[-71.3888,46.5131],[-71.3452,46.5023],[-71.3002,46.4946],[-71.2543,46.4899],[-71.208,46.4883],[-71.1617,46.4899],[-71.1158,46.4946],[-71.0708,46.5023],[-71.0272,46.5131],[-70.9852,46.5268],[-70.9455,46.5432],[-70.9082,46.5622],[-70.8739,46.5837],[-70.8427,46.6074],[-70.8151,46.633],[-70.7913,46.6604],[-70.7714,46.6893],[-70.7558,46.7194],[-70.7445,46.7504],[-70.7377,46.782],[-70.7355,46.8139]]]}},{"type":"Feature","properties":{"duration":45,"from":"Lévis"},"geometry":{"type":"Polygon","coordinates":[[[-70.8283,46.8033],[-70.83,46.8267],[-70.835,46.8499],[-70.8433,46.8726],[-70.8547,46.8947],[-70.8692,46.9158],[-70.8867,46.9359],[-70.907,46.9548],[-70.9298,46.9721],[-70.955,46.9879],[-70.9823,47.0018],[-71.0115,47.0139],[-71.0422,47.0239],[-71.0742,47.0318],[-71.1072,47.0375],[-71.1408,47.0409],[-71.1748,47.0421],[-71.2088,47.0409],[-71.2424,47.0375],[-71.2754,47.0318],[-71.3074,47.0239],[-71.3381,47.0139],[-71.3673,47.0018],[-71.3946,46.9879],[-71.4198,46.9721],[-71.4426,46.9548],[-71.4629,46.9359],[-71.4804,46.9158],[-71.4949,46.8947],[-71.5063,46.8726],[-71.5146,46.8499],[-71.5196,46.8267],[-71.5213,46.8033],[-71.5196,46.7799],[-71.5146,46.7567],[-71.5063,46.734],[-71.4949,46.7119],[-71.4804,46.6908],[-71.4629,46.6707],[-71.4426,46.6518],[-71.4198,46.6345],[-71.3946,46.6187],[-71.3673,46.6048],[-71.3381,46.5927],[-71.3074,46.5827],[-71.2754,46.5748],[-71.2424,46.5691],[-71.2088,46.5657],[-71.1748,46.5645],[-71.1408,46.5657],[-71.1072,46.5691],[-71.0742,46.5748],[-71.0422,46.5827],[-71.0115,46.5927],[-70.9823,46.6048],[-70.955,46.6187],[-70.9298,46.6345],[-70.907,46.6518],[-70.8867,46.6707],[-70.8692,46.6908],[-70.8547,46.7119],[-70.8433,46.734],[-70.835,46.7567],[-70.83,46.7799],[-70.8283,46.8033]]]}},{"type":"Feature","properties":{"duration":45,"from":"Shannon"},"geometry":{"type":"Polygon","coordinates":[[[-71.2541,46.889],[-71.2554,46.9067],[-71.2592,46.9243],[-71.2654,46.9415],[-71.2741,46.9582],[-71.2852,46.9743],[-71.2984,46.9895],[-71.3138,47.0037],[-71.3311,47.0169],[-71.3502,47.0288],[-71.3709,47.0394],[-71.3931,47.0485],[-71.4164,47.0561],[-71.4407,47.0621],[-71.4657,47.0664],[-71.4912,47.069],[-71.517,47.0699],[-71.5428,47.069],[-71.5683,47.0664],[-71.5933,47.0621],[-71.6176,47.0561],[-71.6409,47.0485],[-71.6631,47.0394],[-71.6838,47.0288],[-71.7029,47.0169],[-71.7202,47.0037],[-71.7356,46.9895],[-71.7488,46.9743],[-71.7599,46.9582],[-71.7686,46.9415],[-71.7748,46.9243],[-71.7786,46.9067],[-71.7799,46.889],[-71.7786,46.8713],[-71.7748,46.8537],[-71.7686,46.8365],[-71.7599,46.8198],[-71.7488,46.8037],[-71.7356,46.7885],[-71.7202,46.7743],[-71.7029,46.7611],[-71.6838,46.7492],[-71.6631,46.7386],[-71.6409,46.7295],[-71.6176,46.7219],[-71.5933,46.7159],[-71.5683,46.7116],[-71.5428,46.709],[-71.517,46.7081],[-71.4912,46.709],[-71.4657,46.7116],[-71.4407,46.7159],[-71.4164,46.7219],[-71.3931,46.7295],[-71.3709,46.7386],[-71.3502,46.7492],[-71.3311,46.7611],[-71.3138,46.7743],[-71.2984,46.7885],[-71.2852,46.8037],[-71.2741,46.8198],[-71.2654,46.8365],[-71.2592,46.8537],[-71.2554,46.8713],[-71.2541,46.889]]]}},{"type":"Feature","properties":{"duration":45,"from":"Sainte-Anne-de-Beaupré"},"geometry":{"type":"Polygon","coordinates":[[[-70.7192,47.022],[-70.7202,47.0362],[-70.7232,47.0502],[-70.7282,47.064],[-70.7352,47.0774],[-70.7441,47.0902],[-70.7547,47.1024],[-70.767,47.1138],[-70.7809,47.1243],[-70.7962,47.1339],[-70.8129,47.1423],[-70.8306,47.1496],[-70.8493,47.1557],[-70.8688,47.1605],[-70.8889,47.1639],[-70.9093,47.166],[-70.93,47.1667],[-70.9507,47.166],[-70.9711,47.1639],[-70.9912,47.1605],[-71.0107,47.1557],[-71.0294,47.1496],[-71.0471,47.1423],[-71.0638,47.1339],[-71.0791,47.1243],[-71.093,47.1138],[-71.1053,47.1024],[-71.1159,47.0902],[-71.1248,47.0774],[-71.1318,47.064],[-71.1368,47.0502],[-71.1398,47.0362],[-71.1408,47.022],[-71.1398,47.0078],[-71.1368,46.9938],[-71.1318,46.98],[-71.1248,46.9666],[-71.1159,46.9538],[-71.1053,46.9416],[-71.093,46.9302],[-71.0791,46.9197],[-71.0638,46.9101],[-71.0471,46.9017],[-71.0294,46.8944],[-71.0107,46.8883],[-70.9912,46.8835],[-70.9711,46.8801],[-70.9507,46.878],[-70.93,46.8773],[-70.9093,46.878],[-70.8889,46.8801],[-70.8688,46.8835],[-70.8493,46.8883],[-70.8306,46.8944],[-70.8129,46.9017],[-70.7962,46.9101],[-70.7809,46.9197],[-70.767,46.9302],[-70.7547,46.9416],[-70.7441,46.9538],[-70.7352,46.9666],[-70.7282,46.98],[-70.7232,46.9938],[-70.7202,47.0078],[-70.7192,47.022]]]}},{"type":"Feature","properties":{"duration":45,"from":"Donnacona"},"geometry":{"type":"Polygon","coordinates":[[[-71.5699,46.678],[-71.5706,46.6886],[-71.5729,46.6992],[-71.5766,46.7095],[-71.5818,46.7195],[-71.5884,46.7292],[-71.5964,46.7383],[-71.6055,46.7468],[-71.6159,46.7547],[-71.6273,46.7619],[-71.6397,46.7682],[-71.6529,46.7737],[-71.6669,46.7783],[-71.6814,46.7819],[-71.6963,46.7844],[-71.7116,46.786],[-71.727,46.7865],[-71.7424,46.786],[-71.7577,46.7844],[-71.7726,46.7819],[-71.7871,46.7783],[-71.8011,46.7737],[-71.8143,46.7682],[-71.8267,46.7619],[-71.8381,46.7547],[-71.8485,46.7468],[-71.8576,46.7383],[-71.8656,46.7292],[-71.8722,46.7195],[-71.8774,46.7095],[-71.8811,46.6992],[-71.8834,46.6886],[-71.8841,46.678],[-71.8834,46.6674],[-71.8811,46.6568],[-71.8774,46.6465],[-71.8722,46.6365],[-71.8656,46.6268],[-71.8576,46.6177],[-71.8485,46.6092],[-71.8381,46.6013],[-71.8267,46.5941],[-71.8143,46.5878],[-71.8011,46.5823],[-71.7871,46.5777],[-71.7726,46.5741],[-71.7577,46.5716],[-71.7424,46.57],[-71.727,46.5695],[-71.7116,46.57],[-71.6963,46.5716],[-71.6814,46.5741],[-71.6669,46.5777],[-71.6529,46.5823],[-71.6397,46.5878],[-71.6273,46.5941],[-71.6159,46.6013],[-71.6055,46.6092],[-71.5964,46.6177],[-71.5884,46.6268],[-71.5818,46.6365],[-71.5766,46.6465],[-71.5729,46.6568],[-71.5706,46.6674],[-71.5699,46.678]]]}},{"type":"Feature","properties":{"duration":45,"from":"Saint-Raymond"},"geometry":{"type":"Polygon","coordinates":[[[-71.7894,46.901],[-71.7897,46.9045],[-71.7904,46.9081],[-71.7917,46.9115],[-71.7934,46.9148],[-71.7956,46.9181],[-71.7983,46.9211],[-71.8013,46.9239],[-71.8048,46.9266],[-71.8086,46.929],[-71.8128,46.9311],[-71.8172,46.9329],[-71.8219,46.9344],[-71.8267,46.9356],[-71.8317,46.9365],[-71.8368,46.937],[-71.842,46.9372],[-71.8472,46.937],[-71.8523,46.9365],[-71.8573,46.9356],[-71.8621,46.9344],[-71.8668,46.9329],[-71.8712,46.9311],[-71.8754,46.929],[-71.8792,46.9266],[-71.8827,46.9239],[-71.8857,46.9211],[-71.8884,46.9181],[-71.8906,46.9148],[-71.8923,46.9115],[-71.8936,46.9081],[-71.8943,46.9045],[-71.8946,46.901],[-71.8943,46.8975],[-71.8936,46.8939],[-71.8923,46.8905],[-71.8906,46.8872],[-71.8884,46.8839],[-71.8857,46.8809],[-71.8827,46.8781],[-71.8792,46.8754],[-71.8754,46.873],[-71.8712,46.8709],[-71.8668,46.8691],[-71.8621,46.8676],[-71.8573,46.8664],[-71.8523,46.8655],[-71.8472,46.865],[-71.842,46.8648],[-71.8368,46.865],[-71.8317,46.8655],[-71.8267,46.8664],[-71.8219,46.8676],[-71.8172,46.8691],[-71.8128,46.8709],[-71.8086,46.873],[-71.8048,46.8754],[-71.8013,46.8781],[-71.7983,46.8809],[-71.7956,46.8839],[-71.7934,46.8872],[-71.7917,46.8905],[-71.7904,46.8939],[-71.7897,46.8975],[-71.7894,46.901]]]}},{"type":"Feature","properties":{"duration":30,"from":"Québec"},"geometry":{"type":"Polygon","coordinates":[[[-70.893,46.8139],[-70.8945,46.8352],[-70.899,46.8562],[-70.9065,46.8769],[-70.917,46.897],[-70.9302,46.9162],[-70.9461,46.9345],[-70.9645,46.9516],[-70.9852,46.9674],[-71.0081,46.9817],[-71.033,46.9944],[-71.0595,47.0053],[-71.0874,47.0144],[-71.1166,47.0216],[-71.1465,47.0268],[-71.1771,47.0299],[-71.208,47.0309],[-71.2389,47.0299],[-71.2695,47.0268],[-71.2994,47.0216],[-71.3286,47.0144],[-71.3565,47.0053],[-71.383,46.9944],[-71.4079,46.9817],[-71.4308,46.9674],[-71.4515,46.9516],[-71.4699,46.9345],[-71.4858,46.9162],[-71.499,46.897],[-71.5095,46.8769],[-71.517,46.8562],[-71.5215,46.8352],[-71.523,46.8139],[-71.5215,46.7926],[-71.517,46.7716],[-71.5095,46.7509],[-71.499,46.7308],[-71.4858,46.7116],[-71.4699,46.6933],[-71.4515,46.6762],[-71.4308,46.6604],[-71.4079,46.6461],[-71.383,46.6334],[-71.3565,46.6225],[-71.3286,46.6134],[-71.2994,46.6062],[-71.2695,46.601],[-71.2389,46.5979],[-71.208,46.5969],[-71.1771,46.5979],[-71.1465,46.601],[-71.1166,46.6062],[-71.0874,46.6134],[-71.0595,46.6225],[-71.033,46.6334],[-71.0081,46.6461],[-70.9852,46.6604],[-70.9645,46.6762],[-70.9461,46.6933],[-70.9302,46.7116],[-70.917,46.7308],[-70.9065,46.7509],[-70.899,46.7716],[-70.8945,46.7926],[-70.893,46.8139]]]}},{"type":"Feature","properties":{"duration":30,"from":"Lévis"},"geometry":{"type":"Polygon","coordinates":[[[-70.9858,46.8033],[-70.9867,46.8161],[-70.9895,46.8287],[-70.994,46.8411],[-71.0002,46.8531],[-71.0081,46.8647],[-71.0177,46.8757],[-71.0287,46.8859],[-71.0412,46.8954],[-71.0549,46.904],[-71.0698,46.9116],[-71.0857,46.9182],[-71.1025,46.9236],[-71.1199,46.9279],[-71.1379,46.931],[-71.1563,46.9329],[-71.1748,46.9335],[-71.1933,46.9329],[-71.2117,46.931],[-71.2297,46.9279],[-71.2471,46.9236],[-71.2639,46.9182],[-71.2798,46.9116],[-71.2947,46.904],[-71.3084,46.8954],[-71.3209,46.8859],[-71.3319,46.8757],[-71.3415,46.8647],[-71.3494,46.8531],[-71.3556,46.8411],[-71.3601,46.8287],[-71.3629,46.8161],[-71.3638,46.8033],[-71.3629,46.7905],[-71.3601,46.7779],[-71.3556,46.7655],[-71.3494,46.7535],[-71.3415,46.7419],[-71.3319,46.7309],[-71.3209,46.7207],[-71.3084,46.7112],[-71.2947,46.7026],[-71.2798,46.695],[-71.2639,46.6884],[-71.2471,46.683],[-71.2297,46.6787],[-71.2117,46.6756],[-71.1933,46.6737],[-71.1748,46.6731],[-71.1563,46.6737],[-71.1379,46.6756],[-71.1199,46.6787],[-71.1025,46.683],[-71.0857,46.6884],[-71.0698,46.695],[-71.0549,46.7026],[-71.0412,46.7112],[-71.0287,46.7207],[-71.0177,46.7309],[-71.0081,46.7419],[-71.0002,46.7535],[-70.994,46.7655],[-70.9895,46.7779],[-70.9867,46.7905],[-70.9858,46.8033]]]}},{"type":"Feature","properties":{"duration":30,"from":"Shannon"},"geometry":{"type":"Polygon","coordinates":[[[-71.4118,46.889],[-71.4124,46.8961],[-71.4139,46.9031],[-71.4164,46.91],[-71.4198,46.9167],[-71.4243,46.9231],[-71.4296,46.9292],[-71.4357,46.9349],[-71.4426,46.9402],[-71.4503,46.9449],[-71.4586,46.9492],[-71.4674,46.9528],[-71.4768,46.9558],[-71.4865,46.9582],[-71.4965,46.96],[-71.5067,46.961],[-71.517,46.9613],[-71.5273,46.961],[-71.5375,46.96],[-71.5475,46.9582],[-71.5572,46.9558],[-71.5666,46.9528],[-71.5754,46.9492],[-71.5837,46.9449],[-71.5914,46.9402],[-71.5983,46.9349],[-71.6044,46.9292],[-71.6097,46.9231],[-71.6142,46.9167],[-71.6176,46.91],[-71.6201,46.9031],[-71.6216,46.8961],[-71.6222,46.889],[-71.6216,46.8819],[-71.6201,46.8749],[-71.6176,46.868],[-71.6142,46.8613],[-71.6097,46.8549],[-71.6044,46.8488],[-71.5983,46.8431],[-71.5914,46.8378],[-71.5837,46.8331],[-71.5754,46.8288],[-71.5666,46.8252],[-71.5572,46.8222],[-71.5475,46.8198],[-71.5375,46.818],[-71.5273,46.817],[-71.517,46.8167],[-71.5067,46.817],[-71.4965,46.818],[-71.4865,46.8198],[-71.4768,46.8222],[-71.4674,46.8252],[-71.4586,46.8288],[-71.4503,46.8331],[-71.4426,46.8378],[-71.4357,46.8431],[-71.4296,46.8488],[-71.4243,46.8549],[-71.4198,46.8613],[-71.4164,46.868],[-71.4139,46.8749],[-71.4124,46.8819],[-71.4118,46.889]]]}},{"type":"Feature","properties":{"duration":30,"from":"Sainte-Anne-de-Beaupré"},"geometry":{"type":"Polygon","coordinates":[[[-70.8773,47.022],[-70.8775,47.0255],[-70.8783,47.0291],[-70.8796,47.0325],[-70.8813,47.0358],[-70.8835,47.0391],[-70.8862,47.0421],[-70.8893,47.0449],[-70.8927,47.0476],[-70.8966,47.05],[-70.9007,47.0521],[-70.9052,47.0539],[-70.9098,47.0554],[-70.9147,47.0566],[-70.9197,47.0575],[-70.9248,47.058],[-70.93,47.0582],[-70.9352,47.058],[-70.9403,47.0575],[-70.9453,47.0566],[-70.9502,47.0554],[-70.9548,47.0539],[-70.9593,47.0521],[-70.9634,47.05],[-70.9673,47.0476],[-70.9707,47.0449],[-70.9738,47.0421],[-70.9765,47.0391],[-70.9787,47.0358],[-70.9804,47.0325],[-70.9817,47.0291],[-70.9825,47.0255],[-70.9827,47.022],[-70.9825,47.0185],[-70.9817,47.0149],[-70.9804,47.0115],[-70.9787,47.0082],[-70.9765,47.0049],[-70.9738,47.0019],[-70.9707,46.9991],[-70.9673,46.9964],[-70.9634,46.994],[-70.9593,46.9919],[-70.9548,46.9901],[-70.9502,46.9886],[-70.9453,46.9874],[-70.9403,46.9865],[-70.9352,46.986],[-70.93,46.9858],[-70.9248,46.986],[-70.9197,46.9865],[-70.9147,46.9874],[-70.9098,46.9886],[-70.9052,46.9901],[-70.9007,46.9919],[-70.8966,46.994],[-70.8927,46.9964],[-70.8893,46.9991],[-70.8862,47.0019],[-70.8835,47.0049],[-70.8813,47.0082],[-70.8796,47.0115],[-70.8783,47.0149],[-70.8775,47.0185],[-70.8773,47.022]]]}},{"type":"Feature","properties":{"duration":15,"from":"Québec"},"geometry":{"type":"Polygon","coordinates":[[[-71.0505,46.8139],[-71.0512,46.8245],[-71.0535,46.8351],[-71.0573,46.8454],[-71.0625,46.8554],[-71.0691,46.8651],[-71.077,46.8742],[-71.0862,46.8827],[-71.0966,46.8906],[-71.1081,46.8978],[-71.1205,46.9041],[-71.1337,46.9096],[-71.1477,46.9142],[-71.1623,46.9178],[-71.1773,46.9203],[-71.1926,46.9219],[-71.208,46.9224],[-71.2234,46.9219],[-71.2387,46.9203],[-71.2537,46.9178],[-71.2683,46.9142],[-71.2823,46.9096],[-71.2955,46.9041],[-71.3079,46.8978],[-71.3194,46.8906],[-71.3298,46.8827],[-71.339,46.8742],[-71.3469,46.8651],[-71.3535,46.8554],[-71.3587,46.8454],[-71.3625,46.8351],[-71.3648,46.8245],[-71.3655,46.8139],[-71.3648,46.8033],[-71.3625,46.7927],[-71.3587,46.7824],[-71.3535,46.7724],[-71.3469,46.7627],[-71.339,46.7536],[-71.3298,46.7451],[-71.3194,46.7372],[-71.3079,46.73],[-71.2955,46.7237],[-71.2823,46.7182],[-71.2683,46.7136],[-71.2537,46.71],[-71.2387,46.7075],[-71.2234,46.7059],[-71.208,46.7054],[-71.1926,46.7059],[-71.1773,46.7075],[-71.1623,46.71],[-71.1477,46.7136],[-71.1337,46.7182],[-71.1205,46.7237],[-71.1081,46.73],[-71.0966,46.7372],[-71.0862,46.7451],[-71.077,46.7536],[-71.0691,46.7627],[-71.0625,46.7724],[-71.0573,46.7824],[-71.0535,46.7927],[-71.0512,46.8033],[-71.0505,46.8139]]]}},{"type":"Feature","properties":{"duration":15,"from":"Lévis"},"geometry":{"type":"Polygon","coordinates":[[[-71.1433,46.8033],[-71.1435,46.8054],[-71.1439,46.8075],[-71.1447,46.8096],[-71.1457,46.8116],[-71.147,46.8135],[-71.1486,46.8154],[-71.1505,46.8171],[-71.1525,46.8186],[-71.1548,46.8201],[-71.1573,46.8213],[-71.16,46.8224],[-71.1627,46.8234],[-71.1657,46.8241],[-71.1687,46.8246],[-71.1717,46.8249],[-71.1748,46.825],[-71.1779,46.8249],[-71.1809,46.8246],[-71.1839,46.8241],[-71.1869,46.8234],[-71.1896,46.8224],[-71.1923,46.8213],[-71.1948,46.8201],[-71.1971,46.8186],[-71.1991,46.8171],[-71.201,46.8154],[-71.2026,46.8135],[-71.2039,46.8116],[-71.2049,46.8096],[-71.2057,46.8075],[-71.2061,46.8054],[-71.2063,46.8033],[-71.2061,46.8012],[-71.2057,46.7991],[-71.2049,46.797],[-71.2039,46.795],[-71.2026,46.7931],[-71.201,46.7912],[-71.1991,46.7895],[-71.1971,46.788],[-71.1948,46.7865],[-71.1923,46.7853],[-71.1896,46.7842],[-71.1869,46.7832],[-71.1839,46.7825],[-71.1809,46.782],[-71.1779,46.7817],[-71.1748,46.7816],[-71.1717,46.7817],[-71.1687,46.782],[-71.1657,46.7825],[-71.1627,46.7832],[-71.16,46.7842],[-71.1573,46.7853],[-71.1548,46.7865],[-71.1525,46.788],[-71.1505,46.7895],[-71.1486,46.7912],[-71.147,46.7931],[-71.1457,46.795],[-71.1447,46.797],[-71.1439,46.7991],[-71.1435,46.8012],[-71.1433,46.8033]]]}}]}