{"type": "FeatureCollection", "metadata": {"script": "scripts/analysis/tramway-isochrones.py", "genere_le": "2026-10-05", "source": "OpenStreetMap (ODbL) ; Statistique Canada, Recensement 2021", "attribution": "© les contributeurs d'OpenStreetMap", "titre": "Stations de TramCité (29, dont 5 pôles)", "pop": "Population desservie par palier, de 2 à 15 min (indice 0 = 2 min) : sert au rang et à la moyenne de la ligne."}, "features": [{"type": "Feature", "properties": {"couche": "station", "station": "Le Gendre", "nom": "Le Gendre", "ordre": 1, "pole": true, "pop": [24, 60, 109, 178, 268, 344, 441, 565, 701, 856, 1065, 1273, 1531, 1904], "obstacle_fr": "L'autoroute 40 et les grands terrains industriels limitent", "obstacle_en": "Highway 40 and large industrial lots limit"}, "geometry": {"type": "Point", "coordinates": [-71.35299, 46.77301]}}, {"type": "Feature", "properties": {"couche": "station", "station": "Chaudière", "nom": "Chaudière", "ordre": 2, "pole": false, "pop": [13, 22, 37, 52, 63, 89, 116, 172, 206, 256, 302, 368, 473, 567]}, "geometry": {"type": "Point", "coordinates": [-71.34398, 46.77376]}}, {"type": "Feature", "properties": {"couche": "station", "station": "McCartney", "nom": "McCartney", "ordre": 3, "pole": false, "pop": [162, 300, 467, 761, 1250, 1830, 2504, 3408, 4464, 5238, 5950, 6626, 7368, 8906]}, "geometry": {"type": "Point", "coordinates": [-71.33011, 46.76593]}}, {"type": "Feature", "properties": {"couche": "station", "station": "Pie-XII", "nom": "Pie-XII", "ordre": 4, "pole": false, "pop": [273, 477, 757, 1031, 1496, 1844, 2400, 2920, 3454, 4003, 4801, 5560, 6400, 7637]}, "geometry": {"type": "Point", "coordinates": [-71.32077, 46.76054]}}, {"type": "Feature", "properties": {"couche": "station", "station": "Bégon", "nom": "Bégon", "ordre": 5, "pole": false, "pop": [343, 606, 965, 1327, 1764, 2421, 2902, 3716, 4493, 5186, 5892, 6731, 7747, 8681]}, "geometry": {"type": "Point", "coordinates": [-71.31607, 46.76346]}}, {"type": "Feature", "properties": {"couche": "station", "station": "Duchesneau", "nom": "Duchesneau", "ordre": 6, "pole": false, "pop": [183, 394, 714, 1194, 1857, 2668, 3401, 4086, 4699, 5524, 6254, 6998, 7833, 8653]}, "geometry": {"type": "Point", "coordinates": [-71.30995, 46.76751]}}, {"type": "Feature", "properties": {"couche": "station", "station": "Roland-Beaudin", "nom": "Roland-Beaudin", "ordre": 7, "pole": false, "pop": [101, 218, 357, 614, 948, 1414, 1804, 2255, 2890, 3378, 3829, 4503, 5193, 5830]}, "geometry": {"type": "Point", "coordinates": [-71.29855, 46.77176]}}, {"type": "Feature", "properties": {"couche": "station", "station": "Sainte-Foy", "nom": "Sainte-Foy", "ordre": 8, "pole": true, "pop": [73, 155, 226, 398, 636, 887, 1221, 1635, 2140, 2558, 3116, 3651, 4261, 4747], "obstacle_fr": "Les échangeurs des autoroutes 73 et 540 limitent", "obstacle_en": "The Highway 73 and 540 interchanges limit"}, "geometry": {"type": "Point", "coordinates": [-71.29123, 46.76703]}}, {"type": "Feature", "properties": {"couche": "station", "station": "CHUL", "nom": "CHUL", "ordre": 9, "pole": false, "pop": [144, 250, 362, 588, 763, 1087, 1455, 1831, 2436, 2966, 3566, 4187, 4891, 5706]}, "geometry": {"type": "Point", "coordinates": [-71.28339, 46.76977]}}, {"type": "Feature", "properties": {"couche": "station", "station": "Place Ste-Foy", "nom": "Place Ste-Foy", "ordre": 10, "pole": false, "pop": [107, 185, 297, 419, 654, 921, 1254, 1695, 2358, 2865, 3470, 4028, 4573, 5296]}, "geometry": {"type": "Point", "coordinates": [-71.27643, 46.77336]}}, {"type": "Feature", "properties": {"couche": "station", "station": "Université Laval", "nom": "Université Laval", "ordre": 11, "pole": true, "pop": [151, 291, 479, 677, 880, 1122, 1448, 1744, 2138, 2500, 2893, 3377, 3950, 4643]}, "geometry": {"type": "Point", "coordinates": [-71.27422, 46.77722]}}, {"type": "Feature", "properties": {"couche": "station", "station": "Desjardins", "nom": "Desjardins", "ordre": 12, "pole": false, "pop": [132, 278, 474, 651, 909, 1108, 1357, 1640, 1984, 2350, 2757, 3278, 3787, 4358]}, "geometry": {"type": "Point", "coordinates": [-71.26998, 46.7797]}}, {"type": "Feature", "properties": {"couche": "station", "station": "Myrand", "nom": "Myrand", "ordre": 13, "pole": false, "pop": [72, 182, 296, 478, 693, 986, 1403, 1907, 2477, 3069, 3993, 4914, 5946, 6992]}, "geometry": {"type": "Point", "coordinates": [-71.26273, 46.78356]}}, {"type": "Feature", "properties": {"couche": "station", "station": "Maguire", "nom": "Maguire", "ordre": 14, "pole": false, "pop": [267, 472, 749, 1157, 1634, 2209, 2858, 3500, 4217, 4947, 5888, 7031, 8063, 9211]}, "geometry": {"type": "Point", "coordinates": [-71.2579, 46.78632]}}, {"type": "Feature", "properties": {"couche": "station", "station": "Holland", "nom": "Holland", "ordre": 15, "pole": false, "pop": [230, 529, 873, 1350, 1877, 2869, 3517, 4169, 4926, 5733, 6871, 8012, 9221, 10396]}, "geometry": {"type": "Point", "coordinates": [-71.24903, 46.79162]}}, {"type": "Feature", "properties": {"couche": "station", "station": "Collège Saint-Charles-Garnier", "nom": "Collège Saint-Charles-Garnier", "ordre": 16, "pole": false, "pop": [122, 270, 437, 706, 1158, 1803, 2556, 3597, 4534, 5845, 7032, 8384, 9833, 11239]}, "geometry": {"type": "Point", "coordinates": [-71.24449, 46.79421]}}, {"type": "Feature", "properties": {"couche": "station", "station": "Belvédère", "nom": "Belvédère", "ordre": 17, "pole": false, "pop": [217, 534, 1023, 1641, 2395, 3167, 4107, 5441, 6846, 8110, 9391, 10854, 12182, 13446]}, "geometry": {"type": "Point", "coordinates": [-71.23932, 46.79703]}}, {"type": "Feature", "properties": {"couche": "station", "station": "Brown", "nom": "Brown", "ordre": 18, "pole": false, "pop": [504, 1055, 1672, 2554, 3767, 4867, 6057, 7519, 8814, 10335, 11524, 12673, 13999, 15189]}, "geometry": {"type": "Point", "coordinates": [-71.23417, 46.79995]}}, {"type": "Feature", "properties": {"couche": "station", "station": "Cartier", "nom": "Cartier", "ordre": 19, "pole": false, "pop": [613, 1151, 1938, 2811, 4190, 5461, 7180, 8763, 10484, 12849, 14651, 17234, 19363, 21634]}, "geometry": {"type": "Point", "coordinates": [-71.22663, 46.80428]}}, {"type": "Feature", "properties": {"couche": "station", "station": "Colline Parlementaire", "nom": "Colline Parlementaire", "ordre": 20, "pole": false, "pop": [173, 509, 1027, 1630, 2604, 3446, 4553, 5743, 6830, 8300, 9412, 11051, 12966, 14889]}, "geometry": {"type": "Point", "coordinates": [-71.21759, 46.80899]}}, {"type": "Feature", "properties": {"couche": "station", "station": "D'Youville", "nom": "D'Youville", "ordre": 21, "pole": false, "pop": [201, 436, 802, 1436, 2222, 3164, 4090, 5171, 6326, 7917, 9471, 11084, 12734, 14388]}, "geometry": {"type": "Point", "coordinates": [-71.21557, 46.81182]}}, {"type": "Feature", "properties": {"couche": "station", "station": "Jean-Paul-L'Allier", "nom": "Jean-Paul-L'Allier", "ordre": 22, "pole": false, "pop": [359, 828, 1359, 2471, 3929, 5507, 7177, 9026, 10626, 12106, 13718, 15426, 17201, 18888]}, "geometry": {"type": "Point", "coordinates": [-71.22394, 46.81343]}}, {"type": "Feature", "properties": {"couche": "station", "station": "Saint-Roch", "nom": "Saint-Roch", "ordre": 23, "pole": true, "pop": [72, 97, 158, 275, 420, 521, 718, 1217, 1606, 2572, 3687, 4872, 6092, 7349], "obstacle_fr": "La rivière Saint-Charles limite", "obstacle_en": "The Saint-Charles River limits"}, "geometry": {"type": "Point", "coordinates": [-71.22966, 46.81881]}}, {"type": "Feature", "properties": {"couche": "station", "station": "9e Rue", "nom": "9e Rue", "ordre": 24, "pole": false, "pop": [473, 905, 1567, 2346, 3179, 4156, 5176, 6294, 7481, 8859, 10023, 11441, 12589, 13807]}, "geometry": {"type": "Point", "coordinates": [-71.23249, 46.82447]}}, {"type": "Feature", "properties": {"couche": "station", "station": "Hôpital Saint-François d'Assise", "nom": "Hôpital Saint-François d'Assise", "ordre": 25, "pole": false, "pop": [313, 772, 1410, 2321, 3296, 4330, 5610, 6944, 8126, 9294, 10607, 11665, 13015, 14129]}, "geometry": {"type": "Point", "coordinates": [-71.23522, 46.82753]}}, {"type": "Feature", "properties": {"couche": "station", "station": "18e Rue", "nom": "18e Rue", "ordre": 26, "pole": false, "pop": [464, 871, 1348, 1944, 2670, 3841, 5009, 6222, 7572, 8551, 9648, 10744, 12099, 13372]}, "geometry": {"type": "Point", "coordinates": [-71.2378, 46.83011]}}, {"type": "Feature", "properties": {"couche": "station", "station": "Patro Roc-Amadour", "nom": "Patro Roc-Amadour", "ordre": 27, "pole": false, "pop": [195, 453, 796, 1305, 1848, 2589, 3619, 4761, 5635, 6703, 7905, 9215, 10949, 12491]}, "geometry": {"type": "Point", "coordinates": [-71.24147, 46.83357]}}, {"type": "Feature", "properties": {"couche": "station", "station": "Des Peupliers", "nom": "Des Peupliers", "ordre": 28, "pole": false, "pop": [266, 573, 947, 1480, 2064, 2789, 3651, 4511, 5517, 6643, 8007, 9578, 10886, 12456]}, "geometry": {"type": "Point", "coordinates": [-71.24514, 46.83808]}}, {"type": "Feature", "properties": {"couche": "station", "station": "Charlesbourg", "nom": "Charlesbourg", "ordre": 29, "pole": true, "pop": [145, 328, 557, 910, 1286, 1779, 2313, 3046, 4165, 5178, 6339, 7635, 9044, 10443]}, "geometry": {"type": "Point", "coordinates": [-71.24827, 46.84148]}}]}