{"type":"FeatureCollection","metadata":{"titre":"Aires de marche autour des stations du tramway","script":"scripts/analysis/tramway-isochrones.py","genere_le":"2026-10-02","paliers_min":[3,5,7,10,12,15],"methode":"Parcours de graphe (Dijkstra) sur le réseau marchable d'OpenStreetMap, à 4.2 km/h. Un polygone par palier de temps, découpé dans un parcours unique. Couloir de 40 m autour des rues atteintes, car une rue dessert les bâtiments qui la bordent et pas son seul axe. Pas d'enveloppe convexe : elle comblerait les découpes, qui sont l'information.","vitesse_kmh":4.2,"portee_15min_m":1050,"limites":"Vitesse retenue : 4.2 km/h, soit 1050 m en 15 minutes. Les études de transport retiennent souvent 4,8 km/h (1 200 m) ; cette valeur décrit un trottoir plat et sec, ce que Québec n'est ni l'hiver ni sur la falaise. Les chiffres ne se comparent donc pas directement à ceux qui retiennent 4,8 — une surface varie comme le carré de la portée. Les escaliers sont franchis sans pénalité de pente, ce qui rend la Haute-Ville encore un peu trop facile d'accès. La complétude des trottoirs dans OpenStreetMap varie selon les secteurs. Les positions des stations sont saisies à la main — voir le champ precision_m.","source":"OpenStreetMap (ODbL)","attribution":"© les contributeurs d'OpenStreetMap"},"features":[{"type":"Feature","properties":{"couche":"aire_marche","station":"Jean-Paul-L'Allier","ordre":22,"minutes":3,"superficie_ha":12.6,"rue_km":5.14,"disque_ha":13.9,"part_disque_pct":91,"accroche_m":15,"population":913},"geometry":{"type":"Polygon","coordinates":[[[-71.226,46.8128],[-71.2252,46.8145],[-71.2249,46.8147],[-71.2242,46.8147],[-71.2241,46.815],[-71.2238,46.8151],[-71.2229,46.8149],[-71.2228,46.8147],[-71.2229,46.8144],[-71.222,46.8147],[-71.2215,46.8145],[-71.2209,46.8145],[-71.2203,46.8137],[-71.2203,46.8134],[-71.2208,46.8132],[-71.2206,46.813],[-71.2207,46.8127],[-71.2213,46.8124],[-71.2218,46.8118],[-71.2222,46.8116],[-71.2222,46.8114],[-71.2225,46.8112],[-71.2235,46.8113],[-71.2242,46.8115],[-71.2244,46.8117],[-71.2251,46.8119],[-71.2259,46.8123],[-71.226,46.8128]]]}},{"type":"Feature","properties":{"couche":"aire_marche","station":"Jean-Paul-L'Allier","ordre":22,"minutes":5,"superficie_ha":30.9,"rue_km":11.48,"disque_ha":38.5,"part_disque_pct":80,"accroche_m":15,"population":2819},"geometry":{"type":"Polygon","coordinates":[[[-71.2275,46.8123],[-71.2274,46.8131],[-71.227,46.8141],[-71.2265,46.8142],[-71.2262,46.8141],[-71.2254,46.8144],[-71.2261,46.8143],[-71.2265,46.8145],[-71.2265,46.8147],[-71.2262,46.8149],[-71.2263,46.8152],[-71.2261,46.8156],[-71.2258,46.8158],[-71.2252,46.8157],[-71.225,46.8158],[-71.2249,46.8161],[-71.2246,46.8162],[-71.2236,46.816],[-71.2234,46.8158],[-71.2231,46.8159],[-71.2227,46.8157],[-71.2213,46.8155],[-71.221,46.8153],[-71.2211,46.815],[-71.2205,46.8153],[-71.2194,46.815],[-71.2192,46.8147],[-71.2193,46.8145],[-71.2187,46.8143],[-71.2185,46.814],[-71.2185,46.8135],[-71.2192,46.813],[-71.2192,46.8126],[-71.2198,46.8121],[-71.2206,46.812],[-71.2205,46.8115],[-71.2213,46.8112],[-71.2212,46.8109],[-71.2214,46.8106],[-71.2214,46.8103],[-71.2218,46.8101],[-71.2227,46.8102],[-71.223,46.8104],[-71.2235,46.8104],[-71.2238,46.8106],[-71.2244,46.8106],[-71.2246,46.811],[-71.224,46.8114],[-71.2252,46.8108],[-71.2257,46.8108],[-71.2259,46.811],[-71.226,46.8114],[-71.2266,46.8114],[-71.2276,46.8118],[-71.2277,46.8121],[-71.2275,46.8123]],[[-71.2205,46.814],[-71.2205,46.8141],[-71.2206,46.8141],[-71.2205,46.814]]]}},{"type":"Feature","properties":{"couche":"aire_marche","station":"Jean-Paul-L'Allier","ordre":22,"minutes":7,"superficie_ha":58,"rue_km":20.39,"disque_ha":75.4,"part_disque_pct":77,"accroche_m":15,"population":5745},"geometry":{"type":"Polygon","coordinates":[[[-71.2292,46.8119],[-71.2289,46.8131],[-71.2286,46.8133],[-71.2287,46.8136],[-71.2284,46.8142],[-71.2283,46.8149],[-71.228,46.8151],[-71.2277,46.8151],[-71.2275,46.8153],[-71.2272,46.8155],[-71.2273,46.8158],[-71.2269,46.8161],[-71.2271,46.8164],[-71.227,46.8166],[-71.2267,46.8169],[-71.2259,46.8167],[-71.2257,46.817],[-71.225,46.8173],[-71.2246,46.8172],[-71.2244,46.8171],[-71.2245,46.8167],[-71.2243,46.8165],[-71.2241,46.8169],[-71.2237,46.817],[-71.222,46.8166],[-71.2217,46.8164],[-71.2213,46.8165],[-71.2205,46.8163],[-71.2202,46.816],[-71.2198,46.8161],[-71.2194,46.8158],[-71.219,46.8159],[-71.2182,46.8157],[-71.2178,46.815],[-71.218,46.8144],[-71.2178,46.8142],[-71.2172,46.8143],[-71.2168,46.8141],[-71.217,46.8137],[-71.2181,46.8133],[-71.218,46.8132],[-71.2176,46.8131],[-71.2173,46.8129],[-71.2175,46.8125],[-71.2179,46.8122],[-71.2186,46.812],[-71.219,46.8117],[-71.2188,46.8115],[-71.2189,46.8112],[-71.2197,46.8108],[-71.2197,46.8104],[-71.2205,46.81],[-71.2204,46.8098],[-71.2205,46.8095],[-71.2212,46.809],[-71.2218,46.8091],[-71.2221,46.8093],[-71.2224,46.8092],[-71.2228,46.8094],[-71.2235,46.8094],[-71.2237,46.8096],[-71.2242,46.8095],[-71.2246,46.8098],[-71.225,46.8097],[-71.2254,46.8099],[-71.2259,46.8099],[-71.2261,46.8101],[-71.2262,46.8103],[-71.2268,46.8101],[-71.2272,46.8101],[-71.2274,46.8103],[-71.2273,46.8107],[-71.228,46.8109],[-71.2287,46.8112],[-71.229,46.8112],[-71.2293,46.8114],[-71.2294,46.8116],[-71.2292,46.8119]],[[-71.224,46.8113],[-71.2242,46.8113],[-71.2245,46.8111],[-71.2244,46.8112],[-71.224,46.8113]],[[-71.2205,46.814],[-71.2205,46.8141],[-71.2206,46.8141],[-71.2205,46.814]],[[-71.2254,46.8144],[-71.2262,46.8141],[-71.2254,46.8144],[-71.2254,46.8144]],[[-71.2257,46.8165],[-71.2257,46.8165],[-71.2257,46.8165],[-71.2257,46.8165]]]}},{"type":"Feature","properties":{"couche":"aire_marche","station":"Jean-Paul-L'Allier","ordre":22,"minutes":10,"superficie_ha":113.1,"rue_km":41.53,"disque_ha":153.9,"part_disque_pct":73,"accroche_m":15,"population":10728},"geometry":{"type":"Polygon","coordinates":[[[-71.2317,46.8114],[-71.2314,46.8123],[-71.2311,46.8125],[-71.2312,46.8128],[-71.231,46.813],[-71.2308,46.814],[-71.2305,46.8143],[-71.2306,46.8147],[-71.2301,46.815],[-71.2304,46.8154],[-71.2299,46.8161],[-71.2297,46.8169],[-71.2293,46.8171],[-71.2288,46.817],[-71.2277,46.8174],[-71.2283,46.8179],[-71.2283,46.8181],[-71.228,46.8183],[-71.2276,46.8182],[-71.2269,46.8178],[-71.2265,46.8179],[-71.2262,46.8178],[-71.2254,46.8173],[-71.2251,46.8174],[-71.225,46.8177],[-71.2251,46.818],[-71.2249,46.8182],[-71.2236,46.8185],[-71.2232,46.8183],[-71.2229,46.8183],[-71.2219,46.8179],[-71.2215,46.8179],[-71.2201,46.8175],[-71.2197,46.8175],[-71.2193,46.8172],[-71.2188,46.8173],[-71.2182,46.8171],[-71.2176,46.8163],[-71.2166,46.8168],[-71.2162,46.8168],[-71.2157,46.8165],[-71.2155,46.8163],[-71.2157,46.816],[-71.2162,46.8159],[-71.2162,46.8157],[-71.2157,46.8156],[-71.2154,46.8153],[-71.2149,46.8154],[-71.2145,46.8151],[-71.2145,46.8149],[-71.215,46.8143],[-71.2148,46.814],[-71.2149,46.8135],[-71.2152,46.8133],[-71.2151,46.8131],[-71.2153,46.8129],[-71.215,46.8126],[-71.2153,46.8117],[-71.2161,46.8114],[-71.2165,46.8111],[-71.2163,46.8108],[-71.2165,46.8105],[-71.2169,46.8105],[-71.2172,46.8106],[-71.2172,46.8102],[-71.2176,46.8096],[-71.2183,46.8094],[-71.2184,46.8091],[-71.2192,46.8086],[-71.2195,46.808],[-71.2207,46.8075],[-71.2213,46.8076],[-71.2218,46.8076],[-71.2223,46.8077],[-71.2224,46.8079],[-71.2231,46.8078],[-71.2234,46.8082],[-71.224,46.8081],[-71.2244,46.8083],[-71.2249,46.8082],[-71.2252,46.8084],[-71.2256,46.8083],[-71.2271,46.8086],[-71.2274,46.8087],[-71.2279,46.8086],[-71.2281,46.8088],[-71.2282,46.8091],[-71.2275,46.8096],[-71.2287,46.809],[-71.2294,46.809],[-71.2296,46.8092],[-71.2299,46.8101],[-71.2303,46.8102],[-71.2305,46.8104],[-71.2314,46.811],[-71.2317,46.8114]],[[-71.2245,46.8111],[-71.224,46.8113],[-71.224,46.8114],[-71.2242,46.8113],[-71.2245,46.8111]],[[-71.2181,46.8133],[-71.218,46.8133],[-71.218,46.8134],[-71.2181,46.8133]],[[-71.2205,46.814],[-71.2205,46.8141],[-71.2206,46.8141],[-71.2205,46.814]],[[-71.2254,46.8144],[-71.2262,46.8141],[-71.2254,46.8144],[-71.2254,46.8144]],[[-71.218,46.8144],[-71.2178,46.8142],[-71.2175,46.8143],[-71.2173,46.8151],[-71.2178,46.8151],[-71.218,46.8144]],[[-71.2244,46.8167],[-71.2242,46.8165],[-71.2244,46.8167],[-71.2244,46.8167]],[[-71.2227,46.8172],[-71.2226,46.817],[-71.2227,46.8172],[-71.2227,46.8172]]]}},{"type":"Feature","properties":{"couche":"aire_marche","station":"Jean-Paul-L'Allier","ordre":22,"minutes":12,"superficie_ha":156.7,"rue_km":61.74,"disque_ha":221.7,"part_disque_pct":71,"accroche_m":15,"population":13699},"geometry":{"type":"Polygon","coordinates":[[[-71.233,46.8106],[-71.2334,46.8116],[-71.2329,46.8121],[-71.2329,46.8124],[-71.2324,46.8132],[-71.2322,46.8141],[-71.2319,46.8144],[-71.232,46.8149],[-71.2317,46.8153],[-71.2317,46.8157],[-71.2302,46.8165],[-71.2309,46.8172],[-71.2308,46.8176],[-71.2303,46.8179],[-71.2295,46.8179],[-71.2273,46.8189],[-71.2266,46.8189],[-71.2264,46.8188],[-71.2263,46.8185],[-71.2259,46.8187],[-71.2253,46.8187],[-71.2253,46.8189],[-71.2251,46.8191],[-71.2239,46.8192],[-71.2237,46.8193],[-71.2233,46.8194],[-71.2217,46.8189],[-71.2213,46.8184],[-71.2208,46.8187],[-71.2201,46.8185],[-71.2199,46.8183],[-71.2199,46.8179],[-71.2198,46.8182],[-71.2195,46.8183],[-71.2186,46.8182],[-71.2184,46.818],[-71.2185,46.8176],[-71.2184,46.8175],[-71.2179,46.8179],[-71.2174,46.8179],[-71.2168,46.8173],[-71.217,46.8169],[-71.2163,46.8169],[-71.2163,46.8175],[-71.2161,46.8177],[-71.2157,46.8177],[-71.2151,46.8174],[-71.2149,46.817],[-71.2144,46.817],[-71.2138,46.8166],[-71.2138,46.8164],[-71.2141,46.8161],[-71.2132,46.8159],[-71.2129,46.8157],[-71.2129,46.8154],[-71.2132,46.8151],[-71.2145,46.8147],[-71.2148,46.8144],[-71.2146,46.8143],[-71.2145,46.814],[-71.2138,46.8141],[-71.2135,46.8138],[-71.2136,46.8135],[-71.2143,46.8132],[-71.2137,46.8128],[-71.2136,46.8126],[-71.2138,46.8119],[-71.2142,46.8117],[-71.214,46.8113],[-71.2142,46.8106],[-71.2145,46.8105],[-71.2149,46.8105],[-71.2154,46.8109],[-71.217,46.8102],[-71.2162,46.8095],[-71.2163,46.8091],[-71.2166,46.8089],[-71.217,46.8089],[-71.2173,46.8084],[-71.218,46.8079],[-71.2184,46.8079],[-71.2196,46.8074],[-71.2197,46.8071],[-71.2202,46.807],[-71.2207,46.8064],[-71.2227,46.8067],[-71.2233,46.807],[-71.2237,46.807],[-71.2241,46.8071],[-71.2245,46.8071],[-71.2251,46.8072],[-71.2255,46.8075],[-71.226,46.8074],[-71.2265,46.8075],[-71.2268,46.8074],[-71.2277,46.8075],[-71.228,46.8077],[-71.2285,46.8077],[-71.2287,46.8079],[-71.2292,46.8079],[-71.23,46.8082],[-71.2309,46.8083],[-71.2311,46.8086],[-71.231,46.8093],[-71.2313,46.8095],[-71.2319,46.8096],[-71.232,46.8098],[-71.2318,46.8101],[-71.233,46.8106]],[[-71.2283,46.8093],[-71.2282,46.8091],[-71.2275,46.8096],[-71.2275,46.8096],[-71.2283,46.8093]],[[-71.2245,46.8078],[-71.2242,46.808],[-71.2246,46.8079],[-71.2245,46.8078]],[[-71.2179,46.8094],[-71.2177,46.8095],[-71.2179,46.8095],[-71.2179,46.8094]],[[-71.224,46.8113],[-71.2242,46.8113],[-71.2245,46.8111],[-71.2244,46.8112],[-71.224,46.8113]],[[-71.2181,46.8133],[-71.218,46.8133],[-71.218,46.8134],[-71.2181,46.8133]],[[-71.2205,46.814],[-71.2205,46.8141],[-71.2206,46.8141],[-71.2205,46.814]],[[-71.2254,46.8144],[-71.2262,46.8141],[-71.2254,46.8144],[-71.2254,46.8144]],[[-71.218,46.8144],[-71.2178,46.8142],[-71.2175,46.8143],[-71.2173,46.8151],[-71.2178,46.8151],[-71.218,46.8144]],[[-71.2162,46.8157],[-71.2161,46.8157],[-71.2162,46.8158],[-71.2162,46.8157]],[[-71.2244,46.8167],[-71.2242,46.8165],[-71.2244,46.8167],[-71.2244,46.8167]],[[-71.2287,46.817],[-71.2277,46.8174],[-71.2282,46.8177],[-71.2291,46.8173],[-71.2287,46.817]],[[-71.2227,46.8172],[-71.2226,46.817],[-71.2227,46.8172],[-71.2227,46.8172]],[[-71.2177,46.8164],[-71.2175,46.8165],[-71.2175,46.8166],[-71.2177,46.8165],[-71.2177,46.8164]],[[-71.2269,46.8178],[-71.2264,46.8179],[-71.2264,46.8179],[-71.2265,46.8181],[-71.227,46.8179],[-71.2269,46.8178]],[[-71.2259,46.8177],[-71.2254,46.8173],[-71.2251,46.8174],[-71.2251,46.8176],[-71.2255,46.8178],[-71.2259,46.8177]]]}},{"type":"Feature","properties":{"couche":"aire_marche","station":"Jean-Paul-L'Allier","ordre":22,"minutes":15,"superficie_ha":243.5,"rue_km":101.12,"disque_ha":346.4,"part_disque_pct":70,"accroche_m":15,"population":18923},"geometry":{"type":"Polygon","coordinates":[[[-71.2358,46.8114],[-71.2361,46.8121],[-71.2355,46.8128],[-71.2354,46.8131],[-71.2348,46.8133],[-71.2347,46.8136],[-71.2328,46.814],[-71.233,46.8144],[-71.2336,46.8146],[-71.2338,46.8148],[-71.2342,46.815],[-71.2343,46.8153],[-71.2341,46.8156],[-71.2337,46.8156],[-71.2341,46.8159],[-71.234,46.8162],[-71.2335,46.8163],[-71.2332,46.8166],[-71.2328,46.8166],[-71.2325,46.817],[-71.2325,46.8172],[-71.2323,46.8174],[-71.2327,46.8176],[-71.2326,46.8179],[-71.2327,46.8182],[-71.2324,46.8185],[-71.2323,46.819],[-71.2313,46.8192],[-71.231,46.8196],[-71.2305,46.8196],[-71.2302,46.8193],[-71.2303,46.8191],[-71.2298,46.8187],[-71.2293,46.818],[-71.2289,46.8182],[-71.23,46.8192],[-71.2301,46.8194],[-71.2299,46.8197],[-71.2294,46.8197],[-71.2293,46.82],[-71.229,46.8201],[-71.2286,46.8201],[-71.2269,46.8192],[-71.2251,46.8191],[-71.2241,46.8191],[-71.2255,46.8192],[-71.226,46.8195],[-71.226,46.8198],[-71.2258,46.82],[-71.2248,46.8201],[-71.2252,46.8206],[-71.2252,46.8209],[-71.2249,46.821],[-71.2234,46.8207],[-71.223,46.8207],[-71.2227,46.8205],[-71.2227,46.8203],[-71.2223,46.8203],[-71.2221,46.8202],[-71.222,46.8199],[-71.2221,46.8197],[-71.2231,46.8194],[-71.2231,46.8193],[-71.2204,46.8201],[-71.22,46.82],[-71.2192,46.8196],[-71.2188,46.8197],[-71.2183,46.8193],[-71.2179,46.8194],[-71.2176,46.8194],[-71.2174,46.8191],[-71.2175,46.8188],[-71.2171,46.8191],[-71.2167,46.819],[-71.2163,46.8185],[-71.2161,46.8194],[-71.2157,46.8196],[-71.2153,46.8196],[-71.2146,46.8192],[-71.2147,46.8186],[-71.2144,46.8185],[-71.2141,46.8178],[-71.2137,46.818],[-71.2124,46.8178],[-71.212,46.8174],[-71.2112,46.817],[-71.2111,46.8167],[-71.2108,46.8165],[-71.2104,46.8161],[-71.2105,46.8158],[-71.2109,46.8156],[-71.2108,46.8149],[-71.2116,46.8144],[-71.2113,46.8141],[-71.2115,46.8138],[-71.2112,46.8134],[-71.2114,46.8129],[-71.2113,46.8125],[-71.2118,46.8123],[-71.2117,46.8121],[-71.2119,46.8117],[-71.2126,46.8113],[-71.212,46.8105],[-71.2122,46.8096],[-71.2133,46.8091],[-71.2141,46.8092],[-71.2145,46.8094],[-71.215,46.8092],[-71.2145,46.8087],[-71.215,46.8076],[-71.2153,46.8074],[-71.2158,46.8074],[-71.2161,46.8076],[-71.2162,46.8078],[-71.2165,46.8076],[-71.2163,46.8072],[-71.2164,46.807],[-71.2169,46.8068],[-71.2168,46.8064],[-71.2171,46.8061],[-71.2176,46.8062],[-71.2179,46.8065],[-71.2183,46.8062],[-71.2188,46.8062],[-71.2185,46.8057],[-71.2185,46.8055],[-71.219,46.8052],[-71.2193,46.8053],[-71.2195,46.8055],[-71.2193,46.805],[-71.2195,46.8047],[-71.2198,46.8046],[-71.2204,46.8048],[-71.2208,46.8055],[-71.2219,46.805],[-71.2223,46.805],[-71.2225,46.8052],[-71.2232,46.8053],[-71.2235,46.8056],[-71.2239,46.8054],[-71.2243,46.8054],[-71.2246,46.8056],[-71.2246,46.8058],[-71.2241,46.8063],[-71.2251,46.8057],[-71.2255,46.8056],[-71.2262,46.806],[-71.2281,46.806],[-71.2284,46.8062],[-71.2285,46.8066],[-71.2293,46.8063],[-71.2299,46.8065],[-71.2302,46.8068],[-71.2311,46.8067],[-71.2315,46.8068],[-71.2317,46.8071],[-71.2321,46.807],[-71.233,46.807],[-71.2332,46.8073],[-71.2329,46.8076],[-71.2331,46.8078],[-71.2331,46.8081],[-71.2334,46.8082],[-71.2339,46.8083],[-71.2341,46.809],[-71.2345,46.8091],[-71.2352,46.8096],[-71.2355,46.8101],[-71.2352,46.8104],[-71.2354,46.8106],[-71.2353,46.8111],[-71.2358,46.8114]],[[-71.2283,46.8093],[-71.2282,46.8091],[-71.2275,46.8096],[-71.2275,46.8096],[-71.2283,46.8093]],[[-71.2255,46.8075],[-71.226,46.8072],[-71.2264,46.8069],[-71.2254,46.8074],[-71.2255,46.8075]],[[-71.2218,46.8063],[-71.2222,46.8059],[-71.2221,46.8057],[-71.2215,46.8061],[-71.2218,46.8063]],[[-71.219,46.8073],[-71.2188,46.807],[-71.2183,46.8072],[-71.2184,46.8075],[-71.219,46.8073]],[[-71.2245,46.8078],[-71.2242,46.808],[-71.2246,46.8079],[-71.2245,46.8078]],[[-71.2166,46.8085],[-71.2166,46.8085],[-71.2166,46.8085],[-71.2166,46.8085]],[[-71.2177,46.8095],[-71.2179,46.8095],[-71.2179,46.8094],[-71.2177,46.8095]],[[-71.2166,46.8098],[-71.216,46.81],[-71.2164,46.8105],[-71.217,46.8102],[-71.2166,46.8098]],[[-71.224,46.8113],[-71.2242,46.8113],[-71.2245,46.8111],[-71.2244,46.8112],[-71.224,46.8113]],[[-71.234,46.813],[-71.2339,46.813],[-71.2339,46.813],[-71.234,46.813]],[[-71.2325,46.8132],[-71.2325,46.8133],[-71.2326,46.8133],[-71.2325,46.8132]],[[-71.2181,46.8133],[-71.218,46.8133],[-71.218,46.8134],[-71.2181,46.8133]],[[-71.2205,46.814],[-71.2205,46.8141],[-71.2206,46.8141],[-71.2205,46.814]],[[-71.2254,46.8144],[-71.2262,46.8141],[-71.2254,46.8144],[-71.2254,46.8144]],[[-71.218,46.8144],[-71.2178,46.8142],[-71.2175,46.8143],[-71.2173,46.8151],[-71.2178,46.8151],[-71.218,46.8144]],[[-71.2148,46.8144],[-71.2146,46.8143],[-71.2145,46.814],[-71.214,46.8142],[-71.2145,46.8147],[-71.2148,46.8144]],[[-71.2244,46.8167],[-71.2242,46.8165],[-71.2244,46.8167],[-71.2244,46.8167]],[[-71.2287,46.817],[-71.2277,46.8174],[-71.2282,46.8177],[-71.2291,46.8173],[-71.2287,46.817]],[[-71.2227,46.8172],[-71.2226,46.817],[-71.2227,46.8172],[-71.2227,46.8172]],[[-71.2177,46.8164],[-71.2175,46.8165],[-71.2175,46.8166],[-71.2177,46.8165],[-71.2177,46.8164]],[[-71.2182,46.8175],[-71.2183,46.8177],[-71.2185,46.8176],[-71.2184,46.8175],[-71.2182,46.8175]],[[-71.2254,46.8173],[-71.2251,46.8174],[-71.2251,46.8176],[-71.2255,46.8178],[-71.2254,46.8173]],[[-71.2269,46.8178],[-71.2267,46.8179],[-71.227,46.8179],[-71.227,46.8179],[-71.2269,46.8178]],[[-71.2282,46.8188],[-71.2278,46.8188],[-71.2284,46.8189],[-71.2282,46.8188]]]}},{"type":"Feature","properties":{"couche":"aire_marche","station":"Saint-Roch","ordre":23,"minutes":3,"superficie_ha":13.1,"rue_km":4.17,"disque_ha":13.9,"part_disque_pct":95,"accroche_m":22,"population":1061},"geometry":{"type":"Polygon","coordinates":[[[-71.2276,46.814],[-71.2274,46.8145],[-71.2267,46.8148],[-71.2268,46.8151],[-71.2264,46.8153],[-71.2265,46.8156],[-71.2264,46.8159],[-71.226,46.8161],[-71.2252,46.816],[-71.225,46.8158],[-71.2245,46.8159],[-71.2236,46.8157],[-71.2233,46.8155],[-71.2229,46.8155],[-71.2226,46.8153],[-71.2221,46.8153],[-71.2218,46.815],[-71.2219,46.8147],[-71.2227,46.8144],[-71.2222,46.8142],[-71.2223,46.8138],[-71.2221,46.8135],[-71.2227,46.8127],[-71.2232,46.8123],[-71.224,46.8124],[-71.2243,46.8125],[-71.2249,46.8125],[-71.2252,46.8127],[-71.2255,46.8126],[-71.2262,46.8127],[-71.2275,46.813],[-71.2278,46.8133],[-71.2276,46.8137],[-71.2276,46.814]],[[-71.2254,46.8144],[-71.2262,46.8141],[-71.2254,46.8144],[-71.2254,46.8144]]]}},{"type":"Feature","properties":{"couche":"aire_marche","station":"Saint-Roch","ordre":23,"minutes":5,"superficie_ha":31.4,"rue_km":11.02,"disque_ha":38.5,"part_disque_pct":82,"accroche_m":22,"population":2706},"geometry":{"type":"Polygon","coordinates":[[[-71.2295,46.8128],[-71.2287,46.8153],[-71.2282,46.8155],[-71.2277,46.8153],[-71.2278,46.8156],[-71.2273,46.8159],[-71.2275,46.8161],[-71.2276,46.8167],[-71.2269,46.8171],[-71.2262,46.8169],[-71.2257,46.817],[-71.2253,46.8168],[-71.2247,46.8169],[-71.2243,46.8165],[-71.2236,46.8166],[-71.2232,46.8164],[-71.2228,46.8164],[-71.2219,46.8162],[-71.2217,46.816],[-71.2205,46.8158],[-71.2202,46.8156],[-71.2203,46.8151],[-71.221,46.815],[-71.2206,46.8147],[-71.2207,46.8143],[-71.2205,46.814],[-71.2207,46.8137],[-71.221,46.8136],[-71.2209,46.8132],[-71.2214,46.813],[-71.2212,46.8127],[-71.2212,46.8125],[-71.2219,46.8118],[-71.2222,46.8117],[-71.2223,46.8114],[-71.2226,46.8113],[-71.225,46.8117],[-71.2254,46.8121],[-71.2262,46.8119],[-71.2267,46.8122],[-71.2271,46.812],[-71.2278,46.8121],[-71.2293,46.8126],[-71.2295,46.8128]],[[-71.2254,46.8144],[-71.2262,46.8141],[-71.2254,46.8144],[-71.2254,46.8144]]]}},{"type":"Feature","properties":{"couche":"aire_marche","station":"Saint-Roch","ordre":23,"minutes":7,"superficie_ha":57.3,"rue_km":20.51,"disque_ha":75.4,"part_disque_pct":76,"accroche_m":22,"population":5211},"geometry":{"type":"Polygon","coordinates":[[[-71.2309,46.8126],[-71.231,46.8129],[-71.2306,46.8135],[-71.2304,46.8146],[-71.2301,46.8149],[-71.2297,46.815],[-71.2301,46.8154],[-71.2298,46.8162],[-71.2292,46.8169],[-71.2285,46.817],[-71.2277,46.8174],[-71.2281,46.8178],[-71.2278,46.8181],[-71.2273,46.8181],[-71.2269,46.8178],[-71.2265,46.8179],[-71.2262,46.8178],[-71.2254,46.8173],[-71.2247,46.8177],[-71.2239,46.8176],[-71.2234,46.8174],[-71.2229,46.8174],[-71.2226,46.817],[-71.2219,46.8171],[-71.221,46.8169],[-71.2208,46.8167],[-71.2203,46.8167],[-71.22,46.8165],[-71.2188,46.8164],[-71.2185,46.8162],[-71.2186,46.8157],[-71.2193,46.8155],[-71.219,46.8154],[-71.2189,46.8152],[-71.2191,46.8146],[-71.2195,46.8144],[-71.2191,46.8139],[-71.2191,46.8137],[-71.2195,46.8134],[-71.2195,46.8132],[-71.2198,46.813],[-71.2198,46.8126],[-71.2206,46.812],[-71.2206,46.8116],[-71.221,46.8115],[-71.2214,46.8111],[-71.2213,46.8108],[-71.2215,46.8104],[-71.2217,46.8102],[-71.2226,46.8103],[-71.2229,46.8105],[-71.2233,46.8104],[-71.2237,46.8106],[-71.2243,46.8107],[-71.2245,46.811],[-71.224,46.8114],[-71.2252,46.8108],[-71.2255,46.8108],[-71.2263,46.8113],[-71.2266,46.8111],[-71.2272,46.8112],[-71.2277,46.8111],[-71.2282,46.8114],[-71.2286,46.8113],[-71.2293,46.8115],[-71.2302,46.8118],[-71.2305,46.8119],[-71.2309,46.812],[-71.2311,46.8123],[-71.2309,46.8126]],[[-71.2205,46.814],[-71.2205,46.8141],[-71.2206,46.8141],[-71.2205,46.814]],[[-71.2254,46.8144],[-71.2262,46.8141],[-71.2254,46.8144],[-71.2254,46.8144]],[[-71.2244,46.8167],[-71.2242,46.8165],[-71.2244,46.8167],[-71.2244,46.8167]]]}},{"type":"Feature","properties":{"couche":"aire_marche","station":"Saint-Roch","ordre":23,"minutes":10,"superficie_ha":107.4,"rue_km":41.5,"disque_ha":153.9,"part_disque_pct":70,"accroche_m":22,"population":9763},"geometry":{"type":"Polygon","coordinates":[[[-71.2335,46.8113],[-71.2337,46.8119],[-71.2335,46.8122],[-71.2335,46.8125],[-71.233,46.813],[-71.2324,46.8132],[-71.2328,46.8138],[-71.2325,46.8144],[-71.2322,46.8146],[-71.2323,46.8152],[-71.2322,46.8156],[-71.2313,46.8162],[-71.2307,46.8162],[-71.2302,46.8165],[-71.2313,46.8173],[-71.2313,46.8175],[-71.2309,46.818],[-71.2306,46.8182],[-71.2299,46.8183],[-71.2296,46.8183],[-71.2293,46.818],[-71.2288,46.8183],[-71.2285,46.8185],[-71.2277,46.8188],[-71.2273,46.8192],[-71.2264,46.8191],[-71.2259,46.8183],[-71.2256,46.8185],[-71.2249,46.8186],[-71.224,46.8191],[-71.2232,46.819],[-71.2224,46.8187],[-71.2222,46.8182],[-71.222,46.8184],[-71.2217,46.8185],[-71.221,46.8183],[-71.2207,46.8181],[-71.2203,46.8182],[-71.2199,46.8179],[-71.2194,46.818],[-71.2191,46.8178],[-71.2188,46.8178],[-71.2184,46.8175],[-71.2177,46.8175],[-71.2175,46.8172],[-71.2178,46.8166],[-71.2176,46.8163],[-71.2169,46.8165],[-71.2164,46.8163],[-71.2167,46.8154],[-71.2174,46.8151],[-71.2178,46.8151],[-71.218,46.8144],[-71.2178,46.8142],[-71.217,46.8144],[-71.2166,46.8142],[-71.2168,46.8138],[-71.2181,46.8133],[-71.218,46.8132],[-71.2171,46.8131],[-71.217,46.8127],[-71.2176,46.812],[-71.2179,46.8119],[-71.2183,46.812],[-71.2186,46.8118],[-71.2185,46.8115],[-71.2187,46.8113],[-71.2187,46.8109],[-71.2193,46.8105],[-71.2193,46.81],[-71.2206,46.8093],[-71.2205,46.8089],[-71.2208,46.8086],[-71.2214,46.8086],[-71.2217,46.8088],[-71.2221,46.8087],[-71.2232,46.8089],[-71.2236,46.8092],[-71.224,46.8091],[-71.2244,46.8093],[-71.2248,46.8092],[-71.2257,46.8094],[-71.226,46.8096],[-71.2263,46.8096],[-71.2267,46.8097],[-71.2271,46.8095],[-71.2275,46.8096],[-71.228,46.8096],[-71.2285,46.8101],[-71.2289,46.81],[-71.2293,46.8102],[-71.2302,46.8102],[-71.2309,46.8105],[-71.2311,46.8108],[-71.232,46.811],[-71.2324,46.8109],[-71.2328,46.8109],[-71.2335,46.8113]],[[-71.224,46.8113],[-71.2242,46.8113],[-71.2245,46.8111],[-71.2244,46.8112],[-71.224,46.8113]],[[-71.2205,46.814],[-71.2205,46.8141],[-71.2206,46.8141],[-71.2205,46.814]],[[-71.2254,46.8144],[-71.2262,46.8141],[-71.2254,46.8144],[-71.2254,46.8144]],[[-71.2244,46.8167],[-71.2242,46.8165],[-71.2244,46.8167],[-71.2244,46.8167]],[[-71.2287,46.817],[-71.2277,46.8174],[-71.2282,46.8177],[-71.2291,46.8173],[-71.2287,46.817]],[[-71.2227,46.8172],[-71.2226,46.817],[-71.2227,46.8172],[-71.2227,46.8172]],[[-71.227,46.8179],[-71.2269,46.8178],[-71.2266,46.8179],[-71.227,46.8179]],[[-71.2263,46.8179],[-71.2257,46.8176],[-71.2254,46.8173],[-71.2251,46.8174],[-71.2251,46.8176],[-71.2259,46.8182],[-71.2263,46.8179]]]}},{"type":"Feature","properties":{"couche":"aire_marche","station":"Saint-Roch","ordre":23,"minutes":12,"superficie_ha":154.1,"rue_km":60.79,"disque_ha":221.7,"part_disque_pct":70,"accroche_m":22,"population":13028},"geometry":{"type":"Polygon","coordinates":[[[-71.2353,46.8118],[-71.2352,46.8121],[-71.2354,46.8124],[-71.2352,46.813],[-71.2348,46.8132],[-71.2344,46.8131],[-71.2346,46.8134],[-71.2343,46.8137],[-71.2327,46.814],[-71.2332,46.8146],[-71.234,46.815],[-71.2341,46.8153],[-71.2339,46.8155],[-71.2336,46.8156],[-71.2338,46.8159],[-71.2337,46.8161],[-71.2332,46.8164],[-71.2328,46.8164],[-71.2327,46.8167],[-71.2323,46.8168],[-71.2325,46.8171],[-71.2323,46.8174],[-71.2326,46.8177],[-71.2323,46.8181],[-71.2321,46.8188],[-71.2318,46.819],[-71.2313,46.819],[-71.231,46.8193],[-71.2306,46.8194],[-71.2298,46.8187],[-71.2293,46.818],[-71.2289,46.8182],[-71.2298,46.819],[-71.2299,46.8193],[-71.2296,46.8195],[-71.2291,46.8195],[-71.2288,46.8199],[-71.2284,46.8199],[-71.2269,46.8192],[-71.2246,46.8191],[-71.2241,46.8191],[-71.2244,46.8196],[-71.2244,46.8199],[-71.2241,46.82],[-71.2238,46.82],[-71.2235,46.8199],[-71.2231,46.8193],[-71.2225,46.8195],[-71.2217,46.8195],[-71.2212,46.8193],[-71.2206,46.8192],[-71.2202,46.8189],[-71.2193,46.8189],[-71.2189,46.8187],[-71.2177,46.8185],[-71.2175,46.8182],[-71.217,46.818],[-71.217,46.8177],[-71.2162,46.8176],[-71.2159,46.8173],[-71.2155,46.8172],[-71.2148,46.8168],[-71.2149,46.8162],[-71.2162,46.8159],[-71.216,46.8151],[-71.2154,46.8151],[-71.2151,46.8148],[-71.2153,46.8145],[-71.2152,46.8139],[-71.2156,46.8137],[-71.2155,46.8134],[-71.2157,46.8131],[-71.2155,46.8124],[-71.2156,46.812],[-71.2166,46.8117],[-71.2165,46.8114],[-71.2167,46.811],[-71.217,46.8108],[-71.2174,46.8109],[-71.2176,46.8106],[-71.2179,46.8105],[-71.2176,46.8102],[-71.2177,46.8099],[-71.218,46.8097],[-71.2184,46.8097],[-71.2185,46.8091],[-71.2192,46.8087],[-71.2196,46.8081],[-71.2206,46.8075],[-71.221,46.8075],[-71.2212,46.8078],[-71.2216,46.8076],[-71.2219,46.8077],[-71.2223,46.808],[-71.223,46.8079],[-71.2233,46.8082],[-71.2239,46.8081],[-71.2243,46.8084],[-71.2247,46.8083],[-71.2251,46.8084],[-71.2254,46.8084],[-71.2263,46.8085],[-71.2266,46.8086],[-71.227,46.8085],[-71.2274,46.8087],[-71.2277,46.8085],[-71.228,46.8086],[-71.2282,46.8087],[-71.2283,46.809],[-71.2275,46.8096],[-71.2283,46.8093],[-71.2284,46.8089],[-71.2289,46.8088],[-71.2296,46.8089],[-71.2303,46.8094],[-71.2308,46.8093],[-71.2312,46.8095],[-71.2317,46.8096],[-71.2319,46.8098],[-71.2319,46.8101],[-71.2322,46.81],[-71.2329,46.8101],[-71.2332,46.81],[-71.234,46.81],[-71.2347,46.8103],[-71.2347,46.8105],[-71.2346,46.8108],[-71.2347,46.811],[-71.2345,46.8114],[-71.2351,46.8115],[-71.2353,46.8118]],[[-71.2245,46.8111],[-71.224,46.8113],[-71.224,46.8114],[-71.2242,46.8113],[-71.2245,46.8111]],[[-71.2325,46.8132],[-71.2325,46.8133],[-71.2326,46.8133],[-71.2325,46.8132]],[[-71.2338,46.813],[-71.234,46.813],[-71.2341,46.813],[-71.2338,46.813]],[[-71.2181,46.8133],[-71.218,46.8133],[-71.218,46.8134],[-71.2181,46.8133]],[[-71.2205,46.814],[-71.2205,46.8141],[-71.2206,46.8141],[-71.2205,46.814]],[[-71.2254,46.8144],[-71.2262,46.8141],[-71.2254,46.8144],[-71.2254,46.8144]],[[-71.218,46.8144],[-71.2178,46.8142],[-71.2175,46.8143],[-71.2173,46.8151],[-71.2178,46.8151],[-71.218,46.8144]],[[-71.2244,46.8167],[-71.2242,46.8165],[-71.2244,46.8167],[-71.2244,46.8167]],[[-71.2287,46.817],[-71.2277,46.8174],[-71.2282,46.8177],[-71.2291,46.8173],[-71.2287,46.817]],[[-71.2227,46.8172],[-71.2226,46.817],[-71.2227,46.8172],[-71.2227,46.8172]],[[-71.2177,46.8165],[-71.2176,46.8163],[-71.2175,46.8166],[-71.2177,46.8165]],[[-71.2182,46.8175],[-71.2183,46.8177],[-71.2185,46.8176],[-71.2184,46.8175],[-71.2182,46.8175]],[[-71.2254,46.8173],[-71.2251,46.8174],[-71.2251,46.8176],[-71.2255,46.8178],[-71.2254,46.8173]],[[-71.2269,46.8178],[-71.2267,46.8179],[-71.227,46.8179],[-71.227,46.8179],[-71.2269,46.8178]],[[-71.2282,46.8188],[-71.2278,46.8188],[-71.2284,46.8189],[-71.2282,46.8188]]]}},{"type":"Feature","properties":{"couche":"aire_marche","station":"Saint-Roch","ordre":23,"minutes":15,"superficie_ha":234.5,"rue_km":93.12,"disque_ha":346.4,"part_disque_pct":68,"accroche_m":22,"population":18456},"geometry":{"type":"Polygon","coordinates":[[[-71.238,46.8121],[-71.2379,46.8124],[-71.2375,46.8125],[-71.2376,46.8129],[-71.2375,46.8132],[-71.2377,46.8135],[-71.2375,46.8139],[-71.2372,46.814],[-71.2367,46.8139],[-71.2363,46.8141],[-71.2359,46.814],[-71.2365,46.8149],[-71.2363,46.8154],[-71.2364,46.8156],[-71.2362,46.8164],[-71.2359,46.8167],[-71.2358,46.817],[-71.2355,46.8171],[-71.2351,46.8171],[-71.2335,46.8164],[-71.233,46.8167],[-71.233,46.8172],[-71.2324,46.8174],[-71.2326,46.8176],[-71.2326,46.8178],[-71.2333,46.8181],[-71.2338,46.8186],[-71.2344,46.8187],[-71.2347,46.8191],[-71.2346,46.8193],[-71.2343,46.8195],[-71.2331,46.8196],[-71.2324,46.8195],[-71.2317,46.8192],[-71.2314,46.8195],[-71.2321,46.8197],[-71.2322,46.8201],[-71.232,46.8203],[-71.2317,46.8204],[-71.2309,46.8201],[-71.2307,46.8203],[-71.2311,46.8206],[-71.2312,46.8208],[-71.231,46.8211],[-71.2308,46.8212],[-71.2304,46.8212],[-71.2298,46.8209],[-71.2295,46.8211],[-71.229,46.821],[-71.2288,46.8207],[-71.2291,46.8204],[-71.228,46.8198],[-71.2269,46.8192],[-71.2246,46.8191],[-71.2241,46.8191],[-71.2261,46.8193],[-71.2268,46.8194],[-71.2271,46.8196],[-71.2271,46.82],[-71.2267,46.8203],[-71.2248,46.8201],[-71.2253,46.8206],[-71.2256,46.8207],[-71.2259,46.8209],[-71.2256,46.8216],[-71.2252,46.8217],[-71.2225,46.8211],[-71.2222,46.8211],[-71.2218,46.821],[-71.2218,46.8207],[-71.2214,46.8207],[-71.2212,46.8206],[-71.221,46.8202],[-71.2213,46.82],[-71.2231,46.8194],[-71.2231,46.8193],[-71.2196,46.8204],[-71.2188,46.8203],[-71.2184,46.8201],[-71.2179,46.8201],[-71.2177,46.8199],[-71.2175,46.8194],[-71.2171,46.8195],[-71.2167,46.8194],[-71.2163,46.8185],[-71.2161,46.819],[-71.2157,46.8192],[-71.2153,46.8192],[-71.2144,46.8185],[-71.2141,46.8176],[-71.2138,46.8177],[-71.2129,46.8176],[-71.2127,46.8174],[-71.2127,46.8172],[-71.2123,46.8171],[-71.2121,46.8169],[-71.2121,46.8165],[-71.2129,46.8153],[-71.2145,46.8147],[-71.2148,46.8144],[-71.2146,46.8143],[-71.2145,46.814],[-71.2137,46.8142],[-71.2134,46.8141],[-71.2132,46.8139],[-71.2134,46.8136],[-71.2143,46.8132],[-71.2141,46.813],[-71.2138,46.813],[-71.2134,46.8129],[-71.2133,46.8126],[-71.2135,46.8119],[-71.2139,46.8115],[-71.2137,46.8112],[-71.2139,46.8106],[-71.2142,46.8105],[-71.2148,46.8104],[-71.2154,46.8109],[-71.217,46.8102],[-71.2166,46.8098],[-71.2162,46.8098],[-71.2159,46.8097],[-71.2158,46.8095],[-71.216,46.809],[-71.2165,46.8088],[-71.2169,46.8085],[-71.2177,46.8074],[-71.2181,46.8074],[-71.2191,46.8076],[-71.2191,46.8072],[-71.2194,46.807],[-71.2194,46.8067],[-71.2199,46.8064],[-71.2202,46.806],[-71.2205,46.8059],[-71.2214,46.806],[-71.222,46.8064],[-71.2226,46.8062],[-71.2235,46.8065],[-71.2241,46.8065],[-71.2247,46.8068],[-71.2252,46.8068],[-71.2255,46.807],[-71.2254,46.8074],[-71.2255,46.8075],[-71.2262,46.807],[-71.2265,46.807],[-71.227,46.8072],[-71.2274,46.8071],[-71.2285,46.8073],[-71.2296,46.8072],[-71.231,46.8079],[-71.2316,46.8077],[-71.2325,46.8082],[-71.2329,46.8081],[-71.2332,46.8083],[-71.2337,46.8083],[-71.2342,46.8088],[-71.2347,46.8087],[-71.2351,46.8088],[-71.2359,46.8088],[-71.2365,46.8089],[-71.2368,46.8092],[-71.2366,46.8095],[-71.2367,46.81],[-71.2365,46.8102],[-71.2367,46.8103],[-71.2371,46.8104],[-71.2373,46.8105],[-71.2375,46.8113],[-71.2378,46.8115],[-71.2377,46.8118],[-71.238,46.8121]],[[-71.2283,46.8093],[-71.2282,46.8091],[-71.2275,46.8096],[-71.2275,46.8096],[-71.2283,46.8093]],[[-71.2245,46.8078],[-71.2242,46.808],[-71.2246,46.8079],[-71.2245,46.8078]],[[-71.2177,46.8095],[-71.2179,46.8095],[-71.2179,46.8094],[-71.2177,46.8095]],[[-71.224,46.8113],[-71.2242,46.8113],[-71.2245,46.8111],[-71.2244,46.8112],[-71.224,46.8113]],[[-71.2359,46.8135],[-71.2355,46.8135],[-71.2357,46.8138],[-71.2358,46.8137],[-71.2359,46.8135]],[[-71.2325,46.8132],[-71.2325,46.8133],[-71.2326,46.8133],[-71.2325,46.8132]],[[-71.2346,46.8138],[-71.2345,46.8137],[-71.233,46.814],[-71.233,46.8144],[-71.2331,46.8146],[-71.2336,46.8143],[-71.2336,46.8141],[-71.2338,46.8139],[-71.2346,46.8138]],[[-71.2181,46.8133],[-71.218,46.8133],[-71.218,46.8134],[-71.2181,46.8133]],[[-71.2205,46.814],[-71.2205,46.8141],[-71.2206,46.8141],[-71.2205,46.814]],[[-71.2254,46.8144],[-71.2262,46.8141],[-71.2254,46.8144],[-71.2254,46.8144]],[[-71.218,46.8144],[-71.2178,46.8142],[-71.2175,46.8143],[-71.2173,46.8151],[-71.2178,46.8151],[-71.218,46.8144]],[[-71.2244,46.8167],[-71.2242,46.8165],[-71.2244,46.8167],[-71.2244,46.8167]],[[-71.2287,46.817],[-71.2277,46.8174],[-71.2282,46.8177],[-71.2291,46.8173],[-71.2287,46.817]],[[-71.2302,46.819],[-71.2293,46.818],[-71.2289,46.8182],[-71.2301,46.8192],[-71.2302,46.819]],[[-71.2227,46.8172],[-71.2226,46.817],[-71.2227,46.8172],[-71.2227,46.8172]],[[-71.2177,46.8164],[-71.2175,46.8165],[-71.2175,46.8166],[-71.2177,46.8165],[-71.2177,46.8164]],[[-71.2182,46.8175],[-71.2183,46.8177],[-71.2185,46.8176],[-71.2184,46.8175],[-71.2182,46.8175]],[[-71.2254,46.8173],[-71.2251,46.8174],[-71.2251,46.8176],[-71.2255,46.8178],[-71.2254,46.8173]],[[-71.2269,46.8178],[-71.2267,46.8179],[-71.227,46.8179],[-71.227,46.8179],[-71.2269,46.8178]],[[-71.2282,46.8188],[-71.2278,46.8188],[-71.2284,46.8189],[-71.2282,46.8188]]]}},{"type":"Feature","properties":{"couche":"station","station":"Jean-Paul-L'Allier","nom":"Jean-Paul-L'Allier","ordre":22,"pole":false,"precision_m":50},"geometry":{"type":"Point","coordinates":[-71.22301,46.81296]}},{"type":"Feature","properties":{"couche":"station","station":"Saint-Roch","nom":"Saint-Roch","ordre":23,"pole":true,"precision_m":100},"geometry":{"type":"Point","coordinates":[-71.2249,46.81434]}}]}