{"type":"FeatureCollection","metadata":{"titre":"Tracé du futur tramway de Québec (TramCité)","script":"scripts/build-tramway-quebec.mjs","genere_le":"2026-10-08","source":"OpenStreetMap, via l'API Overpass","licence":"ODbL 1.0","attribution":"© les contributeurs d'OpenStreetMap","base_osm":"2026-06-01","millesime_trace":"2024-12-19","avertissement":"Tracé provisoire. OSM le décrit comme « sujet à modification » : reconstitution par des contributeurs de l'avis au marché du 19 décembre 2024. Le vectoriel officiel n'est pas en données ouvertes.","longueur_mesuree_km":19,"longueur_annoncee_km":19,"ecart":"Le tracé est continu de Le Gendre à Charlesbourg depuis l'ajout du raccord de la montée Mendel (way 1554915808, « TramCité »). La longueur mesurée rejoint les 19 km annoncés.","emprise":[-71.3532,46.76025,-71.21462,46.84148],"stations":"Les 29 stations ne sont pas cartographiées dans OSM. À saisir séparément — voir SOURCES.md."},"features":[{"type":"Feature","properties":{"couche":"tronçon","ordre":1,"osm_id":1110656734,"etat":"proposed","en_tunnel":false,"sur_viaduc":false,"longueur_km":3.89,"mise_en_service":"2033"},"geometry":{"type":"LineString","coordinates":[[-71.24827,46.84148],[-71.24819,46.84139],[-71.24811,46.84129],[-71.24803,46.8412],[-71.24795,46.84111],[-71.24787,46.84101],[-71.24779,46.84092],[-71.24771,46.84083],[-71.24763,46.84073],[-71.24755,46.84064],[-71.24747,46.84055],[-71.24737,46.84046],[-71.24728,46.84038],[-71.24718,46.84029],[-71.24709,46.8402],[-71.24699,46.84012],[-71.2469,46.84003],[-71.2468,46.83994],[-71.24671,46.83986],[-71.24662,46.83977],[-71.24654,46.83968],[-71.24645,46.83959],[-71.24637,46.8395],[-71.24628,46.8394],[-71.2462,46.83931],[-71.24611,46.83922],[-71.24603,46.83913],[-71.24595,46.83904],[-71.24586,46.83895],[-71.24578,46.83885],[-71.2457,46.83876],[-71.24562,46.83867],[-71.24555,46.83857],[-71.24547,46.83848],[-71.24539,46.83839],[-71.24531,46.83829],[-71.24523,46.8382],[-71.24516,46.83811],[-71.24508,46.83801],[-71.245,46.83792],[-71.24492,46.83782],[-71.24484,46.83773],[-71.24476,46.83764],[-71.24468,46.83754],[-71.2446,46.83745],[-71.24452,46.83736],[-71.24445,46.83726],[-71.24437,46.83717],[-71.24429,46.83708],[-71.24421,46.83698],[-71.24413,46.83689],[-71.24405,46.8368],[-71.24397,46.8367],[-71.24389,46.83661],[-71.24381,46.83652],[-71.24374,46.83642],[-71.24366,46.83633],[-71.24358,46.83624],[-71.2435,46.83614],[-71.24342,46.83605],[-71.24335,46.83595],[-71.24327,46.83586],[-71.2432,46.83576],[-71.24312,46.83567],[-71.24305,46.83557],[-71.24298,46.83548],[-71.2429,46.83538],[-71.24283,46.83529],[-71.24275,46.83519],[-71.24268,46.8351],[-71.24261,46.835],[-71.24253,46.83491],[-71.24246,46.83481],[-71.24239,46.83471],[-71.24232,46.83462],[-71.24224,46.83452],[-71.24217,46.83443],[-71.2421,46.83433],[-71.24203,46.83423],[-71.24196,46.83414],[-71.24188,46.83404],[-71.24181,46.83395],[-71.24173,46.83385],[-71.24165,46.83376],[-71.24157,46.83367],[-71.24148,46.83358],[-71.2414,46.83349],[-71.24131,46.8334],[-71.24122,46.83331],[-71.24112,46.83322],[-71.24102,46.83314],[-71.24092,46.83306],[-71.24081,46.83298],[-71.2407,46.8329],[-71.24059,46.83282],[-71.24049,46.83274],[-71.24038,46.83266],[-71.24029,46.83258],[-71.24019,46.83249],[-71.24009,46.83241],[-71.24,46.83232],[-71.23991,46.83223],[-71.23982,46.83214],[-71.23974,46.83205],[-71.23965,46.83196],[-71.23956,46.83187],[-71.23947,46.83178],[-71.23939,46.83169],[-71.2393,46.8316],[-71.23921,46.83151],[-71.23912,46.83142],[-71.23903,46.83133],[-71.23895,46.83124],[-71.23886,46.83115],[-71.23878,46.83106],[-71.23869,46.83097],[-71.23861,46.83088],[-71.23852,46.83079],[-71.23843,46.8307],[-71.23835,46.83061],[-71.23826,46.83052],[-71.23817,46.83043],[-71.23808,46.83034],[-71.23798,46.83026],[-71.23788,46.83017],[-71.23778,46.83009],[-71.23768,46.83001],[-71.23758,46.82992],[-71.23748,46.82984],[-71.23737,46.82976],[-71.23727,46.82968],[-71.23717,46.8296],[-71.23707,46.82951],[-71.23696,46.82943],[-71.23686,46.82935],[-71.23675,46.82927],[-71.23665,46.82919],[-71.23655,46.82911],[-71.23645,46.82902],[-71.23637,46.82893],[-71.23628,46.82884],[-71.2362,46.82875],[-71.23613,46.82865],[-71.23605,46.82856],[-71.23598,46.82846],[-71.2359,46.82837],[-71.23583,46.82827],[-71.23575,46.82818],[-71.23568,46.82808],[-71.23561,46.82799],[-71.23553,46.82789],[-71.23545,46.8278],[-71.23537,46.82771],[-71.23529,46.82761],[-71.23521,46.82752],[-71.23514,46.82742],[-71.23506,46.82733],[-71.23498,46.82724],[-71.2349,46.82714],[-71.23483,46.82705],[-71.23474,46.82696],[-71.23466,46.82686],[-71.23458,46.82677],[-71.2345,46.82668],[-71.23441,46.82659],[-71.23433,46.8265],[-71.23425,46.82641],[-71.23416,46.82631],[-71.23408,46.82622],[-71.234,46.82613],[-71.23391,46.82604],[-71.23383,46.82595],[-71.23375,46.82586],[-71.23366,46.82576],[-71.23358,46.82567],[-71.2335,46.82558],[-71.23341,46.82549],[-71.23333,46.8254],[-71.23325,46.82531],[-71.23316,46.82521],[-71.23308,46.82512],[-71.233,46.82503],[-71.23291,46.82494],[-71.23283,46.82485],[-71.23275,46.82476],[-71.23267,46.82466],[-71.23258,46.82457],[-71.2325,46.82448],[-71.23242,46.82439],[-71.23233,46.8243],[-71.23225,46.82421],[-71.23217,46.82411],[-71.23208,46.82402],[-71.232,46.82393],[-71.23192,46.82384],[-71.23183,46.82375],[-71.23174,46.82366],[-71.23164,46.82357],[-71.23154,46.82349],[-71.23144,46.82341],[-71.23134,46.82333],[-71.23123,46.82325],[-71.23112,46.82317],[-71.23101,46.82309],[-71.2309,46.82302],[-71.23078,46.82294],[-71.23067,46.82287],[-71.23055,46.8228],[-71.23043,46.82273],[-71.23031,46.82266],[-71.23018,46.82259],[-71.23006,46.82252],[-71.22994,46.82246],[-71.22981,46.82239],[-71.22969,46.82233],[-71.22956,46.82226],[-71.22944,46.8222],[-71.22931,46.82213],[-71.2292,46.82205],[-71.22909,46.82198],[-71.22898,46.8219],[-71.22887,46.82182],[-71.22877,46.82174],[-71.22868,46.82165],[-71.22862,46.82155],[-71.22864,46.82144],[-71.22873,46.82135],[-71.22883,46.82127],[-71.22892,46.82118],[-71.22902,46.8211],[-71.22912,46.82101],[-71.22921,46.82093],[-71.22931,46.82084],[-71.22941,46.82076],[-71.2295,46.82067],[-71.2296,46.82059],[-71.2297,46.8205],[-71.22979,46.82041],[-71.22987,46.82032],[-71.22996,46.82023],[-71.23004,46.82014],[-71.23012,46.82005],[-71.23021,46.81996],[-71.23029,46.81987],[-71.23036,46.81977],[-71.23037,46.81966],[-71.23033,46.81956],[-71.23027,46.81946],[-71.23019,46.81937],[-71.2301,46.81928],[-71.23001,46.81919],[-71.22993,46.8191],[-71.22984,46.81901],[-71.22975,46.81892],[-71.22967,46.81882],[-71.2296,46.81873],[-71.22952,46.81863],[-71.22945,46.81854],[-71.22937,46.81844],[-71.22928,46.81835],[-71.22918,46.81828],[-71.22905,46.81821],[-71.22891,46.81817],[-71.22875,46.81814],[-71.2286,46.81811],[-71.22845,46.81808],[-71.2283,46.81805],[-71.22815,46.81802],[-71.228,46.81798],[-71.22787,46.81792],[-71.22774,46.81786],[-71.22763,46.81778],[-71.22751,46.81771],[-71.2274,46.81763],[-71.2273,46.81755],[-71.22721,46.81746],[-71.22714,46.81737],[-71.22706,46.81727],[-71.22699,46.81718],[-71.22691,46.81708],[-71.22684,46.81699],[-71.22676,46.81689],[-71.22667,46.8168],[-71.22658,46.81672],[-71.22648,46.81663],[-71.22638,46.81654],[-71.22629,46.81646],[-71.22621,46.81636],[-71.22614,46.81627],[-71.22606,46.81617],[-71.22599,46.81608],[-71.22591,46.81598],[-71.22584,46.81589],[-71.22576,46.8158],[-71.22568,46.8157],[-71.22561,46.81561],[-71.22553,46.81551],[-71.22546,46.81542],[-71.22539,46.81532],[-71.22532,46.81522],[-71.22525,46.81513],[-71.22518,46.81503],[-71.2251,46.81493],[-71.22503,46.81484],[-71.22496,46.81474],[-71.22489,46.81465],[-71.22482,46.81455],[-71.22475,46.81445],[-71.22468,46.81436],[-71.2246,46.81426],[-71.22453,46.81417],[-71.22446,46.81407],[-71.22438,46.81398],[-71.2243,46.81388],[-71.22423,46.81379],[-71.22415,46.81369],[-71.22408,46.8136],[-71.224,46.8135],[-71.22392,46.81341],[-71.22385,46.81331],[-71.22377,46.81322],[-71.2237,46.81312],[-71.22364,46.81302],[-71.22358,46.81292],[-71.22351,46.81283]]}},{"type":"Feature","properties":{"couche":"tronçon_tunnel","ordre":2,"osm_id":1110656739,"etat":"proposed","en_tunnel":true,"sur_viaduc":false,"longueur_km":1.72,"mise_en_service":"2033"},"geometry":{"type":"LineString","coordinates":[[-71.22351,46.81283],[-71.22344,46.81273],[-71.22336,46.81264],[-71.22329,46.81254],[-71.22321,46.81245],[-71.22313,46.81235],[-71.22305,46.81226],[-71.22298,46.81217],[-71.2229,46.81207],[-71.22282,46.81198],[-71.22272,46.81189],[-71.22261,46.81182],[-71.22248,46.81175],[-71.22234,46.8117],[-71.2222,46.81166],[-71.22204,46.81164],[-71.22189,46.81163],[-71.22173,46.81163],[-71.22157,46.81165],[-71.22142,46.81168],[-71.22127,46.81171],[-71.22112,46.81174],[-71.22097,46.81178],[-71.22083,46.81182],[-71.22068,46.81186],[-71.22053,46.81189],[-71.22038,46.81193],[-71.22024,46.81197],[-71.22009,46.81201],[-71.21994,46.81204],[-71.21979,46.81208],[-71.21964,46.81211],[-71.21949,46.81214],[-71.21934,46.81217],[-71.21919,46.8122],[-71.21904,46.81224],[-71.21889,46.81227],[-71.21874,46.8123],[-71.21859,46.81233],[-71.21844,46.81237],[-71.21829,46.8124],[-71.21813,46.81243],[-71.21798,46.81247],[-71.21783,46.8125],[-71.21768,46.81253],[-71.21753,46.81256],[-71.21738,46.8126],[-71.21723,46.81262],[-71.21707,46.81263],[-71.21692,46.81263],[-71.21676,46.81261],[-71.21661,46.81257],[-71.21648,46.81251],[-71.21635,46.81245],[-71.21624,46.81237],[-71.21613,46.8123],[-71.21603,46.81221],[-71.21592,46.81213],[-71.21582,46.81205],[-71.21573,46.81196],[-71.21563,46.81188],[-71.21555,46.81179],[-71.21546,46.8117],[-71.21537,46.81161],[-71.21529,46.81152],[-71.2152,46.81143],[-71.21511,46.81134],[-71.21502,46.81125],[-71.21493,46.81116],[-71.21484,46.81107],[-71.21476,46.81098],[-71.2147,46.81088],[-71.21465,46.81078],[-71.21462,46.81067],[-71.21463,46.81056],[-71.21468,46.81046],[-71.21475,46.81037],[-71.21484,46.81028],[-71.21494,46.81019],[-71.21505,46.81012],[-71.21518,46.81005],[-71.2153,46.80999],[-71.21544,46.80993],[-71.21557,46.80987],[-71.2157,46.80981],[-71.21583,46.80975],[-71.21597,46.80969],[-71.2161,46.80963],[-71.21623,46.80958],[-71.21636,46.80952],[-71.2165,46.80946],[-71.21663,46.8094],[-71.21676,46.80934],[-71.2169,46.80929],[-71.21703,46.80923],[-71.21716,46.80917],[-71.2173,46.80911],[-71.21743,46.80906],[-71.21756,46.809],[-71.2177,46.80894],[-71.21783,46.80888],[-71.21796,46.80883],[-71.2181,46.80877],[-71.21823,46.80871],[-71.21837,46.80866],[-71.2185,46.8086],[-71.21863,46.80854],[-71.21877,46.80849],[-71.2189,46.80843],[-71.21904,46.80837],[-71.21917,46.80831],[-71.2193,46.80826],[-71.21944,46.8082],[-71.21957,46.80814],[-71.2197,46.80809],[-71.21984,46.80803],[-71.21997,46.80797],[-71.22011,46.80791],[-71.22024,46.80786],[-71.22037,46.8078],[-71.2205,46.80774],[-71.22063,46.80767],[-71.22076,46.80761],[-71.22088,46.80754],[-71.221,46.80748],[-71.22113,46.80741],[-71.22125,46.80734],[-71.22137,46.80727],[-71.2215,46.80721],[-71.22162,46.80714],[-71.22174,46.80707],[-71.22187,46.807],[-71.22199,46.80694],[-71.22211,46.80687],[-71.22224,46.8068],[-71.22236,46.80674],[-71.22248,46.80667],[-71.22261,46.8066],[-71.22273,46.80653],[-71.22285,46.80647],[-71.22298,46.8064],[-71.2231,46.80633],[-71.22322,46.80627],[-71.22335,46.8062]]}},{"type":"Feature","properties":{"couche":"tronçon","ordre":3,"osm_id":778997313,"etat":"proposed","en_tunnel":false,"sur_viaduc":false,"longueur_km":8.42,"mise_en_service":"2033"},"geometry":{"type":"LineString","coordinates":[[-71.22335,46.8062],[-71.22347,46.80613],[-71.22359,46.80606],[-71.22371,46.80599],[-71.22383,46.80592],[-71.22395,46.80585],[-71.22407,46.80578],[-71.22419,46.80571],[-71.22431,46.80564],[-71.22443,46.80557],[-71.22455,46.8055],[-71.22467,46.80543],[-71.22479,46.80536],[-71.22491,46.80529],[-71.22503,46.80522],[-71.22515,46.80515],[-71.22527,46.80508],[-71.22539,46.80501],[-71.22551,46.80494],[-71.22563,46.80487],[-71.22575,46.8048],[-71.22587,46.80473],[-71.22599,46.80466],[-71.22611,46.80459],[-71.22623,46.80452],[-71.22635,46.80445],[-71.22647,46.80438],[-71.22659,46.80431],[-71.22671,46.80424],[-71.22683,46.80417],[-71.22695,46.8041],[-71.22707,46.80403],[-71.22719,46.80396],[-71.22731,46.80389],[-71.22743,46.80382],[-71.22755,46.80376],[-71.22767,46.80369],[-71.2278,46.80362],[-71.22792,46.80355],[-71.22804,46.80348],[-71.22816,46.80341],[-71.22828,46.80334],[-71.2284,46.80327],[-71.22852,46.8032],[-71.22864,46.80313],[-71.22876,46.80306],[-71.22888,46.80299],[-71.229,46.80292],[-71.22912,46.80285],[-71.22924,46.80278],[-71.22936,46.80271],[-71.22948,46.80264],[-71.2296,46.80257],[-71.22972,46.8025],[-71.22984,46.80243],[-71.22996,46.80236],[-71.23008,46.80229],[-71.2302,46.80222],[-71.23032,46.80215],[-71.23044,46.80208],[-71.23056,46.80201],[-71.23069,46.80194],[-71.23081,46.80187],[-71.23093,46.8018],[-71.23105,46.80173],[-71.23117,46.80167],[-71.23129,46.8016],[-71.23141,46.80153],[-71.23153,46.80146],[-71.23165,46.80139],[-71.23177,46.80132],[-71.23189,46.80125],[-71.23201,46.80118],[-71.23213,46.80111],[-71.23225,46.80104],[-71.23237,46.80097],[-71.2325,46.8009],[-71.23262,46.80083],[-71.23274,46.80076],[-71.23286,46.8007],[-71.23298,46.80063],[-71.2331,46.80056],[-71.23322,46.80049],[-71.23334,46.80042],[-71.23347,46.80035],[-71.23359,46.80028],[-71.23371,46.80021],[-71.23383,46.80014],[-71.23395,46.80008],[-71.23407,46.80001],[-71.23419,46.79994],[-71.23432,46.79987],[-71.23444,46.7998],[-71.23456,46.79973],[-71.23468,46.79966],[-71.2348,46.79959],[-71.23492,46.79952],[-71.23504,46.79946],[-71.23517,46.79939],[-71.23529,46.79932],[-71.23541,46.79925],[-71.23553,46.79918],[-71.23565,46.79911],[-71.23577,46.79904],[-71.23589,46.79897],[-71.23601,46.7989],[-71.23614,46.79884],[-71.23626,46.79877],[-71.23638,46.7987],[-71.2365,46.79863],[-71.23662,46.79856],[-71.23674,46.79849],[-71.23686,46.79842],[-71.23699,46.79835],[-71.23711,46.79828],[-71.23723,46.79822],[-71.23735,46.79815],[-71.23747,46.79808],[-71.23759,46.79801],[-71.23771,46.79794],[-71.23783,46.79787],[-71.23796,46.7978],[-71.23808,46.79773],[-71.2382,46.79766],[-71.23832,46.7976],[-71.23844,46.79753],[-71.23856,46.79746],[-71.23868,46.79739],[-71.23881,46.79732],[-71.23893,46.79725],[-71.23905,46.79718],[-71.23917,46.79711],[-71.23929,46.79705],[-71.23941,46.79698],[-71.23954,46.79691],[-71.23966,46.79684],[-71.23978,46.79677],[-71.23991,46.79671],[-71.24003,46.79664],[-71.24015,46.79657],[-71.24028,46.79651],[-71.2404,46.79644],[-71.24052,46.79637],[-71.24065,46.7963],[-71.24077,46.79624],[-71.24089,46.79617],[-71.24102,46.7961],[-71.24114,46.79603],[-71.24126,46.79597],[-71.24139,46.7959],[-71.24151,46.79583],[-71.24163,46.79577],[-71.24176,46.7957],[-71.24188,46.79563],[-71.242,46.79556],[-71.24213,46.7955],[-71.24225,46.79543],[-71.24237,46.79536],[-71.2425,46.79529],[-71.24262,46.79523],[-71.24274,46.79516],[-71.24287,46.79509],[-71.24299,46.79503],[-71.24311,46.79496],[-71.24324,46.79489],[-71.24336,46.79482],[-71.24348,46.79476],[-71.2436,46.79469],[-71.24373,46.79462],[-71.24385,46.79455],[-71.24397,46.79449],[-71.2441,46.79442],[-71.24422,46.79435],[-71.24434,46.79429],[-71.24447,46.79422],[-71.24459,46.79415],[-71.24471,46.79408],[-71.24483,46.79401],[-71.24495,46.79394],[-71.24507,46.79387],[-71.24519,46.7938],[-71.24531,46.79373],[-71.24544,46.79367],[-71.24556,46.7936],[-71.24568,46.79353],[-71.2458,46.79346],[-71.24592,46.79339],[-71.24604,46.79332],[-71.24616,46.79325],[-71.24628,46.79318],[-71.24641,46.79311],[-71.24653,46.79304],[-71.24665,46.79298],[-71.24677,46.79291],[-71.24689,46.79284],[-71.24701,46.79277],[-71.24713,46.7927],[-71.24725,46.79263],[-71.24738,46.79256],[-71.2475,46.79249],[-71.24762,46.79242],[-71.24774,46.79236],[-71.24786,46.79229],[-71.24798,46.79222],[-71.2481,46.79215],[-71.24823,46.79208],[-71.24835,46.79201],[-71.24847,46.79194],[-71.24859,46.79187],[-71.24871,46.7918],[-71.24883,46.79173],[-71.24895,46.79167],[-71.24907,46.7916],[-71.2492,46.79153],[-71.24932,46.79146],[-71.24944,46.79139],[-71.24956,46.79132],[-71.24968,46.79125],[-71.2498,46.79118],[-71.24992,46.79111],[-71.25004,46.79104],[-71.25016,46.79098],[-71.25029,46.79091],[-71.25041,46.79084],[-71.25053,46.79077],[-71.25065,46.7907],[-71.25077,46.79063],[-71.25089,46.79056],[-71.25101,46.79049],[-71.25113,46.79042],[-71.25125,46.79035],[-71.25137,46.79028],[-71.25149,46.79021],[-71.25161,46.79014],[-71.25174,46.79007],[-71.25186,46.79001],[-71.25198,46.78994],[-71.2521,46.78987],[-71.25222,46.7898],[-71.25234,46.78973],[-71.25246,46.78966],[-71.25258,46.78959],[-71.2527,46.78952],[-71.25282,46.78945],[-71.25294,46.78938],[-71.25306,46.78931],[-71.25319,46.78924],[-71.25331,46.78917],[-71.25343,46.7891],[-71.25354,46.78903],[-71.25366,46.78896],[-71.25378,46.78889],[-71.25389,46.78881],[-71.25401,46.78874],[-71.25413,46.78867],[-71.25424,46.7886],[-71.25436,46.78852],[-71.25448,46.78845],[-71.25459,46.78838],[-71.25471,46.78831],[-71.25483,46.78823],[-71.25494,46.78816],[-71.25506,46.78809],[-71.25518,46.78801],[-71.25529,46.78794],[-71.25541,46.78787],[-71.25552,46.7878],[-71.25564,46.78772],[-71.25576,46.78765],[-71.25587,46.78758],[-71.25599,46.78751],[-71.25611,46.78743],[-71.25622,46.78736],[-71.25634,46.78729],[-71.25646,46.78722],[-71.25657,46.78714],[-71.25669,46.78707],[-71.25681,46.787],[-71.25692,46.78692],[-71.25704,46.78685],[-71.25716,46.78678],[-71.25727,46.78671],[-71.25739,46.78663],[-71.25751,46.78656],[-71.25762,46.78649],[-71.25774,46.78642],[-71.25786,46.78634],[-71.25797,46.78627],[-71.25809,46.7862],[-71.25821,46.78613],[-71.25832,46.78605],[-71.25844,46.78598],[-71.25855,46.78591],[-71.25867,46.78584],[-71.25879,46.78576],[-71.2589,46.78569],[-71.25902,46.78562],[-71.25914,46.78554],[-71.25925,46.78547],[-71.25937,46.7854],[-71.25949,46.78533],[-71.2596,46.78525],[-71.25972,46.78518],[-71.25984,46.78511],[-71.25996,46.78504],[-71.26008,46.78497],[-71.2602,46.7849],[-71.26032,46.78483],[-71.26044,46.78476],[-71.26056,46.78469],[-71.26068,46.78462],[-71.2608,46.78455],[-71.26092,46.78448],[-71.26104,46.78441],[-71.26116,46.78434],[-71.26128,46.78427],[-71.2614,46.7842],[-71.26152,46.78413],[-71.26164,46.78406],[-71.26176,46.78399],[-71.26189,46.78393],[-71.26202,46.78387],[-71.26215,46.78381],[-71.26229,46.78375],[-71.26242,46.78369],[-71.26255,46.78364],[-71.26268,46.78358],[-71.26281,46.78352],[-71.26294,46.78346],[-71.26307,46.78339],[-71.2632,46.78333],[-71.26333,46.78327],[-71.26346,46.78321],[-71.26359,46.78314],[-71.26371,46.78308],[-71.26383,46.78301],[-71.26394,46.78293],[-71.26404,46.78285],[-71.26412,46.78276],[-71.2642,46.78266],[-71.26428,46.78257],[-71.26437,46.78248],[-71.26449,46.78241],[-71.26462,46.78235],[-71.26475,46.78229],[-71.26488,46.78223],[-71.26502,46.78217],[-71.26515,46.78212],[-71.26529,46.78206],[-71.26542,46.78201],[-71.26556,46.78195],[-71.26569,46.7819],[-71.26583,46.78184],[-71.26596,46.78178],[-71.26609,46.78172],[-71.26622,46.78166],[-71.26635,46.7816],[-71.26647,46.78153],[-71.2666,46.78147],[-71.26672,46.7814],[-71.26684,46.78133],[-71.26697,46.78126],[-71.26709,46.7812],[-71.26722,46.78113],[-71.26734,46.78106],[-71.26746,46.781],[-71.26759,46.78093],[-71.26771,46.78086],[-71.26783,46.7808],[-71.26796,46.78073],[-71.26808,46.78066],[-71.26821,46.7806],[-71.26833,46.78053],[-71.26846,46.78046],[-71.26858,46.7804],[-71.26871,46.78033],[-71.26883,46.78027],[-71.26896,46.7802],[-71.26908,46.78014],[-71.26921,46.78007],[-71.26933,46.78001],[-71.26946,46.77994],[-71.26959,46.77988],[-71.26972,46.77982],[-71.26985,46.77976],[-71.26998,46.7797],[-71.2701,46.77963],[-71.27023,46.77956],[-71.27035,46.7795],[-71.27048,46.77943],[-71.2706,46.77937],[-71.27073,46.7793],[-71.27085,46.77923],[-71.27097,46.77917],[-71.2711,46.7791],[-71.27123,46.77904],[-71.27135,46.77897],[-71.27148,46.77891],[-71.2716,46.77884],[-71.27173,46.77878],[-71.27185,46.77871],[-71.27198,46.77865],[-71.2721,46.77858],[-71.27223,46.77852],[-71.27236,46.77845],[-71.27248,46.77839],[-71.27261,46.77832],[-71.27273,46.77826],[-71.27286,46.77819],[-71.27298,46.77813],[-71.27311,46.77806],[-71.27324,46.778],[-71.27336,46.77793],[-71.27349,46.77786],[-71.27361,46.7778],[-71.27374,46.77773],[-71.27386,46.77767],[-71.27399,46.7776],[-71.2741,46.77753],[-71.27418,46.77744],[-71.27422,46.77733],[-71.27422,46.77722],[-71.27419,46.77712],[-71.27413,46.77702],[-71.27404,46.77693],[-71.27394,46.77685],[-71.27385,46.77676],[-71.27375,46.77668],[-71.27365,46.77659],[-71.27355,46.77651],[-71.27345,46.77643],[-71.27335,46.77634],[-71.27325,46.77626],[-71.27315,46.77618],[-71.27305,46.77609],[-71.27295,46.77601],[-71.27285,46.77592],[-71.27275,46.77584],[-71.27266,46.77575],[-71.27257,46.77566],[-71.27252,46.77556],[-71.27254,46.77546],[-71.27261,46.77536],[-71.27271,46.77528],[-71.27284,46.77521],[-71.27296,46.77515],[-71.27309,46.77508],[-71.27321,46.77502],[-71.27334,46.77495],[-71.27347,46.77489],[-71.27359,46.77482],[-71.27372,46.77476],[-71.27384,46.77469],[-71.27397,46.77463],[-71.2741,46.77456],[-71.27422,46.7745],[-71.27435,46.77443],[-71.27447,46.77437],[-71.2746,46.7743],[-71.27473,46.77424],[-71.27485,46.77417],[-71.27498,46.77411],[-71.2751,46.77405],[-71.27523,46.77398],[-71.27536,46.77392],[-71.27548,46.77385],[-71.27561,46.77379],[-71.27573,46.77372],[-71.27586,46.77366],[-71.27599,46.77359],[-71.27611,46.77353],[-71.27624,46.77346],[-71.27636,46.7734],[-71.27649,46.77333],[-71.27662,46.77327],[-71.27674,46.7732],[-71.27687,46.77314],[-71.27699,46.77307],[-71.27712,46.77301],[-71.27725,46.77294],[-71.27737,46.77288],[-71.2775,46.77281],[-71.27762,46.77275],[-71.27775,46.77268],[-71.27788,46.77262],[-71.278,46.77255],[-71.27813,46.77249],[-71.27825,46.77242],[-71.27838,46.77236],[-71.27851,46.77229],[-71.27863,46.77223],[-71.27876,46.77217],[-71.27888,46.7721],[-71.27901,46.77204],[-71.27914,46.77197],[-71.27926,46.77191],[-71.27939,46.77184],[-71.27952,46.77178],[-71.27964,46.77171],[-71.27977,46.77165],[-71.27989,46.77159],[-71.28002,46.77152],[-71.28015,46.77146],[-71.28027,46.77139],[-71.2804,46.77133],[-71.28053,46.77126],[-71.28065,46.7712],[-71.28078,46.77113],[-71.2809,46.77107],[-71.28103,46.771],[-71.28115,46.77093],[-71.28128,46.77087],[-71.2814,46.7708],[-71.28153,46.77074],[-71.28165,46.77067],[-71.28178,46.77061],[-71.2819,46.77054],[-71.28203,46.77048],[-71.28215,46.77041],[-71.28228,46.77035],[-71.28241,46.77028],[-71.28253,46.77022],[-71.28266,46.77015],[-71.28279,46.77009],[-71.28291,46.77002],[-71.28304,46.76996],[-71.28316,46.76989],[-71.28329,46.76983],[-71.28342,46.76976],[-71.28354,46.7697],[-71.28367,46.76964],[-71.28379,46.76957],[-71.28392,46.76951],[-71.28405,46.76944],[-71.28417,46.76938],[-71.2843,46.76931],[-71.28442,46.76925],[-71.28455,46.76918],[-71.28468,46.76912],[-71.2848,46.76905],[-71.28493,46.76899],[-71.28506,46.76892],[-71.28518,46.76886],[-71.28531,46.76879],[-71.28543,46.76873],[-71.28556,46.76867],[-71.28569,46.7686],[-71.28581,46.76854],[-71.28594,46.76847],[-71.28606,46.76841],[-71.28619,46.76834],[-71.28632,46.76828],[-71.28644,46.76821],[-71.28657,46.76815],[-71.2867,46.76808],[-71.28682,46.76802],[-71.28695,46.76795],[-71.28707,46.76789],[-71.2872,46.76782],[-71.28733,46.76776],[-71.28745,46.7677],[-71.28758,46.76763],[-71.2877,46.76757],[-71.28783,46.7675],[-71.28796,46.76744],[-71.28808,46.76737],[-71.28821,46.76731],[-71.28833,46.76724],[-71.28846,46.76718],[-71.28859,46.76711],[-71.28871,46.76705],[-71.28884,46.76698],[-71.28897,46.76692],[-71.28909,46.76685],[-71.28922,46.76679],[-71.28934,46.76672],[-71.28947,46.76666],[-71.2896,46.7666],[-71.28972,46.76653],[-71.28985,46.76647],[-71.28999,46.76642],[-71.29014,46.76639],[-71.2903,46.76639],[-71.29044,46.76643],[-71.29056,46.7665],[-71.29067,46.76658],[-71.29077,46.76666],[-71.29088,46.76674],[-71.29098,46.76682],[-71.29108,46.76691],[-71.29118,46.76699],[-71.29128,46.76707],[-71.29139,46.76715],[-71.29149,46.76723],[-71.29159,46.76732],[-71.29169,46.7674],[-71.29179,46.76748],[-71.2919,46.76756],[-71.292,46.76764],[-71.2921,46.76773],[-71.29221,46.76781],[-71.29231,46.76789],[-71.29242,46.76797],[-71.29253,46.76804],[-71.29264,46.76812],[-71.29275,46.7682],[-71.29286,46.76827],[-71.29297,46.76835],[-71.29308,46.76843],[-71.29319,46.76851],[-71.2933,46.76858],[-71.29341,46.76866],[-71.29352,46.76874],[-71.29363,46.76881],[-71.29374,46.76889],[-71.29385,46.76897],[-71.29396,46.76905],[-71.29408,46.76912],[-71.2942,46.76919],[-71.29432,46.76926],[-71.29445,46.76932],[-71.29458,46.76938],[-71.29471,46.76944],[-71.29484,46.7695],[-71.29497,46.76956],[-71.2951,46.76962],[-71.29523,46.76968],[-71.29536,46.76974],[-71.29549,46.7698],[-71.29562,46.76986],[-71.29575,46.76992],[-71.29589,46.76998],[-71.29602,46.77004],[-71.29615,46.7701],[-71.29628,46.77016],[-71.29641,46.77022],[-71.29654,46.77028],[-71.29667,46.77034],[-71.2968,46.7704],[-71.29693,46.77047],[-71.29706,46.77053],[-71.29718,46.77059],[-71.2973,46.77067],[-71.2974,46.77075],[-71.2975,46.77083],[-71.2976,46.77092],[-71.29769,46.77101],[-71.29779,46.77109],[-71.29788,46.77118],[-71.29798,46.77126],[-71.29808,46.77135],[-71.29817,46.77143],[-71.29827,46.77152],[-71.29837,46.7716],[-71.29846,46.77169],[-71.29856,46.77177],[-71.29866,46.77186],[-71.29876,46.77194],[-71.29887,46.77202],[-71.29898,46.77209],[-71.29909,46.77217],[-71.2992,46.77225],[-71.2993,46.77233],[-71.29941,46.77241],[-71.29952,46.77249],[-71.29963,46.77257],[-71.29974,46.77264],[-71.29985,46.77272],[-71.29995,46.7728],[-71.30006,46.77288],[-71.30017,46.77295],[-71.30029,46.77303],[-71.3004,46.77311],[-71.30051,46.77318],[-71.30063,46.77325],[-71.30077,46.77331],[-71.30092,46.77333],[-71.30106,46.77329],[-71.30118,46.77321],[-71.30129,46.77314],[-71.30141,46.77307],[-71.30152,46.77299],[-71.30164,46.77292],[-71.30174,46.77284],[-71.30185,46.77276],[-71.30196,46.77268],[-71.30206,46.7726],[-71.30216,46.77252],[-71.30226,46.77243],[-71.30236,46.77235],[-71.30246,46.77226],[-71.30256,46.77218],[-71.30266,46.7721],[-71.30276,46.77201],[-71.30286,46.77193],[-71.30297,46.77185],[-71.30307,46.77177],[-71.30318,46.77169],[-71.30329,46.77161],[-71.3034,46.77154],[-71.30351,46.77146],[-71.30362,46.77138],[-71.30373,46.77131]]}},{"type":"Feature","properties":{"couche":"tronçon","ordre":4,"osm_id":1012496032,"etat":"proposed","en_tunnel":false,"sur_viaduc":false,"longueur_km":3.41,"mise_en_service":"2033"},"geometry":{"type":"LineString","coordinates":[[-71.30373,46.77131],[-71.30384,46.77123],[-71.30395,46.77115],[-71.30406,46.77108],[-71.30418,46.771],[-71.3043,46.77094],[-71.30443,46.77087],[-71.30457,46.77082],[-71.3047,46.77076],[-71.30483,46.7707],[-71.30497,46.77065],[-71.30511,46.77059],[-71.30524,46.77054],[-71.30537,46.77047],[-71.30549,46.77041],[-71.30561,46.77034],[-71.30573,46.77026],[-71.30585,46.77019],[-71.30596,46.77012],[-71.30608,46.77004],[-71.30619,46.76997],[-71.3063,46.7699],[-71.30642,46.76982],[-71.30653,46.76975],[-71.30665,46.76967],[-71.30676,46.7696],[-71.30688,46.76953],[-71.30699,46.76945],[-71.30711,46.76938],[-71.30722,46.7693],[-71.30734,46.76923],[-71.30745,46.76916],[-71.30756,46.76908],[-71.30768,46.76901],[-71.30779,46.76893],[-71.30791,46.76886],[-71.30802,46.76878],[-71.30813,46.76871],[-71.30825,46.76863],[-71.30836,46.76856],[-71.30848,46.76848],[-71.30859,46.76841],[-71.3087,46.76834],[-71.30882,46.76826],[-71.30893,46.76819],[-71.30904,46.76811],[-71.30916,46.76804],[-71.30927,46.76796],[-71.30939,46.76789],[-71.3095,46.76781],[-71.30961,46.76774],[-71.30973,46.76766],[-71.30984,46.76759],[-71.30995,46.76751],[-71.31007,46.76744],[-71.31018,46.76736],[-71.31029,46.76729],[-71.31041,46.76721],[-71.31052,46.76714],[-71.31063,46.76706],[-71.31074,46.76699],[-71.31085,46.76691],[-71.31097,46.76683],[-71.31108,46.76676],[-71.31119,46.76668],[-71.3113,46.76661],[-71.31142,46.76653],[-71.31153,46.76646],[-71.31164,46.76638],[-71.31176,46.76631],[-71.31187,46.76623],[-71.31198,46.76616],[-71.3121,46.76608],[-71.31221,46.76601],[-71.31232,46.76593],[-71.31244,46.76586],[-71.31255,46.76578],[-71.31266,46.76571],[-71.31278,46.76563],[-71.31289,46.76556],[-71.313,46.76548],[-71.31312,46.76541],[-71.31323,46.76533],[-71.31334,46.76526],[-71.31346,46.76518],[-71.31357,46.76511],[-71.31368,46.76503],[-71.3138,46.76496],[-71.31391,46.76488],[-71.31403,46.76481],[-71.31414,46.76473],[-71.31425,46.76466],[-71.31437,46.76458],[-71.31448,46.76451],[-71.31459,46.76443],[-71.31471,46.76436],[-71.31482,46.76428],[-71.31493,46.76421],[-71.31505,46.76413],[-71.31516,46.76406],[-71.31527,46.76398],[-71.31539,46.76391],[-71.3155,46.76384],[-71.31561,46.76376],[-71.31573,46.76369],[-71.31584,46.76361],[-71.31595,46.76354],[-71.31607,46.76346],[-71.31619,46.76339],[-71.3163,46.76332],[-71.31642,46.76325],[-71.31654,46.76317],[-71.31666,46.7631],[-71.31677,46.76303],[-71.31689,46.76296],[-71.31701,46.76289],[-71.31712,46.76281],[-71.31724,46.76274],[-71.31736,46.76267],[-71.31748,46.7626],[-71.31759,46.76253],[-71.31771,46.76245],[-71.31783,46.76238],[-71.31795,46.76231],[-71.31806,46.76224],[-71.31818,46.76217],[-71.3183,46.76209],[-71.31842,46.76202],[-71.31853,46.76195],[-71.31865,46.76188],[-71.31877,46.76181],[-71.31888,46.76173],[-71.319,46.76166],[-71.31912,46.76159],[-71.31923,46.76151],[-71.31935,46.76144],[-71.31946,46.76137],[-71.31958,46.76129],[-71.3197,46.76122],[-71.31981,46.76115],[-71.31993,46.76108],[-71.32004,46.761],[-71.32016,46.76093],[-71.32027,46.76086],[-71.32039,46.76078],[-71.32051,46.76071],[-71.32062,46.76064],[-71.32074,46.76056],[-71.32085,46.76049],[-71.32097,46.76041],[-71.32108,46.76034],[-71.32121,46.76028],[-71.32136,46.76025],[-71.32151,46.76027],[-71.32165,46.76032],[-71.32176,46.7604],[-71.32187,46.76047],[-71.32198,46.76055],[-71.32208,46.76063],[-71.32219,46.76071],[-71.3223,46.76079],[-71.32241,46.76087],[-71.32252,46.76095],[-71.32262,46.76102],[-71.32273,46.7611],[-71.32284,46.76118],[-71.32295,46.76126],[-71.32306,46.76134],[-71.32316,46.76142],[-71.32327,46.7615],[-71.32338,46.76157],[-71.32349,46.76165],[-71.3236,46.76173],[-71.3237,46.76181],[-71.32381,46.76189],[-71.32392,46.76197],[-71.32403,46.76205],[-71.32414,46.76212],[-71.32424,46.7622],[-71.32435,46.76228],[-71.32446,46.76236],[-71.32457,46.76244],[-71.32468,46.76252],[-71.32478,46.7626],[-71.32489,46.76267],[-71.325,46.76275],[-71.32511,46.76283],[-71.32522,46.76291],[-71.32532,46.76299],[-71.32543,46.76307],[-71.32554,46.76314],[-71.32565,46.76322],[-71.32576,46.7633],[-71.32586,46.76338],[-71.32597,46.76346],[-71.32608,46.76354],[-71.32619,46.76362],[-71.3263,46.76369],[-71.32641,46.76377],[-71.32651,46.76385],[-71.32662,46.76393],[-71.32673,46.76401],[-71.32684,46.76409],[-71.32695,46.76417],[-71.32705,46.76424],[-71.32716,46.76432],[-71.32727,46.7644],[-71.32738,46.76448],[-71.32749,46.76456],[-71.32759,46.76464],[-71.3277,46.76472],[-71.32781,46.76479],[-71.32792,46.76487],[-71.32803,46.76495],[-71.32813,46.76503],[-71.32824,46.76511],[-71.32835,46.76519],[-71.32846,46.76527],[-71.32857,46.76534],[-71.32869,46.76541],[-71.32881,46.76548],[-71.32894,46.76554],[-71.32908,46.76559],[-71.32923,46.76564],[-71.32937,46.76568],[-71.32951,46.76573],[-71.32965,46.76578],[-71.32979,46.76582],[-71.32994,46.76587],[-71.33008,46.76592],[-71.33022,46.76596],[-71.33036,46.76601],[-71.3305,46.76606],[-71.33063,46.76612],[-71.33076,46.76619],[-71.33087,46.76626],[-71.33099,46.76633],[-71.3311,46.76641],[-71.33122,46.76648],[-71.33133,46.76655],[-71.33145,46.76663],[-71.33156,46.7667],[-71.33168,46.76677],[-71.33179,46.76685],[-71.33191,46.76692],[-71.33203,46.767],[-71.33214,46.76707],[-71.33226,46.76714],[-71.33237,46.76722],[-71.33249,46.76729],[-71.3326,46.76736],[-71.33272,46.76744],[-71.33283,46.76751],[-71.33295,46.76758],[-71.33306,46.76766],[-71.33318,46.76773],[-71.33329,46.7678],[-71.33341,46.76788],[-71.33352,46.76795],[-71.33364,46.76803],[-71.33375,46.7681],[-71.33387,46.76817],[-71.33398,46.76825],[-71.3341,46.76832],[-71.33421,46.76839],[-71.33433,46.76847],[-71.33444,46.76854],[-71.33456,46.76861],[-71.33467,46.76869],[-71.33479,46.76876],[-71.33491,46.76884],[-71.33502,46.76891],[-71.33514,46.76898],[-71.33525,46.76906],[-71.33537,46.76913],[-71.33548,46.7692],[-71.3356,46.76928],[-71.33571,46.76935],[-71.33583,46.76942],[-71.33595,46.76949],[-71.33607,46.76956],[-71.33619,46.76963],[-71.33631,46.7697],[-71.33643,46.76977],[-71.33655,46.76984]]}},{"type":"Feature","properties":{"couche":"tronçon","ordre":5,"osm_id":1554915807,"etat":"construction","en_tunnel":false,"sur_viaduc":true,"longueur_km":0.04,"mise_en_service":"2033"},"geometry":{"type":"LineString","coordinates":[[-71.33652,46.76983],[-71.33614,46.7696]]}},{"type":"Feature","properties":{"couche":"tronçon","ordre":6,"osm_id":1554915808,"etat":"construction","en_tunnel":false,"sur_viaduc":false,"longueur_km":0.71,"mise_en_service":"2033"},"geometry":{"type":"LineString","coordinates":[[-71.33655,46.76984],[-71.33667,46.76992],[-71.33678,46.76999],[-71.3369,46.77006],[-71.33702,46.77013],[-71.33714,46.7702],[-71.33726,46.77027],[-71.33738,46.77034],[-71.3375,46.77041],[-71.33762,46.77048],[-71.33774,46.77055],[-71.33786,46.77062],[-71.33798,46.77069],[-71.3381,46.77076],[-71.33822,46.77083],[-71.33833,46.7709],[-71.33845,46.77097],[-71.33857,46.77104],[-71.33869,46.77112],[-71.33881,46.77119],[-71.33893,46.77126],[-71.33905,46.77133],[-71.33917,46.7714],[-71.33929,46.77147],[-71.33941,46.77154],[-71.33953,46.77161],[-71.33965,46.77168],[-71.33976,46.77175],[-71.33988,46.77182],[-71.34,46.77189],[-71.34012,46.77196],[-71.34024,46.77203],[-71.34036,46.7721],[-71.34048,46.77217],[-71.3406,46.77224],[-71.34072,46.77232],[-71.34084,46.77239],[-71.34096,46.77246],[-71.34108,46.77253],[-71.34119,46.7726],[-71.34131,46.77267],[-71.34143,46.77274],[-71.34155,46.77281],[-71.34167,46.77288],[-71.34179,46.77295],[-71.34192,46.77301],[-71.34204,46.77308],[-71.34217,46.77314],[-71.34231,46.7732],[-71.34244,46.77326],[-71.34258,46.77331],[-71.34272,46.77336],[-71.34286,46.77341],[-71.343,46.77346],[-71.34314,46.7735],[-71.34328,46.77355],[-71.34343,46.77359],[-71.34357,46.77364],[-71.34372,46.77368],[-71.34386,46.77372]]}},{"type":"Feature","properties":{"couche":"tronçon","ordre":7,"osm_id":1554915809,"etat":"proposed","en_tunnel":false,"sur_viaduc":false,"longueur_km":0.86,"mise_en_service":"2033"},"geometry":{"type":"LineString","coordinates":[[-71.34386,46.77372],[-71.344,46.77377],[-71.34415,46.77381],[-71.34429,46.77386],[-71.34443,46.7739],[-71.34458,46.77394],[-71.34472,46.77399],[-71.34487,46.77403],[-71.34501,46.77408],[-71.34515,46.77412],[-71.3453,46.77417],[-71.34544,46.77421],[-71.34558,46.77425],[-71.34573,46.7743],[-71.34587,46.77434],[-71.34602,46.77439],[-71.34616,46.77443],[-71.3463,46.77448],[-71.34645,46.77452],[-71.34659,46.77457],[-71.34673,46.77461],[-71.34687,46.77466],[-71.34701,46.77471],[-71.34715,46.77476],[-71.34729,46.77481],[-71.34743,46.77486],[-71.34757,46.7749],[-71.34772,46.77495],[-71.34786,46.775],[-71.348,46.77505],[-71.34814,46.7751],[-71.34828,46.77514],[-71.34842,46.77519],[-71.34857,46.77523],[-71.34872,46.77526],[-71.34888,46.77528],[-71.34903,46.77529],[-71.34919,46.7753],[-71.34935,46.77528],[-71.3495,46.77526],[-71.34965,46.77522],[-71.34979,46.77517],[-71.34992,46.77511],[-71.35004,46.77504],[-71.35016,46.77497],[-71.35027,46.77489],[-71.35038,46.77482],[-71.35049,46.77474],[-71.3506,46.77466],[-71.35071,46.77458],[-71.35082,46.77451],[-71.35093,46.77443],[-71.35104,46.77435],[-71.35115,46.77427],[-71.35126,46.7742],[-71.35136,46.77412],[-71.35147,46.77404],[-71.35158,46.77396],[-71.35169,46.77389],[-71.35181,46.77381],[-71.35192,46.77373],[-71.35203,46.77366],[-71.35214,46.77358],[-71.35225,46.77351],[-71.35237,46.77343],[-71.35248,46.77335],[-71.35259,46.77328],[-71.3527,46.7732],[-71.35281,46.77313],[-71.35293,46.77305],[-71.35304,46.77298],[-71.35315,46.7729],[-71.3532,46.77287]]}},{"type":"Feature","properties":{"couche":"tronçon_isolé","osm_id":1558354781,"etat":"proposed","longueur_km":0.07,"note":"Non raccordé au tracé principal dans OSM."},"geometry":{"type":"LineString","coordinates":[[-71.30376,46.77128],[-71.30365,46.77136],[-71.30354,46.77143],[-71.30343,46.77151],[-71.30332,46.77159],[-71.30321,46.77167],[-71.30315,46.77171]]}},{"type":"Feature","properties":{"couche":"ligne","nom":"Tramway de Québec","longueur_km":19,"mise_en_service":2033},"geometry":{"type":"LineString","coordinates":[[-71.24827,46.84148],[-71.24819,46.84139],[-71.24811,46.84129],[-71.24803,46.8412],[-71.24795,46.84111],[-71.24787,46.84101],[-71.24779,46.84092],[-71.24771,46.84083],[-71.24763,46.84073],[-71.24755,46.84064],[-71.24747,46.84055],[-71.24737,46.84046],[-71.24728,46.84038],[-71.24718,46.84029],[-71.24709,46.8402],[-71.24699,46.84012],[-71.2469,46.84003],[-71.2468,46.83994],[-71.24671,46.83986],[-71.24662,46.83977],[-71.24654,46.83968],[-71.24645,46.83959],[-71.24637,46.8395],[-71.24628,46.8394],[-71.2462,46.83931],[-71.24611,46.83922],[-71.24603,46.83913],[-71.24595,46.83904],[-71.24586,46.83895],[-71.24578,46.83885],[-71.2457,46.83876],[-71.24562,46.83867],[-71.24555,46.83857],[-71.24547,46.83848],[-71.24539,46.83839],[-71.24531,46.83829],[-71.24523,46.8382],[-71.24516,46.83811],[-71.24508,46.83801],[-71.245,46.83792],[-71.24492,46.83782],[-71.24484,46.83773],[-71.24476,46.83764],[-71.24468,46.83754],[-71.2446,46.83745],[-71.24452,46.83736],[-71.24445,46.83726],[-71.24437,46.83717],[-71.24429,46.83708],[-71.24421,46.83698],[-71.24413,46.83689],[-71.24405,46.8368],[-71.24397,46.8367],[-71.24389,46.83661],[-71.24381,46.83652],[-71.24374,46.83642],[-71.24366,46.83633],[-71.24358,46.83624],[-71.2435,46.83614],[-71.24342,46.83605],[-71.24335,46.83595],[-71.24327,46.83586],[-71.2432,46.83576],[-71.24312,46.83567],[-71.24305,46.83557],[-71.24298,46.83548],[-71.2429,46.83538],[-71.24283,46.83529],[-71.24275,46.83519],[-71.24268,46.8351],[-71.24261,46.835],[-71.24253,46.83491],[-71.24246,46.83481],[-71.24239,46.83471],[-71.24232,46.83462],[-71.24224,46.83452],[-71.24217,46.83443],[-71.2421,46.83433],[-71.24203,46.83423],[-71.24196,46.83414],[-71.24188,46.83404],[-71.24181,46.83395],[-71.24173,46.83385],[-71.24165,46.83376],[-71.24157,46.83367],[-71.24148,46.83358],[-71.2414,46.83349],[-71.24131,46.8334],[-71.24122,46.83331],[-71.24112,46.83322],[-71.24102,46.83314],[-71.24092,46.83306],[-71.24081,46.83298],[-71.2407,46.8329],[-71.24059,46.83282],[-71.24049,46.83274],[-71.24038,46.83266],[-71.24029,46.83258],[-71.24019,46.83249],[-71.24009,46.83241],[-71.24,46.83232],[-71.23991,46.83223],[-71.23982,46.83214],[-71.23974,46.83205],[-71.23965,46.83196],[-71.23956,46.83187],[-71.23947,46.83178],[-71.23939,46.83169],[-71.2393,46.8316],[-71.23921,46.83151],[-71.23912,46.83142],[-71.23903,46.83133],[-71.23895,46.83124],[-71.23886,46.83115],[-71.23878,46.83106],[-71.23869,46.83097],[-71.23861,46.83088],[-71.23852,46.83079],[-71.23843,46.8307],[-71.23835,46.83061],[-71.23826,46.83052],[-71.23817,46.83043],[-71.23808,46.83034],[-71.23798,46.83026],[-71.23788,46.83017],[-71.23778,46.83009],[-71.23768,46.83001],[-71.23758,46.82992],[-71.23748,46.82984],[-71.23737,46.82976],[-71.23727,46.82968],[-71.23717,46.8296],[-71.23707,46.82951],[-71.23696,46.82943],[-71.23686,46.82935],[-71.23675,46.82927],[-71.23665,46.82919],[-71.23655,46.82911],[-71.23645,46.82902],[-71.23637,46.82893],[-71.23628,46.82884],[-71.2362,46.82875],[-71.23613,46.82865],[-71.23605,46.82856],[-71.23598,46.82846],[-71.2359,46.82837],[-71.23583,46.82827],[-71.23575,46.82818],[-71.23568,46.82808],[-71.23561,46.82799],[-71.23553,46.82789],[-71.23545,46.8278],[-71.23537,46.82771],[-71.23529,46.82761],[-71.23521,46.82752],[-71.23514,46.82742],[-71.23506,46.82733],[-71.23498,46.82724],[-71.2349,46.82714],[-71.23483,46.82705],[-71.23474,46.82696],[-71.23466,46.82686],[-71.23458,46.82677],[-71.2345,46.82668],[-71.23441,46.82659],[-71.23433,46.8265],[-71.23425,46.82641],[-71.23416,46.82631],[-71.23408,46.82622],[-71.234,46.82613],[-71.23391,46.82604],[-71.23383,46.82595],[-71.23375,46.82586],[-71.23366,46.82576],[-71.23358,46.82567],[-71.2335,46.82558],[-71.23341,46.82549],[-71.23333,46.8254],[-71.23325,46.82531],[-71.23316,46.82521],[-71.23308,46.82512],[-71.233,46.82503],[-71.23291,46.82494],[-71.23283,46.82485],[-71.23275,46.82476],[-71.23267,46.82466],[-71.23258,46.82457],[-71.2325,46.82448],[-71.23242,46.82439],[-71.23233,46.8243],[-71.23225,46.82421],[-71.23217,46.82411],[-71.23208,46.82402],[-71.232,46.82393],[-71.23192,46.82384],[-71.23183,46.82375],[-71.23174,46.82366],[-71.23164,46.82357],[-71.23154,46.82349],[-71.23144,46.82341],[-71.23134,46.82333],[-71.23123,46.82325],[-71.23112,46.82317],[-71.23101,46.82309],[-71.2309,46.82302],[-71.23078,46.82294],[-71.23067,46.82287],[-71.23055,46.8228],[-71.23043,46.82273],[-71.23031,46.82266],[-71.23018,46.82259],[-71.23006,46.82252],[-71.22994,46.82246],[-71.22981,46.82239],[-71.22969,46.82233],[-71.22956,46.82226],[-71.22944,46.8222],[-71.22931,46.82213],[-71.2292,46.82205],[-71.22909,46.82198],[-71.22898,46.8219],[-71.22887,46.82182],[-71.22877,46.82174],[-71.22868,46.82165],[-71.22862,46.82155],[-71.22864,46.82144],[-71.22873,46.82135],[-71.22883,46.82127],[-71.22892,46.82118],[-71.22902,46.8211],[-71.22912,46.82101],[-71.22921,46.82093],[-71.22931,46.82084],[-71.22941,46.82076],[-71.2295,46.82067],[-71.2296,46.82059],[-71.2297,46.8205],[-71.22979,46.82041],[-71.22987,46.82032],[-71.22996,46.82023],[-71.23004,46.82014],[-71.23012,46.82005],[-71.23021,46.81996],[-71.23029,46.81987],[-71.23036,46.81977],[-71.23037,46.81966],[-71.23033,46.81956],[-71.23027,46.81946],[-71.23019,46.81937],[-71.2301,46.81928],[-71.23001,46.81919],[-71.22993,46.8191],[-71.22984,46.81901],[-71.22975,46.81892],[-71.22967,46.81882],[-71.2296,46.81873],[-71.22952,46.81863],[-71.22945,46.81854],[-71.22937,46.81844],[-71.22928,46.81835],[-71.22918,46.81828],[-71.22905,46.81821],[-71.22891,46.81817],[-71.22875,46.81814],[-71.2286,46.81811],[-71.22845,46.81808],[-71.2283,46.81805],[-71.22815,46.81802],[-71.228,46.81798],[-71.22787,46.81792],[-71.22774,46.81786],[-71.22763,46.81778],[-71.22751,46.81771],[-71.2274,46.81763],[-71.2273,46.81755],[-71.22721,46.81746],[-71.22714,46.81737],[-71.22706,46.81727],[-71.22699,46.81718],[-71.22691,46.81708],[-71.22684,46.81699],[-71.22676,46.81689],[-71.22667,46.8168],[-71.22658,46.81672],[-71.22648,46.81663],[-71.22638,46.81654],[-71.22629,46.81646],[-71.22621,46.81636],[-71.22614,46.81627],[-71.22606,46.81617],[-71.22599,46.81608],[-71.22591,46.81598],[-71.22584,46.81589],[-71.22576,46.8158],[-71.22568,46.8157],[-71.22561,46.81561],[-71.22553,46.81551],[-71.22546,46.81542],[-71.22539,46.81532],[-71.22532,46.81522],[-71.22525,46.81513],[-71.22518,46.81503],[-71.2251,46.81493],[-71.22503,46.81484],[-71.22496,46.81474],[-71.22489,46.81465],[-71.22482,46.81455],[-71.22475,46.81445],[-71.22468,46.81436],[-71.2246,46.81426],[-71.22453,46.81417],[-71.22446,46.81407],[-71.22438,46.81398],[-71.2243,46.81388],[-71.22423,46.81379],[-71.22415,46.81369],[-71.22408,46.8136],[-71.224,46.8135],[-71.22392,46.81341],[-71.22385,46.81331],[-71.22377,46.81322],[-71.2237,46.81312],[-71.22364,46.81302],[-71.22358,46.81292],[-71.22351,46.81283],[-71.22344,46.81273],[-71.22336,46.81264],[-71.22329,46.81254],[-71.22321,46.81245],[-71.22313,46.81235],[-71.22305,46.81226],[-71.22298,46.81217],[-71.2229,46.81207],[-71.22282,46.81198],[-71.22272,46.81189],[-71.22261,46.81182],[-71.22248,46.81175],[-71.22234,46.8117],[-71.2222,46.81166],[-71.22204,46.81164],[-71.22189,46.81163],[-71.22173,46.81163],[-71.22157,46.81165],[-71.22142,46.81168],[-71.22127,46.81171],[-71.22112,46.81174],[-71.22097,46.81178],[-71.22083,46.81182],[-71.22068,46.81186],[-71.22053,46.81189],[-71.22038,46.81193],[-71.22024,46.81197],[-71.22009,46.81201],[-71.21994,46.81204],[-71.21979,46.81208],[-71.21964,46.81211],[-71.21949,46.81214],[-71.21934,46.81217],[-71.21919,46.8122],[-71.21904,46.81224],[-71.21889,46.81227],[-71.21874,46.8123],[-71.21859,46.81233],[-71.21844,46.81237],[-71.21829,46.8124],[-71.21813,46.81243],[-71.21798,46.81247],[-71.21783,46.8125],[-71.21768,46.81253],[-71.21753,46.81256],[-71.21738,46.8126],[-71.21723,46.81262],[-71.21707,46.81263],[-71.21692,46.81263],[-71.21676,46.81261],[-71.21661,46.81257],[-71.21648,46.81251],[-71.21635,46.81245],[-71.21624,46.81237],[-71.21613,46.8123],[-71.21603,46.81221],[-71.21592,46.81213],[-71.21582,46.81205],[-71.21573,46.81196],[-71.21563,46.81188],[-71.21555,46.81179],[-71.21546,46.8117],[-71.21537,46.81161],[-71.21529,46.81152],[-71.2152,46.81143],[-71.21511,46.81134],[-71.21502,46.81125],[-71.21493,46.81116],[-71.21484,46.81107],[-71.21476,46.81098],[-71.2147,46.81088],[-71.21465,46.81078],[-71.21462,46.81067],[-71.21463,46.81056],[-71.21468,46.81046],[-71.21475,46.81037],[-71.21484,46.81028],[-71.21494,46.81019],[-71.21505,46.81012],[-71.21518,46.81005],[-71.2153,46.80999],[-71.21544,46.80993],[-71.21557,46.80987],[-71.2157,46.80981],[-71.21583,46.80975],[-71.21597,46.80969],[-71.2161,46.80963],[-71.21623,46.80958],[-71.21636,46.80952],[-71.2165,46.80946],[-71.21663,46.8094],[-71.21676,46.80934],[-71.2169,46.80929],[-71.21703,46.80923],[-71.21716,46.80917],[-71.2173,46.80911],[-71.21743,46.80906],[-71.21756,46.809],[-71.2177,46.80894],[-71.21783,46.80888],[-71.21796,46.80883],[-71.2181,46.80877],[-71.21823,46.80871],[-71.21837,46.80866],[-71.2185,46.8086],[-71.21863,46.80854],[-71.21877,46.80849],[-71.2189,46.80843],[-71.21904,46.80837],[-71.21917,46.80831],[-71.2193,46.80826],[-71.21944,46.8082],[-71.21957,46.80814],[-71.2197,46.80809],[-71.21984,46.80803],[-71.21997,46.80797],[-71.22011,46.80791],[-71.22024,46.80786],[-71.22037,46.8078],[-71.2205,46.80774],[-71.22063,46.80767],[-71.22076,46.80761],[-71.22088,46.80754],[-71.221,46.80748],[-71.22113,46.80741],[-71.22125,46.80734],[-71.22137,46.80727],[-71.2215,46.80721],[-71.22162,46.80714],[-71.22174,46.80707],[-71.22187,46.807],[-71.22199,46.80694],[-71.22211,46.80687],[-71.22224,46.8068],[-71.22236,46.80674],[-71.22248,46.80667],[-71.22261,46.8066],[-71.22273,46.80653],[-71.22285,46.80647],[-71.22298,46.8064],[-71.2231,46.80633],[-71.22322,46.80627],[-71.22335,46.8062],[-71.22347,46.80613],[-71.22359,46.80606],[-71.22371,46.80599],[-71.22383,46.80592],[-71.22395,46.80585],[-71.22407,46.80578],[-71.22419,46.80571],[-71.22431,46.80564],[-71.22443,46.80557],[-71.22455,46.8055],[-71.22467,46.80543],[-71.22479,46.80536],[-71.22491,46.80529],[-71.22503,46.80522],[-71.22515,46.80515],[-71.22527,46.80508],[-71.22539,46.80501],[-71.22551,46.80494],[-71.22563,46.80487],[-71.22575,46.8048],[-71.22587,46.80473],[-71.22599,46.80466],[-71.22611,46.80459],[-71.22623,46.80452],[-71.22635,46.80445],[-71.22647,46.80438],[-71.22659,46.80431],[-71.22671,46.80424],[-71.22683,46.80417],[-71.22695,46.8041],[-71.22707,46.80403],[-71.22719,46.80396],[-71.22731,46.80389],[-71.22743,46.80382],[-71.22755,46.80376],[-71.22767,46.80369],[-71.2278,46.80362],[-71.22792,46.80355],[-71.22804,46.80348],[-71.22816,46.80341],[-71.22828,46.80334],[-71.2284,46.80327],[-71.22852,46.8032],[-71.22864,46.80313],[-71.22876,46.80306],[-71.22888,46.80299],[-71.229,46.80292],[-71.22912,46.80285],[-71.22924,46.80278],[-71.22936,46.80271],[-71.22948,46.80264],[-71.2296,46.80257],[-71.22972,46.8025],[-71.22984,46.80243],[-71.22996,46.80236],[-71.23008,46.80229],[-71.2302,46.80222],[-71.23032,46.80215],[-71.23044,46.80208],[-71.23056,46.80201],[-71.23069,46.80194],[-71.23081,46.80187],[-71.23093,46.8018],[-71.23105,46.80173],[-71.23117,46.80167],[-71.23129,46.8016],[-71.23141,46.80153],[-71.23153,46.80146],[-71.23165,46.80139],[-71.23177,46.80132],[-71.23189,46.80125],[-71.23201,46.80118],[-71.23213,46.80111],[-71.23225,46.80104],[-71.23237,46.80097],[-71.2325,46.8009],[-71.23262,46.80083],[-71.23274,46.80076],[-71.23286,46.8007],[-71.23298,46.80063],[-71.2331,46.80056],[-71.23322,46.80049],[-71.23334,46.80042],[-71.23347,46.80035],[-71.23359,46.80028],[-71.23371,46.80021],[-71.23383,46.80014],[-71.23395,46.80008],[-71.23407,46.80001],[-71.23419,46.79994],[-71.23432,46.79987],[-71.23444,46.7998],[-71.23456,46.79973],[-71.23468,46.79966],[-71.2348,46.79959],[-71.23492,46.79952],[-71.23504,46.79946],[-71.23517,46.79939],[-71.23529,46.79932],[-71.23541,46.79925],[-71.23553,46.79918],[-71.23565,46.79911],[-71.23577,46.79904],[-71.23589,46.79897],[-71.23601,46.7989],[-71.23614,46.79884],[-71.23626,46.79877],[-71.23638,46.7987],[-71.2365,46.79863],[-71.23662,46.79856],[-71.23674,46.79849],[-71.23686,46.79842],[-71.23699,46.79835],[-71.23711,46.79828],[-71.23723,46.79822],[-71.23735,46.79815],[-71.23747,46.79808],[-71.23759,46.79801],[-71.23771,46.79794],[-71.23783,46.79787],[-71.23796,46.7978],[-71.23808,46.79773],[-71.2382,46.79766],[-71.23832,46.7976],[-71.23844,46.79753],[-71.23856,46.79746],[-71.23868,46.79739],[-71.23881,46.79732],[-71.23893,46.79725],[-71.23905,46.79718],[-71.23917,46.79711],[-71.23929,46.79705],[-71.23941,46.79698],[-71.23954,46.79691],[-71.23966,46.79684],[-71.23978,46.79677],[-71.23991,46.79671],[-71.24003,46.79664],[-71.24015,46.79657],[-71.24028,46.79651],[-71.2404,46.79644],[-71.24052,46.79637],[-71.24065,46.7963],[-71.24077,46.79624],[-71.24089,46.79617],[-71.24102,46.7961],[-71.24114,46.79603],[-71.24126,46.79597],[-71.24139,46.7959],[-71.24151,46.79583],[-71.24163,46.79577],[-71.24176,46.7957],[-71.24188,46.79563],[-71.242,46.79556],[-71.24213,46.7955],[-71.24225,46.79543],[-71.24237,46.79536],[-71.2425,46.79529],[-71.24262,46.79523],[-71.24274,46.79516],[-71.24287,46.79509],[-71.24299,46.79503],[-71.24311,46.79496],[-71.24324,46.79489],[-71.24336,46.79482],[-71.24348,46.79476],[-71.2436,46.79469],[-71.24373,46.79462],[-71.24385,46.79455],[-71.24397,46.79449],[-71.2441,46.79442],[-71.24422,46.79435],[-71.24434,46.79429],[-71.24447,46.79422],[-71.24459,46.79415],[-71.24471,46.79408],[-71.24483,46.79401],[-71.24495,46.79394],[-71.24507,46.79387],[-71.24519,46.7938],[-71.24531,46.79373],[-71.24544,46.79367],[-71.24556,46.7936],[-71.24568,46.79353],[-71.2458,46.79346],[-71.24592,46.79339],[-71.24604,46.79332],[-71.24616,46.79325],[-71.24628,46.79318],[-71.24641,46.79311],[-71.24653,46.79304],[-71.24665,46.79298],[-71.24677,46.79291],[-71.24689,46.79284],[-71.24701,46.79277],[-71.24713,46.7927],[-71.24725,46.79263],[-71.24738,46.79256],[-71.2475,46.79249],[-71.24762,46.79242],[-71.24774,46.79236],[-71.24786,46.79229],[-71.24798,46.79222],[-71.2481,46.79215],[-71.24823,46.79208],[-71.24835,46.79201],[-71.24847,46.79194],[-71.24859,46.79187],[-71.24871,46.7918],[-71.24883,46.79173],[-71.24895,46.79167],[-71.24907,46.7916],[-71.2492,46.79153],[-71.24932,46.79146],[-71.24944,46.79139],[-71.24956,46.79132],[-71.24968,46.79125],[-71.2498,46.79118],[-71.24992,46.79111],[-71.25004,46.79104],[-71.25016,46.79098],[-71.25029,46.79091],[-71.25041,46.79084],[-71.25053,46.79077],[-71.25065,46.7907],[-71.25077,46.79063],[-71.25089,46.79056],[-71.25101,46.79049],[-71.25113,46.79042],[-71.25125,46.79035],[-71.25137,46.79028],[-71.25149,46.79021],[-71.25161,46.79014],[-71.25174,46.79007],[-71.25186,46.79001],[-71.25198,46.78994],[-71.2521,46.78987],[-71.25222,46.7898],[-71.25234,46.78973],[-71.25246,46.78966],[-71.25258,46.78959],[-71.2527,46.78952],[-71.25282,46.78945],[-71.25294,46.78938],[-71.25306,46.78931],[-71.25319,46.78924],[-71.25331,46.78917],[-71.25343,46.7891],[-71.25354,46.78903],[-71.25366,46.78896],[-71.25378,46.78889],[-71.25389,46.78881],[-71.25401,46.78874],[-71.25413,46.78867],[-71.25424,46.7886],[-71.25436,46.78852],[-71.25448,46.78845],[-71.25459,46.78838],[-71.25471,46.78831],[-71.25483,46.78823],[-71.25494,46.78816],[-71.25506,46.78809],[-71.25518,46.78801],[-71.25529,46.78794],[-71.25541,46.78787],[-71.25552,46.7878],[-71.25564,46.78772],[-71.25576,46.78765],[-71.25587,46.78758],[-71.25599,46.78751],[-71.25611,46.78743],[-71.25622,46.78736],[-71.25634,46.78729],[-71.25646,46.78722],[-71.25657,46.78714],[-71.25669,46.78707],[-71.25681,46.787],[-71.25692,46.78692],[-71.25704,46.78685],[-71.25716,46.78678],[-71.25727,46.78671],[-71.25739,46.78663],[-71.25751,46.78656],[-71.25762,46.78649],[-71.25774,46.78642],[-71.25786,46.78634],[-71.25797,46.78627],[-71.25809,46.7862],[-71.25821,46.78613],[-71.25832,46.78605],[-71.25844,46.78598],[-71.25855,46.78591],[-71.25867,46.78584],[-71.25879,46.78576],[-71.2589,46.78569],[-71.25902,46.78562],[-71.25914,46.78554],[-71.25925,46.78547],[-71.25937,46.7854],[-71.25949,46.78533],[-71.2596,46.78525],[-71.25972,46.78518],[-71.25984,46.78511],[-71.25996,46.78504],[-71.26008,46.78497],[-71.2602,46.7849],[-71.26032,46.78483],[-71.26044,46.78476],[-71.26056,46.78469],[-71.26068,46.78462],[-71.2608,46.78455],[-71.26092,46.78448],[-71.26104,46.78441],[-71.26116,46.78434],[-71.26128,46.78427],[-71.2614,46.7842],[-71.26152,46.78413],[-71.26164,46.78406],[-71.26176,46.78399],[-71.26189,46.78393],[-71.26202,46.78387],[-71.26215,46.78381],[-71.26229,46.78375],[-71.26242,46.78369],[-71.26255,46.78364],[-71.26268,46.78358],[-71.26281,46.78352],[-71.26294,46.78346],[-71.26307,46.78339],[-71.2632,46.78333],[-71.26333,46.78327],[-71.26346,46.78321],[-71.26359,46.78314],[-71.26371,46.78308],[-71.26383,46.78301],[-71.26394,46.78293],[-71.26404,46.78285],[-71.26412,46.78276],[-71.2642,46.78266],[-71.26428,46.78257],[-71.26437,46.78248],[-71.26449,46.78241],[-71.26462,46.78235],[-71.26475,46.78229],[-71.26488,46.78223],[-71.26502,46.78217],[-71.26515,46.78212],[-71.26529,46.78206],[-71.26542,46.78201],[-71.26556,46.78195],[-71.26569,46.7819],[-71.26583,46.78184],[-71.26596,46.78178],[-71.26609,46.78172],[-71.26622,46.78166],[-71.26635,46.7816],[-71.26647,46.78153],[-71.2666,46.78147],[-71.26672,46.7814],[-71.26684,46.78133],[-71.26697,46.78126],[-71.26709,46.7812],[-71.26722,46.78113],[-71.26734,46.78106],[-71.26746,46.781],[-71.26759,46.78093],[-71.26771,46.78086],[-71.26783,46.7808],[-71.26796,46.78073],[-71.26808,46.78066],[-71.26821,46.7806],[-71.26833,46.78053],[-71.26846,46.78046],[-71.26858,46.7804],[-71.26871,46.78033],[-71.26883,46.78027],[-71.26896,46.7802],[-71.26908,46.78014],[-71.26921,46.78007],[-71.26933,46.78001],[-71.26946,46.77994],[-71.26959,46.77988],[-71.26972,46.77982],[-71.26985,46.77976],[-71.26998,46.7797],[-71.2701,46.77963],[-71.27023,46.77956],[-71.27035,46.7795],[-71.27048,46.77943],[-71.2706,46.77937],[-71.27073,46.7793],[-71.27085,46.77923],[-71.27097,46.77917],[-71.2711,46.7791],[-71.27123,46.77904],[-71.27135,46.77897],[-71.27148,46.77891],[-71.2716,46.77884],[-71.27173,46.77878],[-71.27185,46.77871],[-71.27198,46.77865],[-71.2721,46.77858],[-71.27223,46.77852],[-71.27236,46.77845],[-71.27248,46.77839],[-71.27261,46.77832],[-71.27273,46.77826],[-71.27286,46.77819],[-71.27298,46.77813],[-71.27311,46.77806],[-71.27324,46.778],[-71.27336,46.77793],[-71.27349,46.77786],[-71.27361,46.7778],[-71.27374,46.77773],[-71.27386,46.77767],[-71.27399,46.7776],[-71.2741,46.77753],[-71.27418,46.77744],[-71.27422,46.77733],[-71.27422,46.77722],[-71.27419,46.77712],[-71.27413,46.77702],[-71.27404,46.77693],[-71.27394,46.77685],[-71.27385,46.77676],[-71.27375,46.77668],[-71.27365,46.77659],[-71.27355,46.77651],[-71.27345,46.77643],[-71.27335,46.77634],[-71.27325,46.77626],[-71.27315,46.77618],[-71.27305,46.77609],[-71.27295,46.77601],[-71.27285,46.77592],[-71.27275,46.77584],[-71.27266,46.77575],[-71.27257,46.77566],[-71.27252,46.77556],[-71.27254,46.77546],[-71.27261,46.77536],[-71.27271,46.77528],[-71.27284,46.77521],[-71.27296,46.77515],[-71.27309,46.77508],[-71.27321,46.77502],[-71.27334,46.77495],[-71.27347,46.77489],[-71.27359,46.77482],[-71.27372,46.77476],[-71.27384,46.77469],[-71.27397,46.77463],[-71.2741,46.77456],[-71.27422,46.7745],[-71.27435,46.77443],[-71.27447,46.77437],[-71.2746,46.7743],[-71.27473,46.77424],[-71.27485,46.77417],[-71.27498,46.77411],[-71.2751,46.77405],[-71.27523,46.77398],[-71.27536,46.77392],[-71.27548,46.77385],[-71.27561,46.77379],[-71.27573,46.77372],[-71.27586,46.77366],[-71.27599,46.77359],[-71.27611,46.77353],[-71.27624,46.77346],[-71.27636,46.7734],[-71.27649,46.77333],[-71.27662,46.77327],[-71.27674,46.7732],[-71.27687,46.77314],[-71.27699,46.77307],[-71.27712,46.77301],[-71.27725,46.77294],[-71.27737,46.77288],[-71.2775,46.77281],[-71.27762,46.77275],[-71.27775,46.77268],[-71.27788,46.77262],[-71.278,46.77255],[-71.27813,46.77249],[-71.27825,46.77242],[-71.27838,46.77236],[-71.27851,46.77229],[-71.27863,46.77223],[-71.27876,46.77217],[-71.27888,46.7721],[-71.27901,46.77204],[-71.27914,46.77197],[-71.27926,46.77191],[-71.27939,46.77184],[-71.27952,46.77178],[-71.27964,46.77171],[-71.27977,46.77165],[-71.27989,46.77159],[-71.28002,46.77152],[-71.28015,46.77146],[-71.28027,46.77139],[-71.2804,46.77133],[-71.28053,46.77126],[-71.28065,46.7712],[-71.28078,46.77113],[-71.2809,46.77107],[-71.28103,46.771],[-71.28115,46.77093],[-71.28128,46.77087],[-71.2814,46.7708],[-71.28153,46.77074],[-71.28165,46.77067],[-71.28178,46.77061],[-71.2819,46.77054],[-71.28203,46.77048],[-71.28215,46.77041],[-71.28228,46.77035],[-71.28241,46.77028],[-71.28253,46.77022],[-71.28266,46.77015],[-71.28279,46.77009],[-71.28291,46.77002],[-71.28304,46.76996],[-71.28316,46.76989],[-71.28329,46.76983],[-71.28342,46.76976],[-71.28354,46.7697],[-71.28367,46.76964],[-71.28379,46.76957],[-71.28392,46.76951],[-71.28405,46.76944],[-71.28417,46.76938],[-71.2843,46.76931],[-71.28442,46.76925],[-71.28455,46.76918],[-71.28468,46.76912],[-71.2848,46.76905],[-71.28493,46.76899],[-71.28506,46.76892],[-71.28518,46.76886],[-71.28531,46.76879],[-71.28543,46.76873],[-71.28556,46.76867],[-71.28569,46.7686],[-71.28581,46.76854],[-71.28594,46.76847],[-71.28606,46.76841],[-71.28619,46.76834],[-71.28632,46.76828],[-71.28644,46.76821],[-71.28657,46.76815],[-71.2867,46.76808],[-71.28682,46.76802],[-71.28695,46.76795],[-71.28707,46.76789],[-71.2872,46.76782],[-71.28733,46.76776],[-71.28745,46.7677],[-71.28758,46.76763],[-71.2877,46.76757],[-71.28783,46.7675],[-71.28796,46.76744],[-71.28808,46.76737],[-71.28821,46.76731],[-71.28833,46.76724],[-71.28846,46.76718],[-71.28859,46.76711],[-71.28871,46.76705],[-71.28884,46.76698],[-71.28897,46.76692],[-71.28909,46.76685],[-71.28922,46.76679],[-71.28934,46.76672],[-71.28947,46.76666],[-71.2896,46.7666],[-71.28972,46.76653],[-71.28985,46.76647],[-71.28999,46.76642],[-71.29014,46.76639],[-71.2903,46.76639],[-71.29044,46.76643],[-71.29056,46.7665],[-71.29067,46.76658],[-71.29077,46.76666],[-71.29088,46.76674],[-71.29098,46.76682],[-71.29108,46.76691],[-71.29118,46.76699],[-71.29128,46.76707],[-71.29139,46.76715],[-71.29149,46.76723],[-71.29159,46.76732],[-71.29169,46.7674],[-71.29179,46.76748],[-71.2919,46.76756],[-71.292,46.76764],[-71.2921,46.76773],[-71.29221,46.76781],[-71.29231,46.76789],[-71.29242,46.76797],[-71.29253,46.76804],[-71.29264,46.76812],[-71.29275,46.7682],[-71.29286,46.76827],[-71.29297,46.76835],[-71.29308,46.76843],[-71.29319,46.76851],[-71.2933,46.76858],[-71.29341,46.76866],[-71.29352,46.76874],[-71.29363,46.76881],[-71.29374,46.76889],[-71.29385,46.76897],[-71.29396,46.76905],[-71.29408,46.76912],[-71.2942,46.76919],[-71.29432,46.76926],[-71.29445,46.76932],[-71.29458,46.76938],[-71.29471,46.76944],[-71.29484,46.7695],[-71.29497,46.76956],[-71.2951,46.76962],[-71.29523,46.76968],[-71.29536,46.76974],[-71.29549,46.7698],[-71.29562,46.76986],[-71.29575,46.76992],[-71.29589,46.76998],[-71.29602,46.77004],[-71.29615,46.7701],[-71.29628,46.77016],[-71.29641,46.77022],[-71.29654,46.77028],[-71.29667,46.77034],[-71.2968,46.7704],[-71.29693,46.77047],[-71.29706,46.77053],[-71.29718,46.77059],[-71.2973,46.77067],[-71.2974,46.77075],[-71.2975,46.77083],[-71.2976,46.77092],[-71.29769,46.77101],[-71.29779,46.77109],[-71.29788,46.77118],[-71.29798,46.77126],[-71.29808,46.77135],[-71.29817,46.77143],[-71.29827,46.77152],[-71.29837,46.7716],[-71.29846,46.77169],[-71.29856,46.77177],[-71.29866,46.77186],[-71.29876,46.77194],[-71.29887,46.77202],[-71.29898,46.77209],[-71.29909,46.77217],[-71.2992,46.77225],[-71.2993,46.77233],[-71.29941,46.77241],[-71.29952,46.77249],[-71.29963,46.77257],[-71.29974,46.77264],[-71.29985,46.77272],[-71.29995,46.7728],[-71.30006,46.77288],[-71.30017,46.77295],[-71.30029,46.77303],[-71.3004,46.77311],[-71.30051,46.77318],[-71.30063,46.77325],[-71.30077,46.77331],[-71.30092,46.77333],[-71.30106,46.77329],[-71.30118,46.77321],[-71.30129,46.77314],[-71.30141,46.77307],[-71.30152,46.77299],[-71.30164,46.77292],[-71.30174,46.77284],[-71.30185,46.77276],[-71.30196,46.77268],[-71.30206,46.7726],[-71.30216,46.77252],[-71.30226,46.77243],[-71.30236,46.77235],[-71.30246,46.77226],[-71.30256,46.77218],[-71.30266,46.7721],[-71.30276,46.77201],[-71.30286,46.77193],[-71.30297,46.77185],[-71.30307,46.77177],[-71.30318,46.77169],[-71.30329,46.77161],[-71.3034,46.77154],[-71.30351,46.77146],[-71.30362,46.77138],[-71.30373,46.77131],[-71.30384,46.77123],[-71.30395,46.77115],[-71.30406,46.77108],[-71.30418,46.771],[-71.3043,46.77094],[-71.30443,46.77087],[-71.30457,46.77082],[-71.3047,46.77076],[-71.30483,46.7707],[-71.30497,46.77065],[-71.30511,46.77059],[-71.30524,46.77054],[-71.30537,46.77047],[-71.30549,46.77041],[-71.30561,46.77034],[-71.30573,46.77026],[-71.30585,46.77019],[-71.30596,46.77012],[-71.30608,46.77004],[-71.30619,46.76997],[-71.3063,46.7699],[-71.30642,46.76982],[-71.30653,46.76975],[-71.30665,46.76967],[-71.30676,46.7696],[-71.30688,46.76953],[-71.30699,46.76945],[-71.30711,46.76938],[-71.30722,46.7693],[-71.30734,46.76923],[-71.30745,46.76916],[-71.30756,46.76908],[-71.30768,46.76901],[-71.30779,46.76893],[-71.30791,46.76886],[-71.30802,46.76878],[-71.30813,46.76871],[-71.30825,46.76863],[-71.30836,46.76856],[-71.30848,46.76848],[-71.30859,46.76841],[-71.3087,46.76834],[-71.30882,46.76826],[-71.30893,46.76819],[-71.30904,46.76811],[-71.30916,46.76804],[-71.30927,46.76796],[-71.30939,46.76789],[-71.3095,46.76781],[-71.30961,46.76774],[-71.30973,46.76766],[-71.30984,46.76759],[-71.30995,46.76751],[-71.31007,46.76744],[-71.31018,46.76736],[-71.31029,46.76729],[-71.31041,46.76721],[-71.31052,46.76714],[-71.31063,46.76706],[-71.31074,46.76699],[-71.31085,46.76691],[-71.31097,46.76683],[-71.31108,46.76676],[-71.31119,46.76668],[-71.3113,46.76661],[-71.31142,46.76653],[-71.31153,46.76646],[-71.31164,46.76638],[-71.31176,46.76631],[-71.31187,46.76623],[-71.31198,46.76616],[-71.3121,46.76608],[-71.31221,46.76601],[-71.31232,46.76593],[-71.31244,46.76586],[-71.31255,46.76578],[-71.31266,46.76571],[-71.31278,46.76563],[-71.31289,46.76556],[-71.313,46.76548],[-71.31312,46.76541],[-71.31323,46.76533],[-71.31334,46.76526],[-71.31346,46.76518],[-71.31357,46.76511],[-71.31368,46.76503],[-71.3138,46.76496],[-71.31391,46.76488],[-71.31403,46.76481],[-71.31414,46.76473],[-71.31425,46.76466],[-71.31437,46.76458],[-71.31448,46.76451],[-71.31459,46.76443],[-71.31471,46.76436],[-71.31482,46.76428],[-71.31493,46.76421],[-71.31505,46.76413],[-71.31516,46.76406],[-71.31527,46.76398],[-71.31539,46.76391],[-71.3155,46.76384],[-71.31561,46.76376],[-71.31573,46.76369],[-71.31584,46.76361],[-71.31595,46.76354],[-71.31607,46.76346],[-71.31619,46.76339],[-71.3163,46.76332],[-71.31642,46.76325],[-71.31654,46.76317],[-71.31666,46.7631],[-71.31677,46.76303],[-71.31689,46.76296],[-71.31701,46.76289],[-71.31712,46.76281],[-71.31724,46.76274],[-71.31736,46.76267],[-71.31748,46.7626],[-71.31759,46.76253],[-71.31771,46.76245],[-71.31783,46.76238],[-71.31795,46.76231],[-71.31806,46.76224],[-71.31818,46.76217],[-71.3183,46.76209],[-71.31842,46.76202],[-71.31853,46.76195],[-71.31865,46.76188],[-71.31877,46.76181],[-71.31888,46.76173],[-71.319,46.76166],[-71.31912,46.76159],[-71.31923,46.76151],[-71.31935,46.76144],[-71.31946,46.76137],[-71.31958,46.76129],[-71.3197,46.76122],[-71.31981,46.76115],[-71.31993,46.76108],[-71.32004,46.761],[-71.32016,46.76093],[-71.32027,46.76086],[-71.32039,46.76078],[-71.32051,46.76071],[-71.32062,46.76064],[-71.32074,46.76056],[-71.32085,46.76049],[-71.32097,46.76041],[-71.32108,46.76034],[-71.32121,46.76028],[-71.32136,46.76025],[-71.32151,46.76027],[-71.32165,46.76032],[-71.32176,46.7604],[-71.32187,46.76047],[-71.32198,46.76055],[-71.32208,46.76063],[-71.32219,46.76071],[-71.3223,46.76079],[-71.32241,46.76087],[-71.32252,46.76095],[-71.32262,46.76102],[-71.32273,46.7611],[-71.32284,46.76118],[-71.32295,46.76126],[-71.32306,46.76134],[-71.32316,46.76142],[-71.32327,46.7615],[-71.32338,46.76157],[-71.32349,46.76165],[-71.3236,46.76173],[-71.3237,46.76181],[-71.32381,46.76189],[-71.32392,46.76197],[-71.32403,46.76205],[-71.32414,46.76212],[-71.32424,46.7622],[-71.32435,46.76228],[-71.32446,46.76236],[-71.32457,46.76244],[-71.32468,46.76252],[-71.32478,46.7626],[-71.32489,46.76267],[-71.325,46.76275],[-71.32511,46.76283],[-71.32522,46.76291],[-71.32532,46.76299],[-71.32543,46.76307],[-71.32554,46.76314],[-71.32565,46.76322],[-71.32576,46.7633],[-71.32586,46.76338],[-71.32597,46.76346],[-71.32608,46.76354],[-71.32619,46.76362],[-71.3263,46.76369],[-71.32641,46.76377],[-71.32651,46.76385],[-71.32662,46.76393],[-71.32673,46.76401],[-71.32684,46.76409],[-71.32695,46.76417],[-71.32705,46.76424],[-71.32716,46.76432],[-71.32727,46.7644],[-71.32738,46.76448],[-71.32749,46.76456],[-71.32759,46.76464],[-71.3277,46.76472],[-71.32781,46.76479],[-71.32792,46.76487],[-71.32803,46.76495],[-71.32813,46.76503],[-71.32824,46.76511],[-71.32835,46.76519],[-71.32846,46.76527],[-71.32857,46.76534],[-71.32869,46.76541],[-71.32881,46.76548],[-71.32894,46.76554],[-71.32908,46.76559],[-71.32923,46.76564],[-71.32937,46.76568],[-71.32951,46.76573],[-71.32965,46.76578],[-71.32979,46.76582],[-71.32994,46.76587],[-71.33008,46.76592],[-71.33022,46.76596],[-71.33036,46.76601],[-71.3305,46.76606],[-71.33063,46.76612],[-71.33076,46.76619],[-71.33087,46.76626],[-71.33099,46.76633],[-71.3311,46.76641],[-71.33122,46.76648],[-71.33133,46.76655],[-71.33145,46.76663],[-71.33156,46.7667],[-71.33168,46.76677],[-71.33179,46.76685],[-71.33191,46.76692],[-71.33203,46.767],[-71.33214,46.76707],[-71.33226,46.76714],[-71.33237,46.76722],[-71.33249,46.76729],[-71.3326,46.76736],[-71.33272,46.76744],[-71.33283,46.76751],[-71.33295,46.76758],[-71.33306,46.76766],[-71.33318,46.76773],[-71.33329,46.7678],[-71.33341,46.76788],[-71.33352,46.76795],[-71.33364,46.76803],[-71.33375,46.7681],[-71.33387,46.76817],[-71.33398,46.76825],[-71.3341,46.76832],[-71.33421,46.76839],[-71.33433,46.76847],[-71.33444,46.76854],[-71.33456,46.76861],[-71.33467,46.76869],[-71.33479,46.76876],[-71.33491,46.76884],[-71.33502,46.76891],[-71.33514,46.76898],[-71.33525,46.76906],[-71.33537,46.76913],[-71.33548,46.7692],[-71.3356,46.76928],[-71.33571,46.76935],[-71.33583,46.76942],[-71.33595,46.76949],[-71.33607,46.76956],[-71.33619,46.76963],[-71.33631,46.7697],[-71.33643,46.76977],[-71.33655,46.76984],[-71.33667,46.76992],[-71.33678,46.76999],[-71.3369,46.77006],[-71.33702,46.77013],[-71.33714,46.7702],[-71.33726,46.77027],[-71.33738,46.77034],[-71.3375,46.77041],[-71.33762,46.77048],[-71.33774,46.77055],[-71.33786,46.77062],[-71.33798,46.77069],[-71.3381,46.77076],[-71.33822,46.77083],[-71.33833,46.7709],[-71.33845,46.77097],[-71.33857,46.77104],[-71.33869,46.77112],[-71.33881,46.77119],[-71.33893,46.77126],[-71.33905,46.77133],[-71.33917,46.7714],[-71.33929,46.77147],[-71.33941,46.77154],[-71.33953,46.77161],[-71.33965,46.77168],[-71.33976,46.77175],[-71.33988,46.77182],[-71.34,46.77189],[-71.34012,46.77196],[-71.34024,46.77203],[-71.34036,46.7721],[-71.34048,46.77217],[-71.3406,46.77224],[-71.34072,46.77232],[-71.34084,46.77239],[-71.34096,46.77246],[-71.34108,46.77253],[-71.34119,46.7726],[-71.34131,46.77267],[-71.34143,46.77274],[-71.34155,46.77281],[-71.34167,46.77288],[-71.34179,46.77295],[-71.34192,46.77301],[-71.34204,46.77308],[-71.34217,46.77314],[-71.34231,46.7732],[-71.34244,46.77326],[-71.34258,46.77331],[-71.34272,46.77336],[-71.34286,46.77341],[-71.343,46.77346],[-71.34314,46.7735],[-71.34328,46.77355],[-71.34343,46.77359],[-71.34357,46.77364],[-71.34372,46.77368],[-71.34386,46.77372],[-71.344,46.77377],[-71.34415,46.77381],[-71.34429,46.77386],[-71.34443,46.7739],[-71.34458,46.77394],[-71.34472,46.77399],[-71.34487,46.77403],[-71.34501,46.77408],[-71.34515,46.77412],[-71.3453,46.77417],[-71.34544,46.77421],[-71.34558,46.77425],[-71.34573,46.7743],[-71.34587,46.77434],[-71.34602,46.77439],[-71.34616,46.77443],[-71.3463,46.77448],[-71.34645,46.77452],[-71.34659,46.77457],[-71.34673,46.77461],[-71.34687,46.77466],[-71.34701,46.77471],[-71.34715,46.77476],[-71.34729,46.77481],[-71.34743,46.77486],[-71.34757,46.7749],[-71.34772,46.77495],[-71.34786,46.775],[-71.348,46.77505],[-71.34814,46.7751],[-71.34828,46.77514],[-71.34842,46.77519],[-71.34857,46.77523],[-71.34872,46.77526],[-71.34888,46.77528],[-71.34903,46.77529],[-71.34919,46.7753],[-71.34935,46.77528],[-71.3495,46.77526],[-71.34965,46.77522],[-71.34979,46.77517],[-71.34992,46.77511],[-71.35004,46.77504],[-71.35016,46.77497],[-71.35027,46.77489],[-71.35038,46.77482],[-71.35049,46.77474],[-71.3506,46.77466],[-71.35071,46.77458],[-71.35082,46.77451],[-71.35093,46.77443],[-71.35104,46.77435],[-71.35115,46.77427],[-71.35126,46.7742],[-71.35136,46.77412],[-71.35147,46.77404],[-71.35158,46.77396],[-71.35169,46.77389],[-71.35181,46.77381],[-71.35192,46.77373],[-71.35203,46.77366],[-71.35214,46.77358],[-71.35225,46.77351],[-71.35237,46.77343],[-71.35248,46.77335],[-71.35259,46.77328],[-71.3527,46.7732],[-71.35281,46.77313],[-71.35293,46.77305],[-71.35304,46.77298],[-71.35315,46.7729],[-71.3532,46.77287]]}}]}
