{"type":"FeatureCollection","metadata":{"titre":"Tracé du futur tramway de Québec (TramCité)","script":"scripts/build-tramway-quebec.mjs","genere_le":"2026-10-01","source":"OpenStreetMap, via l'API Overpass","licence":"ODbL 1.0","attribution":"© les contributeurs d'OpenStreetMap","base_osm":"2026-06-01","millesime_trace":"2024-12-19","avertissement":"Tracé provisoire. OSM le décrit comme « sujet à modification » : reconstitution par des contributeurs de l'avis au marché du 19 décembre 2024. Le vectoriel officiel n'est pas en données ouvertes.","longueur_mesuree_km":17.46,"longueur_annoncee_km":19,"ecart":"Le tracé d'OSM est incomplet : un tronçon de l'ouest n'est pas raccordé, et environ 700 m de tracé manquent entre les deux. La longueur mesurée est donc inférieure aux 19 km annoncés.","emprise":[-71.3361,46.7602,-71.2146,46.8415],"stations":"Les 29 stations ne sont pas cartographiées dans OSM. À saisir séparément — voir SOURCES.md."},"features":[{"type":"Feature","properties":{"couche":"tronçon","ordre":1,"osm_id":1110656734,"etat":"proposed","en_tunnel":false,"sur_viaduc":false,"longueur_km":3.9,"mise_en_service":"2033"},"geometry":{"type":"LineString","coordinates":[[-71.2483,46.8415],[-71.2475,46.8406],[-71.2467,46.8398],[-71.2458,46.8389],[-71.2453,46.8383],[-71.2434,46.836],[-71.2425,46.8349],[-71.2419,46.834],[-71.2416,46.8337],[-71.2413,46.8334],[-71.2409,46.833],[-71.2404,46.8327],[-71.2403,46.8326],[-71.24,46.8324],[-71.2395,46.8318],[-71.2389,46.8312],[-71.2384,46.8306],[-71.2379,46.8302],[-71.2377,46.83],[-71.2373,46.8297],[-71.237,46.8294],[-71.2367,46.8293],[-71.2365,46.8291],[-71.2364,46.829],[-71.2362,46.8288],[-71.2358,46.8283],[-71.2355,46.8279],[-71.2353,46.8276],[-71.2351,46.8274],[-71.2349,46.8272],[-71.2347,46.8269],[-71.2341,46.8263],[-71.2333,46.8254],[-71.233,46.8251],[-71.2325,46.8245],[-71.232,46.8239],[-71.2317,46.8236],[-71.2312,46.8233],[-71.2307,46.8229],[-71.2303,46.8227],[-71.2297,46.8223],[-71.2293,46.8221],[-71.2287,46.8217],[-71.2285,46.8215],[-71.2297,46.8205],[-71.2304,46.8197],[-71.2303,46.8195],[-71.2297,46.8189],[-71.2293,46.8183],[-71.2292,46.8182],[-71.2291,46.8182],[-71.2288,46.8182],[-71.228,46.818],[-71.2273,46.8176],[-71.2271,46.8173],[-71.2267,46.8168],[-71.2263,46.8165],[-71.2261,46.8163],[-71.226,46.816],[-71.2256,46.8156],[-71.2253,46.8153],[-71.2249,46.8146],[-71.2246,46.8142],[-71.2241,46.8136],[-71.2237,46.8132],[-71.2237,46.8131],[-71.2235,46.8128]]}},{"type":"Feature","properties":{"couche":"tronçon_tunnel","ordre":2,"osm_id":1110656739,"etat":"proposed","en_tunnel":true,"sur_viaduc":false,"longueur_km":1.73,"mise_en_service":"2033"},"geometry":{"type":"LineString","coordinates":[[-71.2235,46.8128],[-71.2231,46.8123],[-71.2227,46.8119],[-71.2224,46.8117],[-71.222,46.8116],[-71.2216,46.8116],[-71.2211,46.8117],[-71.2201,46.812],[-71.2195,46.8121],[-71.2172,46.8126],[-71.2167,46.8126],[-71.2163,46.8124],[-71.2157,46.812],[-71.2153,46.8115],[-71.2151,46.8114],[-71.2149,46.8111],[-71.2147,46.8109],[-71.2146,46.8106],[-71.2146,46.8105],[-71.2148,46.8103],[-71.2151,46.8101],[-71.2171,46.8092],[-71.2193,46.8083],[-71.2205,46.8077],[-71.2215,46.8072],[-71.2232,46.8063],[-71.2234,46.8062]]}},{"type":"Feature","properties":{"couche":"tronçon","ordre":3,"osm_id":778997313,"etat":"proposed","en_tunnel":false,"sur_viaduc":false,"longueur_km":8.39,"mise_en_service":"2033"},"geometry":{"type":"LineString","coordinates":[[-71.2234,46.8062],[-71.2266,46.8043],[-71.2268,46.8042],[-71.2272,46.804],[-71.2272,46.8039],[-71.2284,46.8032],[-71.2322,46.8011],[-71.2353,46.7993],[-71.2393,46.797],[-71.2431,46.795],[-71.2443,46.7943],[-71.2444,46.7943],[-71.2464,46.7931],[-71.247,46.7928],[-71.249,46.7916],[-71.2491,46.7916],[-71.2499,46.7911],[-71.2513,46.7903],[-71.2515,46.7902],[-71.2516,46.7902],[-71.2534,46.7891],[-71.2573,46.7867],[-71.2579,46.7863],[-71.2594,46.7854],[-71.2598,46.7851],[-71.2603,46.7848],[-71.2617,46.784],[-71.2626,46.7836],[-71.2627,46.7836],[-71.2629,46.7835],[-71.2637,46.7831],[-71.2638,46.783],[-71.2639,46.783],[-71.2639,46.783],[-71.264,46.7829],[-71.264,46.7829],[-71.2641,46.7828],[-71.2642,46.7827],[-71.2642,46.7826],[-71.2642,46.7826],[-71.2643,46.7825],[-71.2647,46.7823],[-71.2653,46.7821],[-71.2662,46.7817],[-71.2682,46.7806],[-71.2694,46.78],[-71.2698,46.7798],[-71.2704,46.7795],[-71.2711,46.7791],[-71.2742,46.7775],[-71.2743,46.7771],[-71.2738,46.7767],[-71.2726,46.7757],[-71.2725,46.7756],[-71.2725,46.7756],[-71.2725,46.7756],[-71.2725,46.7756],[-71.2725,46.7755],[-71.2725,46.7755],[-71.2725,46.7755],[-71.2725,46.7754],[-71.2725,46.7754],[-71.2725,46.7754],[-71.2725,46.7754],[-71.2726,46.7754],[-71.2726,46.7753],[-71.2753,46.7739],[-71.2755,46.7739],[-71.2787,46.7722],[-71.2804,46.7714],[-71.2818,46.7706],[-71.2819,46.7706],[-71.2862,46.7683],[-71.2901,46.7664],[-71.2904,46.7664],[-71.2923,46.7679],[-71.2925,46.768],[-71.2942,46.7692],[-71.2972,46.7706],[-71.2986,46.7718],[-71.2987,46.7719],[-71.3,46.7728],[-71.3008,46.7734],[-71.3009,46.7734],[-71.3017,46.7729],[-71.3021,46.7726],[-71.3024,46.7723],[-71.3028,46.772],[-71.303,46.7718],[-71.3031,46.7717]]}},{"type":"Feature","properties":{"couche":"tronçon","ordre":4,"osm_id":1012496032,"etat":"proposed","en_tunnel":false,"sur_viaduc":false,"longueur_km":3.37,"mise_en_service":"2033"},"geometry":{"type":"LineString","coordinates":[[-71.3038,46.7713],[-71.3042,46.771],[-71.3046,46.7708],[-71.3052,46.7706],[-71.3056,46.7704],[-71.3068,46.7696],[-71.3074,46.7692],[-71.31,46.7675],[-71.3114,46.7665],[-71.316,46.7635],[-71.3189,46.7617],[-71.3208,46.7605],[-71.3212,46.7602],[-71.3215,46.7602],[-71.3288,46.7655],[-71.3306,46.7661],[-71.3357,46.7693],[-71.3361,46.7696]]}},{"type":"Feature","properties":{"couche":"tronçon","ordre":5,"osm_id":1554915807,"etat":"construction","en_tunnel":false,"sur_viaduc":true,"longueur_km":0.04,"mise_en_service":"2033"},"geometry":{"type":"LineString","coordinates":[[-71.3365,46.7698],[-71.3361,46.7696]]}},{"type":"Feature","properties":{"couche":"tronçon_isolé","osm_id":1554915809,"etat":"proposed","longueur_km":0.86,"note":"Non raccordé au tracé principal dans OSM."},"geometry":{"type":"LineString","coordinates":[[-71.3532,46.7729],[-71.3517,46.7739],[-71.35,46.7751],[-71.3497,46.7752],[-71.3493,46.7753],[-71.349,46.7753],[-71.3487,46.7753],[-71.3484,46.7752],[-71.3466,46.7746],[-71.3439,46.7737]]}},{"type":"Feature","properties":{"couche":"tronçon_isolé","osm_id":1558354781,"etat":"proposed","longueur_km":0.07,"note":"Non raccordé au tracé principal dans OSM."},"geometry":{"type":"LineString","coordinates":[[-71.3038,46.7713],[-71.3031,46.7717]]}},{"type":"Feature","properties":{"couche":"ligne","nom":"Tramway de Québec","longueur_km":17.46,"mise_en_service":2033},"geometry":{"type":"LineString","coordinates":[[-71.2483,46.8415],[-71.2475,46.8406],[-71.2467,46.8398],[-71.2458,46.8389],[-71.2453,46.8383],[-71.2434,46.836],[-71.2425,46.8349],[-71.2419,46.834],[-71.2416,46.8337],[-71.2413,46.8334],[-71.2409,46.833],[-71.2404,46.8327],[-71.2403,46.8326],[-71.24,46.8324],[-71.2395,46.8318],[-71.2389,46.8312],[-71.2384,46.8306],[-71.2379,46.8302],[-71.2377,46.83],[-71.2373,46.8297],[-71.237,46.8294],[-71.2367,46.8293],[-71.2365,46.8291],[-71.2364,46.829],[-71.2362,46.8288],[-71.2358,46.8283],[-71.2355,46.8279],[-71.2353,46.8276],[-71.2351,46.8274],[-71.2349,46.8272],[-71.2347,46.8269],[-71.2341,46.8263],[-71.2333,46.8254],[-71.233,46.8251],[-71.2325,46.8245],[-71.232,46.8239],[-71.2317,46.8236],[-71.2312,46.8233],[-71.2307,46.8229],[-71.2303,46.8227],[-71.2297,46.8223],[-71.2293,46.8221],[-71.2287,46.8217],[-71.2285,46.8215],[-71.2297,46.8205],[-71.2304,46.8197],[-71.2303,46.8195],[-71.2297,46.8189],[-71.2293,46.8183],[-71.2292,46.8182],[-71.2291,46.8182],[-71.2288,46.8182],[-71.228,46.818],[-71.2273,46.8176],[-71.2271,46.8173],[-71.2267,46.8168],[-71.2263,46.8165],[-71.2261,46.8163],[-71.226,46.816],[-71.2256,46.8156],[-71.2253,46.8153],[-71.2249,46.8146],[-71.2246,46.8142],[-71.2241,46.8136],[-71.2237,46.8132],[-71.2237,46.8131],[-71.2235,46.8128],[-71.2231,46.8123],[-71.2227,46.8119],[-71.2224,46.8117],[-71.222,46.8116],[-71.2216,46.8116],[-71.2211,46.8117],[-71.2201,46.812],[-71.2195,46.8121],[-71.2172,46.8126],[-71.2167,46.8126],[-71.2163,46.8124],[-71.2157,46.812],[-71.2153,46.8115],[-71.2151,46.8114],[-71.2149,46.8111],[-71.2147,46.8109],[-71.2146,46.8106],[-71.2146,46.8105],[-71.2148,46.8103],[-71.2151,46.8101],[-71.2171,46.8092],[-71.2193,46.8083],[-71.2205,46.8077],[-71.2215,46.8072],[-71.2232,46.8063],[-71.2234,46.8062],[-71.2266,46.8043],[-71.2268,46.8042],[-71.2272,46.804],[-71.2272,46.8039],[-71.2284,46.8032],[-71.2322,46.8011],[-71.2353,46.7993],[-71.2393,46.797],[-71.2431,46.795],[-71.2443,46.7943],[-71.2444,46.7943],[-71.2464,46.7931],[-71.247,46.7928],[-71.249,46.7916],[-71.2491,46.7916],[-71.2499,46.7911],[-71.2513,46.7903],[-71.2515,46.7902],[-71.2516,46.7902],[-71.2534,46.7891],[-71.2573,46.7867],[-71.2579,46.7863],[-71.2594,46.7854],[-71.2598,46.7851],[-71.2603,46.7848],[-71.2617,46.784],[-71.2626,46.7836],[-71.2627,46.7836],[-71.2629,46.7835],[-71.2637,46.7831],[-71.2638,46.783],[-71.2639,46.783],[-71.2639,46.783],[-71.264,46.7829],[-71.264,46.7829],[-71.2641,46.7828],[-71.2642,46.7827],[-71.2642,46.7826],[-71.2642,46.7826],[-71.2643,46.7825],[-71.2647,46.7823],[-71.2653,46.7821],[-71.2662,46.7817],[-71.2682,46.7806],[-71.2694,46.78],[-71.2698,46.7798],[-71.2704,46.7795],[-71.2711,46.7791],[-71.2742,46.7775],[-71.2743,46.7771],[-71.2738,46.7767],[-71.2726,46.7757],[-71.2725,46.7756],[-71.2725,46.7756],[-71.2725,46.7756],[-71.2725,46.7756],[-71.2725,46.7755],[-71.2725,46.7755],[-71.2725,46.7755],[-71.2725,46.7754],[-71.2725,46.7754],[-71.2725,46.7754],[-71.2725,46.7754],[-71.2726,46.7754],[-71.2726,46.7753],[-71.2753,46.7739],[-71.2755,46.7739],[-71.2787,46.7722],[-71.2804,46.7714],[-71.2818,46.7706],[-71.2819,46.7706],[-71.2862,46.7683],[-71.2901,46.7664],[-71.2904,46.7664],[-71.2923,46.7679],[-71.2925,46.768],[-71.2942,46.7692],[-71.2972,46.7706],[-71.2986,46.7718],[-71.2987,46.7719],[-71.3,46.7728],[-71.3008,46.7734],[-71.3009,46.7734],[-71.3017,46.7729],[-71.3021,46.7726],[-71.3024,46.7723],[-71.3028,46.772],[-71.303,46.7718],[-71.3031,46.7717],[-71.3042,46.771],[-71.3046,46.7708],[-71.3052,46.7706],[-71.3056,46.7704],[-71.3068,46.7696],[-71.3074,46.7692],[-71.31,46.7675],[-71.3114,46.7665],[-71.316,46.7635],[-71.3189,46.7617],[-71.3208,46.7605],[-71.3212,46.7602],[-71.3215,46.7602],[-71.3288,46.7655],[-71.3306,46.7661],[-71.3357,46.7693],[-71.3361,46.7696],[-71.3361,46.7696]]}}]}
